RSN,Earthquake Name,Station,Magnitude,Distance,Vs30,Filename (H1),Filename (H2),Filename (V),PGA (g),PGV (cm/sec),PGD (cm),T0.010S,T0.020S,T0.022S,T0.025S,T0.029S,T0.030S,T0.032S,T0.035S,T0.036S,T0.040S,T0.042S,T0.044S,T0.045S,T0.046S,T0.048S,T0.050S,T0.055S,T0.060S,T0.065S,T0.067S,T0.070S,T0.075S,T0.080S,T0.085S,T0.090S,T0.095S,T0.100S,T0.110S,T0.120S,T0.130S,T0.133S,T0.140S,T0.150S,T0.160S,T0.170S,T0.180S,T0.190S,T0.200S,T0.220S,T0.240S,T0.250S,T0.260S,T0.280S,T0.290S,T0.300S,T0.320S,T0.340S,T0.350S,T0.360S,T0.380S,T0.400S,T0.420S,T0.440S,T0.450S,T0.460S,T0.480S,T0.500S,T0.550S,T0.600S,T0.650S,T0.667S,T0.700S,T0.750S,T0.800S,T0.850S,T0.900S,T0.950S,T1.000S,T1.100S,T1.200S,T1.300S,T1.400S,T1.500S,T1.600S,T1.700S,T1.800S,T1.900S,T2.000S,T2.200S,T2.400S,T2.500S,T2.600S,T2.800S,T3.000S,T3.200S,T3.400S,T3.500S,T3.600S,T3.800S,T4.000S,T4.200S,T4.400S,T4.600S,T4.800S,T5.000S,T5.500S,T6.000S,T6.500S,T7.000S,T7.500S,T8.000S,T8.500S,T9.000S,T9.500S,T10.000S,T11.000S,T12.000S,T13.000S,T14.000S,T15.000S,T20.000S
113,Oroville-03,DWR Garage,4.7,0,634.85,OROVILLE\D-DWR090.AT2,OROVILLE\D-DWR180.AT2,OROVILLE\D-DWRDWN.AT2,1.84E-01,1.69E+00,3.24E-02,1.90E-01,3.18E-01,3.46E-01,3.51E-01,4.01E-01,4.11E-01,4.57E-01,4.64E-01,4.50E-01,5.54E-01,5.71E-01,5.98E-01,5.93E-01,5.96E-01,6.68E-01,7.60E-01,8.01E-01,6.53E-01,6.26E-01,5.66E-01,5.02E-01,3.97E-01,3.29E-01,2.70E-01,2.08E-01,1.73E-01,1.75E-01,1.39E-01,1.09E-01,7.55E-02,7.18E-02,6.94E-02,5.75E-02,5.21E-02,4.15E-02,3.27E-02,2.97E-02,2.84E-02,2.59E-02,2.86E-02,2.76E-02,2.57E-02,2.72E-02,2.70E-02,2.88E-02,2.84E-02,2.58E-02,2.44E-02,2.29E-02,2.10E-02,1.89E-02,1.64E-02,1.40E-02,1.30E-02,1.24E-02,1.11E-02,1.01E-02,7.34E-03,5.67E-03,4.50E-03,4.23E-03,3.79E-03,3.30E-03,2.93E-03,2.61E-03,2.33E-03,2.07E-03,1.83E-03,1.42E-03,1.13E-03,9.42E-04,7.87E-04,6.95E-04,6.14E-04,5.45E-04,4.84E-04,4.33E-04,3.88E-04,3.15E-04,2.60E-04,2.37E-04,2.18E-04,1.84E-04,1.58E-04,1.37E-04,1.20E-04,1.12E-04,1.06E-04,9.37E-05,8.38E-05,7.54E-05,6.81E-05,6.19E-05,5.65E-05,5.18E-05,4.23E-05,3.52E-05,3.00E-05,2.60E-05,2.28E-05,2.01E-05,1.78E-05,1.59E-05,1.43E-05,1.29E-05,1.07E-05,9.02E-06,7.69E-06,6.64E-06,5.79E-06,3.26E-06
114,Oroville-03,Duffy Residence (OR5),4.7,7.35,418.97,OROVILLE\D-OR5090.AT2,OROVILLE\D-OR5180.AT2,OROVILLE\D-OR5DWN.AT2,6.96E-02,2.38E+00,1.72E-01,7.05E-02,7.84E-02,7.89E-02,8.28E-02,9.11E-02,8.97E-02,8.76E-02,9.94E-02,1.03E-01,1.14E-01,1.09E-01,1.08E-01,1.08E-01,1.08E-01,1.20E-01,1.41E-01,1.61E-01,1.60E-01,1.69E-01,1.66E-01,1.62E-01,1.63E-01,1.88E-01,2.30E-01,2.37E-01,2.14E-01,1.75E-01,1.49E-01,1.48E-01,1.70E-01,1.79E-01,2.07E-01,2.14E-01,1.66E-01,1.70E-01,1.72E-01,1.56E-01,1.30E-01,9.41E-02,9.00E-02,9.07E-02,9.38E-02,1.06E-01,1.11E-01,1.10E-01,9.43E-02,8.00E-02,7.37E-02,6.79E-02,6.98E-02,6.92E-02,6.57E-02,6.01E-02,5.72E-02,5.50E-02,5.07E-02,4.43E-02,3.61E-02,2.91E-02,2.60E-02,2.55E-02,2.36E-02,2.32E-02,2.21E-02,2.27E-02,2.29E-02,2.11E-02,1.94E-02,1.59E-02,1.19E-02,9.60E-03,7.60E-03,5.91E-03,4.87E-03,4.12E-03,3.48E-03,3.00E-03,2.68E-03,2.12E-03,1.74E-03,1.59E-03,1.45E-03,1.22E-03,1.04E-03,8.99E-04,7.81E-04,7.30E-04,6.84E-04,6.04E-04,5.37E-04,4.80E-04,4.32E-04,3.90E-04,3.55E-04,3.24E-04,2.62E-04,2.16E-04,1.82E-04,1.55E-04,1.33E-04,1.16E-04,1.02E-04,9.06E-05,8.09E-05,7.27E-05,5.97E-05,4.98E-05,4.22E-05,3.63E-05,3.15E-05,1.76E-05
115,Oroville-03,Johnson Ranch,4.7,7.38,589.8,OROVILLE\D-DJR000.AT2,OROVILLE\D-DJR090.AT2,OROVILLE\D-DJRDWN.AT2,1.46E-01,2.60E+00,5.75E-02,1.47E-01,1.63E-01,1.78E-01,2.03E-01,2.35E-01,2.47E-01,2.52E-01,3.43E-01,3.72E-01,4.51E-01,4.14E-01,3.58E-01,3.32E-01,3.05E-01,2.99E-01,2.95E-01,3.78E-01,4.59E-01,4.14E-01,4.06E-01,4.20E-01,4.64E-01,4.28E-01,3.89E-01,4.54E-01,4.82E-01,3.86E-01,3.86E-01,3.70E-01,3.75E-01,3.78E-01,4.33E-01,4.60E-01,3.92E-01,3.71E-01,3.56E-01,3.07E-01,2.50E-01,1.56E-01,1.04E-01,8.41E-02,7.03E-02,5.49E-02,5.06E-02,4.71E-02,4.25E-02,3.61E-02,3.31E-02,3.00E-02,2.70E-02,2.40E-02,2.12E-02,1.87E-02,1.77E-02,1.68E-02,1.54E-02,1.52E-02,1.39E-02,1.01E-02,8.65E-03,8.30E-03,7.99E-03,7.32E-03,6.09E-03,5.33E-03,4.59E-03,4.05E-03,3.64E-03,2.77E-03,2.25E-03,1.87E-03,1.56E-03,1.37E-03,1.16E-03,9.75E-04,8.31E-04,7.18E-04,6.49E-04,5.35E-04,4.46E-04,4.08E-04,3.75E-04,3.20E-04,2.76E-04,2.41E-04,2.11E-04,1.99E-04,1.87E-04,1.67E-04,1.50E-04,1.36E-04,1.23E-04,1.12E-04,1.03E-04,9.50E-05,7.86E-05,6.60E-05,5.62E-05,4.84E-05,4.21E-05,3.70E-05,3.27E-05,2.91E-05,2.61E-05,2.35E-05,1.94E-05,1.63E-05,1.39E-05,1.19E-05,1.04E-05,5.82E-06
116,Oroville-03,Nelson Ranch (OR7),4.7,0.77,514.91,OROVILLE\D-OR7180.AT2,OROVILLE\D-OR7270.AT2,OROVILLE\D-OR7DWN.AT2,9.01E-02,1.27E+00,5.13E-02,1.04E-01,1.44E-01,1.64E-01,1.73E-01,1.83E-01,1.88E-01,2.02E-01,2.16E-01,2.23E-01,2.49E-01,2.79E-01,2.86E-01,2.68E-01,2.47E-01,2.34E-01,2.34E-01,2.31E-01,2.29E-01,2.73E-01,2.78E-01,2.89E-01,3.08E-01,2.88E-01,2.89E-01,2.48E-01,2.39E-01,2.02E-01,1.77E-01,1.22E-01,1.07E-01,1.03E-01,9.04E-02,6.77E-02,6.27E-02,6.01E-02,6.82E-02,6.68E-02,6.41E-02,5.28E-02,5.08E-02,5.12E-02,5.05E-02,5.25E-02,4.56E-02,4.22E-02,3.66E-02,2.69E-02,2.38E-02,2.27E-02,2.12E-02,1.93E-02,1.79E-02,1.74E-02,1.74E-02,1.77E-02,1.74E-02,1.66E-02,1.41E-02,1.12E-02,9.47E-03,9.25E-03,8.66E-03,7.41E-03,6.24E-03,5.41E-03,4.60E-03,3.85E-03,3.29E-03,2.67E-03,2.06E-03,1.72E-03,1.44E-03,1.30E-03,1.13E-03,9.98E-04,8.76E-04,7.68E-04,6.76E-04,5.30E-04,4.25E-04,3.85E-04,3.50E-04,2.94E-04,2.52E-04,2.18E-04,1.92E-04,1.80E-04,1.70E-04,1.51E-04,1.36E-04,1.23E-04,1.11E-04,1.01E-04,9.30E-05,8.54E-05,7.03E-05,5.88E-05,4.99E-05,4.29E-05,3.73E-05,3.27E-05,2.90E-05,2.58E-05,2.31E-05,2.09E-05,1.72E-05,1.44E-05,1.23E-05,1.06E-05,9.24E-06,5.18E-06
117,Oroville-03,Oroville Airport,4.7,8.67,391.76,OROVILLE\D-OAP180.AT2,OROVILLE\D-OAP270.AT2,OROVILLE\D-OAPDWN.AT2,6.94E-02,2.34E+00,2.54E-01,6.97E-02,7.27E-02,7.40E-02,7.58E-02,7.98E-02,8.14E-02,8.24E-02,8.80E-02,9.23E-02,1.06E-01,1.13E-01,1.27E-01,1.34E-01,1.38E-01,1.51E-01,1.53E-01,1.35E-01,1.38E-01,1.24E-01,1.42E-01,1.58E-01,1.46E-01,1.39E-01,1.38E-01,1.46E-01,1.63E-01,1.77E-01,1.96E-01,1.79E-01,1.66E-01,1.63E-01,1.49E-01,1.29E-01,1.25E-01,1.26E-01,1.24E-01,1.33E-01,1.31E-01,1.03E-01,8.49E-02,8.25E-02,8.01E-02,7.50E-02,7.26E-02,7.01E-02,6.96E-02,7.55E-02,7.74E-02,7.84E-02,7.73E-02,7.28E-02,6.63E-02,5.91E-02,5.61E-02,5.38E-02,4.94E-02,4.53E-02,3.88E-02,3.34E-02,2.83E-02,2.67E-02,2.38E-02,2.07E-02,1.85E-02,1.64E-02,1.43E-02,1.37E-02,1.29E-02,1.23E-02,1.10E-02,9.66E-03,7.97E-03,6.42E-03,5.37E-03,4.51E-03,4.10E-03,3.72E-03,3.33E-03,2.61E-03,2.06E-03,1.83E-03,1.63E-03,1.37E-03,1.15E-03,1.00E-03,8.81E-04,8.28E-04,7.80E-04,7.01E-04,6.35E-04,5.77E-04,5.27E-04,4.82E-04,4.44E-04,4.09E-04,3.38E-04,2.84E-04,2.42E-04,2.09E-04,1.82E-04,1.60E-04,1.41E-04,1.26E-04,1.13E-04,1.02E-04,8.43E-05,7.09E-05,6.04E-05,5.20E-05,4.53E-05,2.55E-05
118,Oroville-03,Pacific Heights Rd (OR4),4.7,8.7,352.22,OROVILLE\D-OR4235.AT2,OROVILLE\D-OR4325.AT2,OROVILLE\D-OR4DWN.AT2,6.04E-02,2.98E+00,2.49E-01,6.05E-02,6.30E-02,6.59E-02,6.84E-02,8.26E-02,8.40E-02,8.35E-02,8.51E-02,8.67E-02,9.17E-02,9.28E-02,9.70E-02,9.45E-02,9.21E-02,9.82E-02,1.01E-01,1.23E-01,1.30E-01,1.43E-01,1.63E-01,1.81E-01,1.80E-01,1.76E-01,1.53E-01,1.36E-01,1.32E-01,1.37E-01,1.28E-01,1.28E-01,1.62E-01,1.76E-01,2.05E-01,2.20E-01,2.25E-01,2.27E-01,2.14E-01,1.91E-01,1.65E-01,1.33E-01,1.15E-01,1.11E-01,1.10E-01,1.11E-01,1.08E-01,1.07E-01,9.89E-02,9.25E-02,8.97E-02,8.57E-02,8.31E-02,8.36E-02,7.62E-02,6.55E-02,6.31E-02,6.15E-02,5.85E-02,5.62E-02,4.92E-02,4.14E-02,4.22E-02,4.15E-02,3.98E-02,4.00E-02,3.64E-02,3.33E-02,3.02E-02,2.63E-02,2.20E-02,1.68E-02,1.47E-02,1.30E-02,1.10E-02,9.73E-03,7.88E-03,6.27E-03,5.30E-03,4.41E-03,3.63E-03,2.68E-03,2.18E-03,1.99E-03,1.82E-03,1.54E-03,1.32E-03,1.13E-03,9.84E-04,9.21E-04,8.62E-04,7.60E-04,6.76E-04,6.05E-04,5.44E-04,4.92E-04,4.46E-04,4.07E-04,3.36E-04,2.82E-04,2.41E-04,2.08E-04,1.80E-04,1.59E-04,1.40E-04,1.25E-04,1.12E-04,1.01E-04,8.35E-05,7.01E-05,5.97E-05,5.14E-05,4.48E-05,2.52E-05
119,Oroville-03,Summit Ave (OR6),4.7,4.79,548.76,OROVILLE\D-OR6035.AT2,OROVILLE\D-OR6125.AT2,OROVILLE\D-OR6DWN.AT2,9.70E-02,1.82E+00,6.06E-02,9.80E-02,1.02E-01,1.05E-01,1.09E-01,1.26E-01,1.30E-01,1.39E-01,1.81E-01,1.88E-01,1.95E-01,1.78E-01,1.82E-01,1.88E-01,1.84E-01,1.80E-01,1.78E-01,1.92E-01,1.93E-01,2.22E-01,2.48E-01,2.65E-01,2.60E-01,2.22E-01,2.19E-01,3.00E-01,3.56E-01,3.98E-01,3.75E-01,3.10E-01,1.90E-01,1.89E-01,1.72E-01,1.95E-01,2.19E-01,1.97E-01,1.66E-01,1.55E-01,1.47E-01,1.28E-01,1.07E-01,9.34E-02,7.94E-02,5.43E-02,4.76E-02,4.18E-02,3.68E-02,3.66E-02,3.72E-02,3.77E-02,3.74E-02,3.54E-02,3.26E-02,2.90E-02,2.76E-02,2.61E-02,2.27E-02,1.98E-02,1.60E-02,1.18E-02,8.92E-03,8.11E-03,6.70E-03,5.22E-03,4.36E-03,3.87E-03,3.63E-03,3.24E-03,2.98E-03,2.56E-03,2.19E-03,1.80E-03,1.58E-03,1.44E-03,1.30E-03,1.17E-03,1.05E-03,9.47E-04,8.54E-04,6.97E-04,5.75E-04,5.25E-04,4.80E-04,4.05E-04,3.45E-04,2.97E-04,2.58E-04,2.41E-04,2.26E-04,1.99E-04,1.77E-04,1.58E-04,1.42E-04,1.28E-04,1.17E-04,1.06E-04,8.59E-05,7.08E-05,5.94E-05,5.06E-05,4.36E-05,3.80E-05,3.34E-05,2.96E-05,2.64E-05,2.37E-05,1.94E-05,1.62E-05,1.39E-05,1.21E-05,1.05E-05,6.01E-06
120,Oroville-03,Up & Down Cafe (OR1),4.7,10.2,377.25,OROVILLE\D-OR1000.AT2,OROVILLE\D-OR1090.AT2,OROVILLE\D-OR1DWN.AT2,1.09E-01,3.33E+00,4.71E-01,1.10E-01,1.20E-01,1.24E-01,1.23E-01,1.36E-01,1.46E-01,1.56E-01,1.65E-01,1.70E-01,2.19E-01,2.61E-01,2.96E-01,3.16E-01,3.32E-01,3.51E-01,3.59E-01,3.54E-01,3.17E-01,2.64E-01,2.46E-01,2.23E-01,2.31E-01,2.48E-01,2.51E-01,2.30E-01,2.38E-01,2.63E-01,2.70E-01,2.94E-01,3.16E-01,3.24E-01,3.35E-01,3.28E-01,2.96E-01,2.55E-01,2.21E-01,2.03E-01,1.99E-01,1.90E-01,1.79E-01,1.67E-01,1.52E-01,1.21E-01,1.06E-01,9.11E-02,7.22E-02,6.58E-02,6.23E-02,6.02E-02,5.17E-02,4.85E-02,4.51E-02,4.17E-02,4.02E-02,3.89E-02,3.75E-02,3.97E-02,4.27E-02,4.67E-02,4.96E-02,5.07E-02,5.25E-02,5.46E-02,4.96E-02,4.40E-02,3.88E-02,3.30E-02,2.87E-02,2.33E-02,1.88E-02,1.52E-02,1.26E-02,1.04E-02,8.83E-03,7.49E-03,6.38E-03,5.55E-03,4.79E-03,3.56E-03,3.04E-03,2.82E-03,2.62E-03,2.28E-03,2.00E-03,1.77E-03,1.58E-03,1.49E-03,1.41E-03,1.27E-03,1.15E-03,1.04E-03,9.54E-04,8.74E-04,8.04E-04,7.42E-04,6.15E-04,5.18E-04,4.42E-04,3.81E-04,3.32E-04,2.92E-04,2.59E-04,2.31E-04,2.08E-04,1.88E-04,1.55E-04,1.31E-04,1.11E-04,9.60E-05,8.37E-05,4.71E-05
121,"Friuli, Italy-01",Barcis,6.5,49.13,496.46,FRIULI.A\A-BCS000.AT2,FRIULI.A\A-BCS270.AT2,FRIULI.A\A-BCS-UP.AT2,2.95E-02,1.85E+00,9.72E-01,2.97E-02,3.11E-02,3.23E-02,3.37E-02,3.67E-02,3.81E-02,3.65E-02,3.70E-02,4.05E-02,4.57E-02,4.61E-02,5.03E-02,5.17E-02,5.27E-02,5.05E-02,5.43E-02,6.17E-02,6.74E-02,6.87E-02,7.31E-02,7.22E-02,9.45E-02,8.88E-02,8.01E-02,6.90E-02,5.96E-02,6.34E-02,8.41E-02,9.00E-02,8.89E-02,8.74E-02,9.43E-02,1.00E-01,9.37E-02,8.32E-02,8.02E-02,7.88E-02,7.82E-02,5.99E-02,5.34E-02,5.25E-02,5.48E-02,4.63E-02,3.74E-02,3.16E-02,2.97E-02,3.13E-02,3.26E-02,3.37E-02,3.54E-02,3.56E-02,3.35E-02,2.74E-02,2.54E-02,2.38E-02,2.40E-02,2.38E-02,2.42E-02,2.58E-02,2.51E-02,2.48E-02,2.62E-02,2.57E-02,2.82E-02,2.73E-02,2.27E-02,1.77E-02,1.71E-02,1.34E-02,1.26E-02,1.14E-02,8.49E-03,8.72E-03,7.76E-03,6.79E-03,6.18E-03,6.78E-03,6.82E-03,6.35E-03,6.76E-03,6.69E-03,6.92E-03,7.30E-03,7.39E-03,7.10E-03,6.62E-03,6.36E-03,6.11E-03,5.61E-03,5.13E-03,4.76E-03,4.26E-03,3.88E-03,3.58E-03,3.27E-03,2.51E-03,1.99E-03,1.69E-03,1.43E-03,1.22E-03,1.04E-03,8.97E-04,7.79E-04,6.80E-04,5.96E-04,4.68E-04,3.74E-04,3.05E-04,2.52E-04,2.12E-04,1.05E-04
122,"Friuli, Italy-01",Codroipo,6.5,33.32,249.28,FRIULI.A\A-COD000.AT2,FRIULI.A\A-COD270.AT2,FRIULI.A\A-COD-UP.AT2,6.93E-02,9.38E+00,3.73E+00,6.94E-02,6.94E-02,6.95E-02,7.04E-02,7.11E-02,7.15E-02,7.21E-02,7.37E-02,7.47E-02,7.76E-02,7.86E-02,7.89E-02,7.84E-02,8.26E-02,9.04E-02,9.35E-02,9.91E-02,1.03E-01,1.08E-01,1.07E-01,1.12E-01,1.42E-01,1.53E-01,1.63E-01,1.68E-01,1.65E-01,1.61E-01,1.58E-01,1.60E-01,1.52E-01,1.51E-01,1.39E-01,1.26E-01,1.32E-01,1.40E-01,1.34E-01,1.16E-01,1.32E-01,1.88E-01,1.84E-01,1.97E-01,1.72E-01,1.36E-01,1.51E-01,1.73E-01,1.99E-01,2.11E-01,2.06E-01,2.05E-01,1.95E-01,1.81E-01,1.67E-01,1.85E-01,1.85E-01,1.75E-01,1.80E-01,1.76E-01,1.43E-01,1.70E-01,1.81E-01,1.97E-01,2.11E-01,2.31E-01,2.33E-01,1.80E-01,1.74E-01,1.35E-01,1.30E-01,1.04E-01,1.05E-01,1.15E-01,1.08E-01,8.30E-02,5.87E-02,5.13E-02,5.10E-02,4.99E-02,5.29E-02,5.06E-02,3.99E-02,3.58E-02,3.10E-02,2.34E-02,2.15E-02,1.98E-02,1.66E-02,1.53E-02,1.49E-02,1.39E-02,1.39E-02,1.35E-02,1.25E-02,1.18E-02,1.22E-02,1.24E-02,1.10E-02,9.34E-03,8.38E-03,7.02E-03,5.77E-03,5.74E-03,5.44E-03,4.50E-03,3.70E-03,3.23E-03,2.47E-03,2.03E-03,1.70E-03,1.44E-03,1.21E-03,5.37E-04
123,"Friuli, Italy-01",Conegliano,6.5,80.37,352.05,FRIULI.A\A-CLV000.AT2,FRIULI.A\A-CLV270.AT2,FRIULI.A\A-CLV-UP.AT2,5.82E-02,3.66E+00,6.04E-01,5.83E-02,5.85E-02,5.86E-02,5.88E-02,5.89E-02,5.90E-02,5.90E-02,5.90E-02,5.90E-02,5.96E-02,6.01E-02,6.02E-02,6.02E-02,6.03E-02,6.04E-02,6.08E-02,6.16E-02,6.14E-02,6.31E-02,6.34E-02,6.27E-02,6.07E-02,6.37E-02,6.94E-02,7.25E-02,7.70E-02,7.61E-02,8.14E-02,9.61E-02,1.14E-01,1.19E-01,1.35E-01,1.86E-01,2.23E-01,1.91E-01,2.06E-01,1.82E-01,1.86E-01,1.55E-01,1.53E-01,1.57E-01,1.47E-01,1.47E-01,1.53E-01,1.83E-01,1.94E-01,1.66E-01,1.46E-01,1.40E-01,1.31E-01,1.15E-01,1.07E-01,9.41E-02,9.11E-02,9.03E-02,1.01E-01,9.91E-02,8.37E-02,7.68E-02,8.02E-02,8.48E-02,9.77E-02,1.06E-01,1.01E-01,8.15E-02,7.10E-02,6.48E-02,5.76E-02,5.00E-02,3.99E-02,3.77E-02,3.17E-02,2.59E-02,2.29E-02,2.47E-02,2.32E-02,2.17E-02,1.79E-02,1.10E-02,1.01E-02,9.27E-03,8.55E-03,7.07E-03,6.24E-03,5.37E-03,4.34E-03,3.88E-03,3.48E-03,3.08E-03,2.99E-03,2.53E-03,1.97E-03,1.68E-03,1.49E-03,1.34E-03,1.01E-03,8.13E-04,6.91E-04,6.10E-04,4.89E-04,4.26E-04,3.77E-04,3.35E-04,3.05E-04,2.76E-04,2.35E-04,1.95E-04,1.62E-04,1.44E-04,1.26E-04,6.31E-05
124,"Friuli, Italy-01",Feltre,6.5,102.05,356.39,FRIULI.A\A-FLT000.AT2,FRIULI.A\A-FLT270.AT2,FRIULI.A\A-FLT-UP.AT2,3.57E-02,1.24E+00,9.71E-02,3.60E-02,3.77E-02,3.84E-02,3.77E-02,3.91E-02,3.97E-02,3.98E-02,3.89E-02,3.83E-02,4.44E-02,4.63E-02,4.79E-02,4.74E-02,5.01E-02,5.67E-02,6.14E-02,6.26E-02,7.02E-02,9.15E-02,1.03E-01,1.11E-01,1.37E-01,1.22E-01,1.12E-01,1.08E-01,1.16E-01,1.09E-01,9.77E-02,9.44E-02,8.15E-02,7.33E-02,6.47E-02,7.50E-02,8.38E-02,8.98E-02,9.13E-02,8.84E-02,7.73E-02,7.19E-02,6.98E-02,6.58E-02,5.89E-02,5.64E-02,5.33E-02,5.71E-02,5.79E-02,5.25E-02,4.79E-02,4.42E-02,3.93E-02,3.66E-02,3.00E-02,2.73E-02,2.62E-02,2.53E-02,2.34E-02,2.51E-02,2.82E-02,3.54E-02,3.42E-02,3.07E-02,2.60E-02,2.24E-02,1.80E-02,1.23E-02,9.63E-03,8.20E-03,7.82E-03,5.53E-03,4.46E-03,3.44E-03,3.34E-03,2.87E-03,2.45E-03,2.18E-03,1.86E-03,1.70E-03,1.50E-03,1.15E-03,8.78E-04,7.62E-04,6.61E-04,5.18E-04,4.65E-04,4.17E-04,3.73E-04,3.52E-04,3.30E-04,2.92E-04,2.76E-04,2.59E-04,2.42E-04,2.24E-04,2.07E-04,1.90E-04,1.54E-04,1.25E-04,1.03E-04,8.77E-05,7.54E-05,6.50E-05,5.64E-05,4.93E-05,4.46E-05,4.08E-05,3.43E-05,2.91E-05,2.48E-05,2.14E-05,1.85E-05,1.00E-05
125,"Friuli, Italy-01",Tolmezzo,6.5,14.97,505.23,FRIULI.A\A-TMZ000.AT2,FRIULI.A\A-TMZ270.AT2,FRIULI.A\A-TMZ-UP.AT2,3.25E-01,2.48E+01,5.02E+00,3.26E-01,3.28E-01,3.28E-01,3.32E-01,3.32E-01,3.40E-01,3.46E-01,3.59E-01,3.57E-01,3.60E-01,3.60E-01,3.80E-01,3.85E-01,3.87E-01,3.85E-01,3.78E-01,3.68E-01,3.91E-01,3.82E-01,3.80E-01,3.76E-01,4.28E-01,4.65E-01,4.81E-01,4.66E-01,4.98E-01,4.94E-01,5.09E-01,5.35E-01,6.61E-01,7.13E-01,7.77E-01,7.47E-01,8.12E-01,7.21E-01,6.57E-01,6.34E-01,6.34E-01,7.29E-01,8.09E-01,9.21E-01,1.03E+00,9.94E-01,7.91E-01,7.32E-01,7.75E-01,8.31E-01,8.44E-01,8.51E-01,8.15E-01,7.79E-01,7.39E-01,7.10E-01,7.13E-01,7.16E-01,7.96E-01,9.09E-01,7.55E-01,8.85E-01,8.09E-01,7.59E-01,7.00E-01,5.73E-01,4.41E-01,3.65E-01,3.21E-01,2.89E-01,2.88E-01,2.38E-01,2.06E-01,1.58E-01,1.30E-01,1.22E-01,1.02E-01,9.25E-02,8.35E-02,7.05E-02,6.09E-02,5.12E-02,4.52E-02,4.21E-02,3.90E-02,3.52E-02,3.17E-02,2.88E-02,2.62E-02,2.50E-02,2.39E-02,2.20E-02,2.01E-02,1.94E-02,1.83E-02,1.68E-02,1.51E-02,1.34E-02,1.05E-02,8.73E-03,7.32E-03,6.17E-03,5.22E-03,4.41E-03,3.78E-03,3.31E-03,2.91E-03,2.57E-03,2.05E-03,1.67E-03,1.38E-03,1.17E-03,1.00E-03,5.33E-04
126,"Gazli, USSR",Karakyr,6.8,3.92,259.59,GAZLI\GAZ000.AT2,GAZLI\GAZ090.AT2,GAZLI\GAZ-UP.AT2,7.02E-01,6.48E+01,2.41E+01,7.62E-01,9.34E-01,1.04E+00,1.22E+00,1.46E+00,1.46E+00,1.48E+00,1.52E+00,1.53E+00,1.31E+00,1.51E+00,1.71E+00,1.69E+00,1.68E+00,1.60E+00,1.70E+00,1.85E+00,1.85E+00,1.98E+00,2.27E+00,2.30E+00,2.15E+00,1.61E+00,1.56E+00,1.64E+00,1.52E+00,1.67E+00,1.68E+00,1.47E+00,1.41E+00,1.53E+00,1.48E+00,1.29E+00,1.48E+00,1.58E+00,1.41E+00,1.36E+00,1.23E+00,1.04E+00,1.01E+00,1.07E+00,1.09E+00,1.22E+00,1.29E+00,1.27E+00,1.21E+00,1.15E+00,1.25E+00,1.30E+00,1.31E+00,1.35E+00,1.19E+00,1.05E+00,1.04E+00,1.02E+00,9.98E-01,1.16E+00,1.19E+00,9.97E-01,8.45E-01,8.82E-01,1.03E+00,9.45E-01,8.56E-01,7.18E-01,6.85E-01,6.31E-01,6.33E-01,6.56E-01,4.61E-01,3.75E-01,4.04E-01,4.55E-01,4.83E-01,4.74E-01,4.35E-01,3.71E-01,2.99E-01,2.00E-01,1.87E-01,1.87E-01,1.81E-01,1.59E-01,1.63E-01,1.76E-01,1.78E-01,1.78E-01,1.79E-01,1.77E-01,1.73E-01,1.61E-01,1.48E-01,1.33E-01,1.18E-01,1.05E-01,7.61E-02,5.86E-02,4.72E-02,3.80E-02,3.18E-02,2.63E-02,2.18E-02,1.86E-02,1.61E-02,1.41E-02,1.10E-02,8.70E-03,7.05E-03,5.83E-03,4.90E-03,2.50E-03
127,"Fruili, Italy-03",Buia,5.5,10.56,310.68,FRIULI\BUI-NS.AT2,FRIULI\BUI-WE.AT2,FRIULI\BUI-UP.AT2,4.59E-02,2.85E+00,2.65E-01,4.60E-02,4.64E-02,4.67E-02,4.68E-02,4.73E-02,4.73E-02,4.73E-02,4.82E-02,4.88E-02,4.99E-02,5.20E-02,5.27E-02,5.30E-02,5.35E-02,5.45E-02,5.47E-02,6.14E-02,6.36E-02,6.39E-02,6.37E-02,6.09E-02,6.43E-02,7.11E-02,7.46E-02,7.91E-02,8.47E-02,7.90E-02,7.95E-02,7.41E-02,8.52E-02,8.84E-02,9.23E-02,9.62E-02,1.02E-01,1.18E-01,1.39E-01,1.39E-01,1.27E-01,1.03E-01,1.03E-01,1.09E-01,1.14E-01,1.04E-01,9.54E-02,8.47E-02,6.79E-02,7.21E-02,7.60E-02,8.10E-02,8.74E-02,8.98E-02,8.79E-02,8.41E-02,8.31E-02,7.98E-02,7.04E-02,6.68E-02,5.97E-02,5.88E-02,6.56E-02,6.94E-02,7.02E-02,5.95E-02,4.35E-02,4.10E-02,3.99E-02,3.39E-02,2.56E-02,1.85E-02,1.43E-02,1.23E-02,1.30E-02,1.18E-02,9.84E-03,9.20E-03,7.93E-03,7.21E-03,6.25E-03,5.07E-03,4.14E-03,3.63E-03,3.29E-03,2.67E-03,2.10E-03,1.64E-03,1.30E-03,1.17E-03,1.07E-03,9.62E-04,8.58E-04,7.66E-04,6.82E-04,6.15E-04,5.61E-04,5.15E-04,4.25E-04,3.47E-04,2.86E-04,2.40E-04,2.09E-04,1.83E-04,1.61E-04,1.43E-04,1.27E-04,1.14E-04,9.52E-05,7.98E-05,6.73E-05,5.74E-05,4.93E-05,2.75E-05
128,"Fruili, Italy-03",Forgaria Cornino,5.5,16.33,412.37,FRIULI\FOC-NS.AT2,FRIULI\FOC-WE.AT2,FRIULI\FOC-UP.AT2,9.69E-02,3.76E+00,2.30E-01,9.74E-02,9.91E-02,9.99E-02,1.01E-01,1.02E-01,1.02E-01,1.03E-01,1.04E-01,1.04E-01,1.10E-01,1.12E-01,1.13E-01,1.12E-01,1.10E-01,1.09E-01,1.15E-01,1.18E-01,1.17E-01,1.24E-01,1.33E-01,1.41E-01,1.55E-01,1.66E-01,1.95E-01,2.61E-01,3.23E-01,3.50E-01,2.36E-01,2.44E-01,2.18E-01,2.15E-01,2.26E-01,2.22E-01,2.52E-01,2.74E-01,2.78E-01,2.67E-01,2.43E-01,2.16E-01,2.49E-01,2.51E-01,2.29E-01,1.83E-01,1.72E-01,1.62E-01,1.45E-01,1.68E-01,1.84E-01,2.00E-01,2.14E-01,1.96E-01,1.58E-01,1.21E-01,1.07E-01,9.92E-02,8.56E-02,7.49E-02,5.38E-02,4.37E-02,3.83E-02,3.60E-02,3.22E-02,2.71E-02,2.37E-02,1.93E-02,1.62E-02,1.40E-02,1.23E-02,8.79E-03,7.09E-03,6.13E-03,5.72E-03,5.43E-03,5.35E-03,4.68E-03,4.28E-03,3.85E-03,3.58E-03,3.06E-03,2.58E-03,2.38E-03,2.14E-03,1.80E-03,1.51E-03,1.25E-03,1.08E-03,9.84E-04,9.04E-04,7.95E-04,7.07E-04,6.34E-04,5.71E-04,5.17E-04,4.68E-04,4.26E-04,3.42E-04,2.83E-04,2.39E-04,2.03E-04,1.75E-04,1.54E-04,1.36E-04,1.21E-04,1.09E-04,9.80E-05,8.08E-05,6.76E-05,5.73E-05,4.93E-05,4.28E-05,2.38E-05
