RSN,Earthquake Name,Station,Magnitude,Distance,Vs30,Filename (H1),Filename (H2),Filename (V),PGA (g),PGV (cm/sec),PGD (cm),T0.010S,T0.020S,T0.022S,T0.025S,T0.029S,T0.030S,T0.032S,T0.035S,T0.036S,T0.040S,T0.042S,T0.044S,T0.045S,T0.046S,T0.048S,T0.050S,T0.055S,T0.060S,T0.065S,T0.067S,T0.070S,T0.075S,T0.080S,T0.085S,T0.090S,T0.095S,T0.100S,T0.110S,T0.120S,T0.130S,T0.133S,T0.140S,T0.150S,T0.160S,T0.170S,T0.180S,T0.190S,T0.200S,T0.220S,T0.240S,T0.250S,T0.260S,T0.280S,T0.290S,T0.300S,T0.320S,T0.340S,T0.350S,T0.360S,T0.380S,T0.400S,T0.420S,T0.440S,T0.450S,T0.460S,T0.480S,T0.500S,T0.550S,T0.600S,T0.650S,T0.667S,T0.700S,T0.750S,T0.800S,T0.850S,T0.900S,T0.950S,T1.000S,T1.100S,T1.200S,T1.300S,T1.400S,T1.500S,T1.600S,T1.700S,T1.800S,T1.900S,T2.000S,T2.200S,T2.400S,T2.500S,T2.600S,T2.800S,T3.000S,T3.200S,T3.400S,T3.500S,T3.600S,T3.800S,T4.000S,T4.200S,T4.400S,T4.600S,T4.800S,T5.000S,T5.500S,T6.000S,T6.500S,T7.000S,T7.500S,T8.000S,T8.500S,T9.000S,T9.500S,T10.000S,T11.000S,T12.000S,T13.000S,T14.000S,T15.000S,T20.000S
65,San Fernando,Gormon - Oso Pump Plant,6.61,43.95,308.35,SFERN\OPP000.AT2,SFERN\OPP270.AT2,SFERN\OPP-UP.AT2,8.34E-02,7.42E+00,1.54E+00,8.35E-02,8.43E-02,8.55E-02,8.78E-02,9.05E-02,9.18E-02,9.36E-02,9.46E-02,9.58E-02,1.01E-01,1.02E-01,1.02E-01,1.01E-01,1.01E-01,1.02E-01,1.03E-01,1.10E-01,1.18E-01,1.18E-01,1.19E-01,1.21E-01,1.13E-01,1.11E-01,1.20E-01,1.31E-01,1.37E-01,1.42E-01,1.57E-01,1.57E-01,1.73E-01,1.78E-01,1.90E-01,2.13E-01,2.32E-01,2.38E-01,2.40E-01,2.39E-01,2.39E-01,2.36E-01,2.47E-01,2.33E-01,2.26E-01,1.96E-01,1.88E-01,1.87E-01,1.78E-01,1.82E-01,1.77E-01,1.67E-01,1.64E-01,1.49E-01,1.47E-01,1.56E-01,1.54E-01,1.47E-01,1.32E-01,1.14E-01,8.90E-02,8.44E-02,7.64E-02,6.89E-02,7.22E-02,6.41E-02,7.29E-02,6.72E-02,6.30E-02,6.26E-02,6.21E-02,6.25E-02,6.00E-02,5.70E-02,5.49E-02,5.74E-02,6.81E-02,6.98E-02,6.25E-02,5.19E-02,4.46E-02,3.48E-02,3.18E-02,2.80E-02,2.48E-02,2.01E-02,1.58E-02,1.25E-02,9.81E-03,8.86E-03,7.98E-03,6.58E-03,5.64E-03,5.04E-03,4.70E-03,4.41E-03,4.04E-03,3.66E-03,2.92E-03,2.37E-03,1.86E-03,1.64E-03,1.42E-03,1.20E-03,1.02E-03,8.96E-04,7.79E-04,6.81E-04,5.33E-04,4.50E-04,3.84E-04,3.31E-04,2.87E-04,1.59E-04
66,San Fernando,Hemet Fire Station,6.61,139.14,328.09,SFERN\H05135.AT2,SFERN\H05225.AT2,SFERN\H05DWN.AT2,3.67E-02,2.19E+00,3.68E-01,3.73E-02,3.73E-02,3.76E-02,3.95E-02,3.97E-02,4.04E-02,4.10E-02,4.30E-02,4.33E-02,4.14E-02,4.29E-02,4.20E-02,4.14E-02,4.10E-02,4.17E-02,4.36E-02,4.65E-02,5.04E-02,4.89E-02,5.17E-02,5.53E-02,5.84E-02,6.54E-02,7.33E-02,8.26E-02,8.72E-02,7.67E-02,7.65E-02,1.00E-01,1.10E-01,1.03E-01,8.57E-02,8.67E-02,8.52E-02,9.73E-02,1.08E-01,1.21E-01,1.03E-01,8.95E-02,9.14E-02,8.57E-02,9.24E-02,1.00E-01,9.29E-02,8.41E-02,9.48E-02,9.05E-02,7.96E-02,7.77E-02,8.21E-02,9.01E-02,7.94E-02,7.06E-02,6.60E-02,6.41E-02,6.05E-02,6.74E-02,7.09E-02,5.98E-02,6.19E-02,5.95E-02,4.76E-02,3.99E-02,3.65E-02,4.22E-02,3.71E-02,3.07E-02,2.97E-02,2.86E-02,2.16E-02,1.88E-02,1.70E-02,1.32E-02,1.25E-02,1.15E-02,1.22E-02,1.11E-02,8.50E-03,5.71E-03,4.61E-03,4.46E-03,4.07E-03,3.24E-03,2.39E-03,1.99E-03,1.80E-03,1.72E-03,1.64E-03,1.42E-03,1.15E-03,9.32E-04,8.00E-04,7.59E-04,7.01E-04,6.81E-04,5.43E-04,4.36E-04,3.35E-04,2.64E-04,2.39E-04,2.21E-04,2.03E-04,1.82E-04,1.53E-04,1.50E-04,1.37E-04,1.17E-04,9.52E-05,8.43E-05,7.59E-05,4.03E-05
67,San Fernando,Isabella Dam (Aux Abut),6.61,130,591,SFERN\ISD014.AT2,SFERN\ISD284.AT2,SFERN\ISDDWN.AT2,8.76E-03,2.30E+00,3.64E+00,8.77E-03,8.81E-03,8.82E-03,8.84E-03,8.88E-03,8.89E-03,8.91E-03,8.94E-03,8.95E-03,8.98E-03,9.01E-03,9.03E-03,9.05E-03,9.08E-03,9.13E-03,9.17E-03,9.41E-03,9.65E-03,9.96E-03,9.93E-03,1.00E-02,1.00E-02,9.94E-03,1.12E-02,1.17E-02,1.18E-02,1.20E-02,1.08E-02,1.36E-02,1.51E-02,1.65E-02,1.82E-02,1.96E-02,1.94E-02,2.11E-02,2.42E-02,2.55E-02,2.82E-02,3.04E-02,3.20E-02,2.85E-02,2.54E-02,2.45E-02,2.50E-02,2.76E-02,2.76E-02,2.28E-02,2.18E-02,2.06E-02,1.65E-02,1.65E-02,1.72E-02,1.58E-02,1.46E-02,1.37E-02,1.38E-02,1.47E-02,1.47E-02,1.31E-02,1.01E-02,9.66E-03,8.87E-03,1.09E-02,1.15E-02,1.16E-02,1.26E-02,1.40E-02,1.33E-02,8.54E-03,6.99E-03,7.30E-03,7.62E-03,8.83E-03,6.91E-03,5.68E-03,5.41E-03,6.34E-03,6.33E-03,5.63E-03,4.56E-03,4.40E-03,4.45E-03,4.68E-03,4.30E-03,3.50E-03,3.40E-03,3.32E-03,3.15E-03,3.38E-03,4.05E-03,4.23E-03,3.72E-03,3.46E-03,3.58E-03,3.48E-03,3.13E-03,2.81E-03,2.67E-03,2.93E-03,2.59E-03,2.12E-03,2.17E-03,2.55E-03,2.74E-03,2.69E-03,2.38E-03,2.13E-03,1.87E-03,1.69E-03,1.69E-03,1.11E-03
68,San Fernando,LA - Hollywood Stor FF,6.61,22.77,316.46,SFERN\PEL090.AT2,SFERN\PEL180.AT2,SFERN\PEL-UP.AT2,2.17E-01,2.05E+01,1.44E+01,2.24E-01,2.32E-01,2.47E-01,2.81E-01,3.02E-01,3.05E-01,3.04E-01,2.81E-01,2.88E-01,2.72E-01,2.88E-01,3.00E-01,2.98E-01,2.93E-01,3.00E-01,3.13E-01,3.25E-01,3.08E-01,3.17E-01,3.25E-01,3.32E-01,3.98E-01,4.59E-01,5.61E-01,6.08E-01,6.21E-01,6.01E-01,6.29E-01,6.53E-01,5.76E-01,5.26E-01,5.46E-01,5.25E-01,5.63E-01,5.04E-01,5.61E-01,6.17E-01,5.58E-01,5.42E-01,6.23E-01,6.15E-01,5.56E-01,5.19E-01,4.82E-01,4.63E-01,4.31E-01,4.08E-01,4.06E-01,4.28E-01,4.46E-01,3.73E-01,3.75E-01,3.38E-01,3.02E-01,2.76E-01,2.97E-01,3.03E-01,3.18E-01,2.49E-01,2.10E-01,2.12E-01,1.95E-01,2.10E-01,2.31E-01,2.67E-01,2.19E-01,2.05E-01,1.77E-01,1.79E-01,1.89E-01,2.07E-01,2.01E-01,1.56E-01,1.14E-01,9.12E-02,8.13E-02,8.42E-02,8.83E-02,9.35E-02,8.34E-02,7.31E-02,7.42E-02,7.53E-02,7.69E-02,8.39E-02,8.46E-02,8.55E-02,8.66E-02,8.45E-02,7.89E-02,7.56E-02,7.03E-02,6.38E-02,5.71E-02,5.08E-02,3.86E-02,2.99E-02,2.43E-02,2.02E-02,1.66E-02,1.40E-02,1.20E-02,1.00E-02,8.44E-03,7.67E-03,6.33E-03,5.24E-03,4.34E-03,3.63E-03,3.05E-03,1.44E-03
69,San Fernando,LB - Terminal Island,6.61,58.99,217.92,SFERN\TLI249.AT2,SFERN\TLI339.AT2,SFERN\TLI-UP.AT2,2.84E-02,8.65E+00,1.00E+01,2.85E-02,2.86E-02,2.87E-02,2.87E-02,2.87E-02,2.90E-02,2.94E-02,2.99E-02,2.99E-02,2.99E-02,2.98E-02,2.95E-02,2.95E-02,2.95E-02,2.98E-02,3.00E-02,3.02E-02,3.13E-02,3.10E-02,3.10E-02,3.17E-02,3.28E-02,3.48E-02,3.44E-02,3.48E-02,3.81E-02,3.99E-02,4.39E-02,4.76E-02,4.88E-02,4.79E-02,5.19E-02,5.36E-02,5.17E-02,5.24E-02,5.72E-02,6.29E-02,6.90E-02,7.10E-02,7.89E-02,8.28E-02,8.51E-02,1.05E-01,1.10E-01,1.10E-01,9.82E-02,9.07E-02,8.75E-02,9.23E-02,1.05E-01,1.02E-01,9.21E-02,8.15E-02,8.28E-02,8.45E-02,8.39E-02,7.98E-02,7.67E-02,7.55E-02,7.30E-02,7.59E-02,6.79E-02,5.75E-02,5.25E-02,4.69E-02,4.17E-02,3.86E-02,3.58E-02,3.83E-02,3.56E-02,3.79E-02,3.88E-02,3.24E-02,2.71E-02,2.79E-02,2.66E-02,2.57E-02,2.72E-02,2.57E-02,3.28E-02,3.14E-02,3.25E-02,3.79E-02,3.91E-02,3.73E-02,3.56E-02,3.68E-02,3.82E-02,4.33E-02,4.61E-02,4.45E-02,4.48E-02,4.55E-02,4.53E-02,4.18E-02,4.23E-02,3.88E-02,3.06E-02,2.34E-02,1.90E-02,1.55E-02,1.27E-02,1.05E-02,8.40E-03,6.79E-03,4.80E-03,3.45E-03,2.80E-03,2.64E-03,2.27E-03,1.41E-03
70,San Fernando,Lake Hughes #1,6.61,22.23,425.34,SFERN\L01021.AT2,SFERN\L01111.AT2,SFERN\L01DWN.AT2,1.18E-01,1.59E+01,3.33E+00,1.19E-01,1.20E-01,1.20E-01,1.22E-01,1.27E-01,1.28E-01,1.26E-01,1.26E-01,1.24E-01,1.23E-01,1.24E-01,1.28E-01,1.27E-01,1.27E-01,1.29E-01,1.29E-01,1.26E-01,1.45E-01,1.81E-01,2.05E-01,2.23E-01,1.95E-01,1.73E-01,1.63E-01,1.60E-01,1.68E-01,1.74E-01,1.77E-01,1.64E-01,1.97E-01,1.94E-01,2.25E-01,2.65E-01,2.36E-01,2.65E-01,2.84E-01,2.35E-01,2.03E-01,1.83E-01,2.25E-01,2.49E-01,2.53E-01,2.51E-01,2.58E-01,2.36E-01,2.49E-01,2.51E-01,2.56E-01,2.46E-01,2.16E-01,2.09E-01,2.09E-01,2.25E-01,2.30E-01,2.35E-01,2.47E-01,2.72E-01,2.43E-01,2.72E-01,3.53E-01,3.74E-01,3.77E-01,3.26E-01,2.61E-01,2.62E-01,2.84E-01,3.11E-01,3.27E-01,3.07E-01,2.50E-01,1.88E-01,1.45E-01,1.16E-01,9.42E-02,8.16E-02,7.12E-02,6.31E-02,5.51E-02,4.22E-02,3.41E-02,3.10E-02,2.83E-02,2.35E-02,1.92E-02,1.56E-02,1.40E-02,1.35E-02,1.31E-02,1.21E-02,1.11E-02,1.02E-02,9.45E-03,8.92E-03,7.99E-03,7.14E-03,5.88E-03,5.31E-03,4.84E-03,3.99E-03,3.12E-03,2.62E-03,2.17E-03,1.80E-03,1.50E-03,1.35E-03,1.16E-03,1.03E-03,8.91E-04,7.06E-04,5.88E-04,3.35E-04
71,San Fernando,Lake Hughes #12,6.61,13.99,602.1,SFERN\L12021.AT2,SFERN\L12291.AT2,SFERN\L12DWN.AT2,3.21E-01,1.47E+01,2.22E+00,3.26E-01,3.61E-01,3.74E-01,3.97E-01,4.07E-01,4.04E-01,4.15E-01,3.91E-01,3.91E-01,4.12E-01,4.09E-01,4.14E-01,4.10E-01,4.06E-01,4.15E-01,4.17E-01,4.67E-01,4.86E-01,5.55E-01,5.56E-01,5.75E-01,6.17E-01,6.23E-01,6.15E-01,6.46E-01,6.05E-01,6.07E-01,6.49E-01,6.20E-01,7.20E-01,7.74E-01,7.77E-01,9.22E-01,1.19E+00,1.27E+00,1.38E+00,1.34E+00,1.17E+00,1.19E+00,1.22E+00,1.13E+00,1.08E+00,9.16E-01,8.53E-01,7.89E-01,6.48E-01,5.81E-01,5.46E-01,5.16E-01,4.50E-01,3.61E-01,2.75E-01,2.36E-01,2.25E-01,2.24E-01,2.10E-01,2.00E-01,1.68E-01,1.41E-01,1.18E-01,1.13E-01,1.07E-01,1.09E-01,1.13E-01,1.20E-01,1.28E-01,1.29E-01,1.26E-01,9.63E-02,7.90E-02,6.55E-02,5.68E-02,4.99E-02,4.44E-02,4.19E-02,3.87E-02,3.54E-02,3.43E-02,2.96E-02,2.46E-02,2.22E-02,1.97E-02,1.60E-02,1.38E-02,1.25E-02,1.21E-02,1.30E-02,1.28E-02,1.19E-02,1.07E-02,9.23E-03,8.54E-03,7.82E-03,7.32E-03,6.70E-03,5.35E-03,4.72E-03,3.87E-03,2.96E-03,2.34E-03,2.00E-03,1.79E-03,1.60E-03,1.42E-03,1.27E-03,1.02E-03,8.28E-04,6.82E-04,5.69E-04,4.80E-04,2.40E-04
72,San Fernando,Lake Hughes #4,6.61,19.45,600.06,SFERN\L04111.AT2,SFERN\L04201.AT2,SFERN\L04DWN.AT2,1.79E-01,7.55E+00,1.69E+00,1.82E-01,1.82E-01,1.87E-01,1.98E-01,2.15E-01,2.27E-01,2.25E-01,2.17E-01,2.25E-01,2.46E-01,2.48E-01,2.45E-01,2.47E-01,2.52E-01,2.76E-01,2.88E-01,2.67E-01,3.15E-01,3.09E-01,3.00E-01,3.27E-01,3.68E-01,3.81E-01,3.72E-01,4.04E-01,3.93E-01,3.86E-01,4.20E-01,4.79E-01,4.79E-01,4.62E-01,4.88E-01,4.59E-01,3.43E-01,3.83E-01,4.36E-01,5.02E-01,4.97E-01,3.63E-01,3.04E-01,2.74E-01,2.41E-01,2.32E-01,2.62E-01,2.77E-01,2.60E-01,2.27E-01,2.23E-01,2.43E-01,2.53E-01,2.39E-01,2.28E-01,2.28E-01,2.20E-01,2.08E-01,1.95E-01,1.73E-01,1.37E-01,1.63E-01,1.52E-01,1.43E-01,1.26E-01,1.02E-01,9.69E-02,1.00E-01,1.04E-01,1.03E-01,9.86E-02,8.17E-02,6.71E-02,5.83E-02,5.26E-02,5.10E-02,4.30E-02,3.52E-02,2.92E-02,2.57E-02,2.29E-02,1.84E-02,1.54E-02,1.43E-02,1.32E-02,1.12E-02,9.52E-03,9.00E-03,8.88E-03,8.67E-03,8.44E-03,9.57E-03,9.55E-03,8.66E-03,7.53E-03,6.80E-03,6.40E-03,6.35E-03,6.34E-03,5.22E-03,4.60E-03,3.62E-03,3.06E-03,2.46E-03,2.00E-03,1.68E-03,1.46E-03,1.27E-03,9.64E-04,8.16E-04,6.38E-04,5.02E-04,4.37E-04,2.07E-04
73,San Fernando,Lake Hughes #9,6.61,17.22,670.84,SFERN\L09021.AT2,SFERN\L09291.AT2,SFERN\L09DWN.AT2,1.53E-01,5.00E+00,1.39E+00,1.56E-01,1.56E-01,1.68E-01,2.06E-01,2.09E-01,2.15E-01,2.30E-01,2.59E-01,2.76E-01,3.00E-01,3.10E-01,3.28E-01,3.29E-01,3.26E-01,3.35E-01,3.52E-01,3.92E-01,4.14E-01,3.45E-01,3.28E-01,2.98E-01,3.00E-01,3.34E-01,3.03E-01,2.99E-01,3.04E-01,3.62E-01,3.61E-01,3.40E-01,3.20E-01,3.34E-01,3.45E-01,3.75E-01,3.39E-01,3.04E-01,2.89E-01,2.63E-01,2.30E-01,2.47E-01,2.22E-01,1.82E-01,1.61E-01,1.69E-01,1.89E-01,1.93E-01,1.96E-01,2.18E-01,2.26E-01,2.25E-01,2.14E-01,1.74E-01,1.43E-01,1.21E-01,1.13E-01,1.01E-01,8.71E-02,7.56E-02,6.20E-02,6.52E-02,6.31E-02,6.42E-02,6.42E-02,5.80E-02,5.58E-02,5.10E-02,4.76E-02,4.45E-02,4.28E-02,3.75E-02,3.71E-02,3.23E-02,3.34E-02,3.12E-02,3.03E-02,2.82E-02,2.68E-02,2.41E-02,2.12E-02,1.77E-02,1.49E-02,1.34E-02,1.29E-02,1.07E-02,8.18E-03,6.99E-03,6.52E-03,7.16E-03,7.41E-03,7.62E-03,6.88E-03,6.53E-03,5.95E-03,5.10E-03,4.25E-03,3.47E-03,1.95E-03,1.67E-03,1.42E-03,1.24E-03,1.10E-03,9.20E-04,8.34E-04,7.52E-04,6.77E-04,6.36E-04,5.68E-04,4.72E-04,3.93E-04,3.36E-04,3.19E-04,1.74E-04
74,San Fernando,Maricopa Array #1,6.61,193.25,303.79,SFERN\MA1130.AT2,SFERN\MA1220.AT2,SFERN\MA1DWN.AT2,9.78E-03,3.14E+00,5.35E+00,9.81E-03,9.88E-03,9.91E-03,9.94E-03,9.98E-03,9.98E-03,9.98E-03,1.01E-02,1.02E-02,1.01E-02,1.01E-02,1.04E-02,1.05E-02,1.05E-02,1.08E-02,1.09E-02,1.15E-02,1.11E-02,1.07E-02,1.07E-02,1.11E-02,1.15E-02,1.13E-02,1.27E-02,1.18E-02,1.13E-02,1.21E-02,1.23E-02,1.40E-02,1.38E-02,1.49E-02,1.62E-02,1.58E-02,1.76E-02,1.85E-02,1.94E-02,2.24E-02,2.26E-02,2.36E-02,2.13E-02,2.30E-02,2.36E-02,2.36E-02,2.56E-02,3.01E-02,3.34E-02,3.13E-02,2.92E-02,2.56E-02,2.14E-02,2.14E-02,2.24E-02,2.10E-02,2.03E-02,2.02E-02,2.02E-02,2.13E-02,2.21E-02,1.98E-02,2.07E-02,1.95E-02,1.60E-02,1.85E-02,1.75E-02,1.80E-02,1.77E-02,1.69E-02,1.58E-02,1.44E-02,1.66E-02,1.60E-02,1.25E-02,1.09E-02,1.10E-02,1.26E-02,1.19E-02,1.11E-02,1.06E-02,9.13E-03,7.95E-03,6.66E-03,6.28E-03,6.31E-03,5.43E-03,4.92E-03,4.49E-03,4.29E-03,4.15E-03,4.25E-03,4.59E-03,4.83E-03,4.88E-03,5.27E-03,5.69E-03,5.61E-03,5.12E-03,4.98E-03,5.09E-03,5.22E-03,4.46E-03,4.13E-03,3.54E-03,2.92E-03,2.84E-03,2.42E-03,2.40E-03,2.58E-03,2.80E-03,3.08E-03,3.09E-03,1.55E-03
75,San Fernando,Maricopa Array #2,6.61,108.56,443.85,SFERN\MA2130.AT2,SFERN\MA2220.AT2,SFERN\MA2DWN.AT2,1.09E-02,6.82E+00,9.50E+00,1.09E-02,1.09E-02,1.09E-02,1.09E-02,1.11E-02,1.11E-02,1.12E-02,1.12E-02,1.12E-02,1.13E-02,1.14E-02,1.16E-02,1.17E-02,1.17E-02,1.17E-02,1.17E-02,1.17E-02,1.24E-02,1.29E-02,1.29E-02,1.33E-02,1.45E-02,1.53E-02,1.59E-02,1.66E-02,1.73E-02,1.57E-02,1.59E-02,1.72E-02,1.81E-02,1.84E-02,1.94E-02,2.07E-02,2.49E-02,2.98E-02,2.50E-02,2.46E-02,2.44E-02,2.35E-02,2.77E-02,2.85E-02,2.83E-02,3.09E-02,3.03E-02,3.18E-02,3.41E-02,3.25E-02,3.36E-02,3.31E-02,2.80E-02,2.23E-02,2.00E-02,2.21E-02,2.16E-02,2.09E-02,1.94E-02,1.75E-02,1.95E-02,1.91E-02,1.74E-02,1.75E-02,1.55E-02,1.47E-02,1.28E-02,1.25E-02,1.41E-02,1.40E-02,1.40E-02,1.15E-02,1.09E-02,1.11E-02,9.84E-03,9.63E-03,8.56E-03,8.61E-03,9.40E-03,9.89E-03,1.03E-02,7.64E-03,8.13E-03,7.92E-03,7.95E-03,7.79E-03,7.93E-03,8.25E-03,8.54E-03,9.03E-03,9.31E-03,9.03E-03,7.92E-03,7.86E-03,8.40E-03,9.12E-03,1.06E-02,1.15E-02,1.19E-02,1.12E-02,1.01E-02,1.00E-02,1.11E-02,1.22E-02,1.30E-02,1.32E-02,1.28E-02,1.22E-02,1.07E-02,8.93E-03,7.08E-03,5.54E-03,4.69E-03,1.91E-03
76,San Fernando,Maricopa Array #3,6.61,109.01,441.25,SFERN\MA3130.AT2,SFERN\MA3220.AT2,SFERN\MA3DWN.AT2,8.99E-03,2.25E+00,2.20E+00,9.01E-03,9.08E-03,9.12E-03,9.15E-03,9.18E-03,9.22E-03,9.34E-03,9.49E-03,9.47E-03,9.57E-03,1.03E-02,1.04E-02,1.03E-02,1.03E-02,1.08E-02,1.11E-02,1.17E-02,1.17E-02,1.20E-02,1.20E-02,1.23E-02,1.29E-02,1.34E-02,1.51E-02,1.52E-02,1.58E-02,1.54E-02,1.59E-02,1.52E-02,1.62E-02,1.62E-02,1.64E-02,1.87E-02,1.84E-02,1.96E-02,2.12E-02,2.24E-02,2.07E-02,1.60E-02,1.61E-02,1.81E-02,2.15E-02,1.99E-02,2.06E-02,2.11E-02,2.15E-02,2.27E-02,2.17E-02,2.02E-02,1.85E-02,1.76E-02,2.03E-02,2.17E-02,2.13E-02,2.02E-02,1.98E-02,1.98E-02,1.40E-02,1.29E-02,1.30E-02,1.39E-02,1.51E-02,1.31E-02,1.21E-02,1.06E-02,9.45E-03,9.45E-03,1.05E-02,1.01E-02,9.01E-03,8.73E-03,8.86E-03,7.95E-03,7.84E-03,7.77E-03,1.05E-02,1.23E-02,1.23E-02,1.09E-02,9.33E-03,8.71E-03,9.01E-03,8.00E-03,6.48E-03,5.97E-03,5.75E-03,5.84E-03,5.73E-03,5.40E-03,4.72E-03,3.97E-03,3.50E-03,3.22E-03,3.08E-03,3.30E-03,4.16E-03,4.41E-03,4.21E-03,4.15E-03,4.24E-03,4.30E-03,4.19E-03,3.82E-03,3.30E-03,2.81E-03,2.20E-03,1.66E-03,1.20E-03,9.21E-04,7.22E-04,3.17E-04
77,San Fernando,Pacoima Dam (upper left abut),6.61,0,2016.13,SFERN\PUL164.AT2,SFERN\PUL254.AT2,SFERN\PULDWN.AT2,1.22E+00,9.03E+01,2.80E+01,1.25E+00,1.34E+00,1.38E+00,1.48E+00,1.54E+00,1.48E+00,1.48E+00,1.43E+00,1.49E+00,1.50E+00,1.54E+00,1.50E+00,1.54E+00,1.61E+00,1.66E+00,1.69E+00,1.75E+00,1.92E+00,1.95E+00,2.08E+00,2.08E+00,2.42E+00,2.18E+00,2.13E+00,2.06E+00,2.03E+00,1.88E+00,1.79E+00,1.71E+00,1.84E+00,1.98E+00,2.25E+00,2.01E+00,1.84E+00,1.82E+00,1.75E+00,1.91E+00,2.06E+00,2.38E+00,1.79E+00,1.83E+00,1.99E+00,2.19E+00,2.05E+00,1.96E+00,1.64E+00,1.87E+00,2.05E+00,2.12E+00,2.43E+00,2.67E+00,2.54E+00,2.28E+00,2.09E+00,2.00E+00,2.11E+00,2.11E+00,1.34E+00,1.01E+00,9.54E-01,8.59E-01,7.79E-01,7.63E-01,8.75E-01,9.46E-01,9.80E-01,9.87E-01,1.03E+00,1.03E+00,9.45E-01,8.34E-01,7.43E-01,6.76E-01,6.12E-01,5.40E-01,4.81E-01,4.25E-01,3.77E-01,2.93E-01,2.27E-01,2.11E-01,1.98E-01,1.75E-01,1.56E-01,1.38E-01,1.23E-01,1.16E-01,1.10E-01,1.03E-01,9.83E-02,9.91E-02,9.59E-02,1.01E-01,1.00E-01,9.74E-02,8.80E-02,7.64E-02,6.32E-02,5.18E-02,4.24E-02,3.43E-02,2.92E-02,2.45E-02,2.17E-02,1.92E-02,1.53E-02,1.23E-02,1.00E-02,8.29E-03,6.96E-03,3.43E-03
78,San Fernando,Palmdale Fire Station,6.61,24.16,452.86,SFERN\PDL120.AT2,SFERN\PDL210.AT2,SFERN\PDLXXX.AT2,1.22E-01,1.16E+01,4.06E+00,1.23E-01,1.25E-01,1.24E-01,1.36E-01,1.37E-01,1.33E-01,1.43E-01,1.48E-01,1.44E-01,1.34E-01,1.36E-01,1.38E-01,1.37E-01,1.36E-01,1.45E-01,1.48E-01,1.53E-01,1.73E-01,1.88E-01,1.96E-01,2.10E-01,2.44E-01,2.75E-01,3.14E-01,3.46E-01,3.71E-01,3.75E-01,3.82E-01,3.38E-01,3.89E-01,4.11E-01,3.73E-01,3.34E-01,3.00E-01,3.11E-01,3.11E-01,2.94E-01,3.07E-01,3.04E-01,3.53E-01,3.47E-01,3.25E-01,3.69E-01,3.67E-01,3.31E-01,2.64E-01,2.48E-01,2.32E-01,2.20E-01,2.03E-01,2.00E-01,1.72E-01,1.69E-01,1.75E-01,1.83E-01,2.05E-01,2.13E-01,2.62E-01,2.41E-01,1.81E-01,1.71E-01,1.58E-01,1.59E-01,1.50E-01,1.63E-01,1.67E-01,1.45E-01,1.35E-01,1.51E-01,1.47E-01,1.80E-01,1.78E-01,1.68E-01,1.57E-01,1.55E-01,1.36E-01,1.17E-01,1.04E-01,6.97E-02,5.15E-02,4.41E-02,3.70E-02,2.77E-02,2.37E-02,2.26E-02,1.99E-02,1.88E-02,1.77E-02,1.69E-02,1.57E-02,1.41E-02,1.14E-02,1.01E-02,9.41E-03,8.88E-03,7.45E-03,6.12E-03,4.75E-03,4.51E-03,3.72E-03,3.25E-03,2.94E-03,2.60E-03,2.22E-03,1.94E-03,1.49E-03,1.24E-03,1.06E-03,9.10E-04,7.69E-04,3.66E-04
79,San Fernando,Pasadena - CIT Athenaeum,6.61,25.47,415.13,SFERN\PAS000.AT2,SFERN\PAS090.AT2,SFERN\PASDWN.AT2,1.06E-01,9.81E+00,2.36E+00,1.07E-01,1.07E-01,1.07E-01,1.08E-01,1.11E-01,1.11E-01,1.11E-01,1.11E-01,1.12E-01,1.21E-01,1.20E-01,1.18E-01,1.23E-01,1.28E-01,1.30E-01,1.22E-01,1.23E-01,1.29E-01,1.29E-01,1.36E-01,1.39E-01,1.67E-01,1.53E-01,1.49E-01,1.70E-01,1.81E-01,1.88E-01,2.64E-01,2.58E-01,2.37E-01,2.39E-01,2.41E-01,1.96E-01,1.78E-01,1.82E-01,2.00E-01,2.26E-01,2.57E-01,3.10E-01,2.68E-01,2.55E-01,2.53E-01,3.45E-01,3.49E-01,3.48E-01,3.21E-01,3.05E-01,3.17E-01,3.14E-01,2.72E-01,3.16E-01,3.68E-01,3.45E-01,3.21E-01,2.90E-01,2.38E-01,2.25E-01,2.03E-01,1.86E-01,1.70E-01,1.71E-01,1.51E-01,1.47E-01,1.97E-01,2.18E-01,2.03E-01,1.88E-01,1.64E-01,1.36E-01,1.17E-01,1.00E-01,8.17E-02,5.74E-02,5.78E-02,5.49E-02,6.20E-02,6.28E-02,5.80E-02,5.33E-02,4.90E-02,4.45E-02,4.64E-02,4.25E-02,2.80E-02,2.36E-02,2.06E-02,1.86E-02,1.68E-02,1.35E-02,1.11E-02,1.03E-02,9.67E-03,9.11E-03,8.35E-03,7.52E-03,6.08E-03,3.99E-03,3.13E-03,2.41E-03,1.89E-03,1.67E-03,1.51E-03,1.34E-03,1.17E-03,1.09E-03,9.02E-04,7.65E-04,6.50E-04,5.54E-04,4.76E-04,2.50E-04
80,San Fernando,Pasadena - Old Seismo Lab,6.61,21.5,969.07,SFERN\PSL180.AT2,SFERN\PSL270.AT2,SFERN\PSLDWN.AT2,1.45E-01,9.86E+00,1.05E+00,1.47E-01,1.45E-01,1.50E-01,1.52E-01,1.45E-01,1.46E-01,1.47E-01,1.50E-01,1.52E-01,1.53E-01,1.55E-01,1.59E-01,1.61E-01,1.60E-01,1.56E-01,1.57E-01,1.64E-01,1.73E-01,1.83E-01,1.85E-01,1.78E-01,1.91E-01,2.34E-01,2.32E-01,2.58E-01,2.94E-01,3.14E-01,3.61E-01,3.32E-01,3.73E-01,3.89E-01,4.08E-01,4.10E-01,3.72E-01,3.51E-01,3.75E-01,4.09E-01,4.35E-01,4.15E-01,4.94E-01,5.44E-01,5.65E-01,4.32E-01,3.94E-01,3.62E-01,4.26E-01,4.05E-01,3.68E-01,3.41E-01,3.40E-01,3.00E-01,2.44E-01,2.22E-01,2.18E-01,2.14E-01,1.85E-01,1.66E-01,1.42E-01,1.55E-01,1.33E-01,1.29E-01,1.49E-01,1.65E-01,1.65E-01,1.52E-01,1.39E-01,1.27E-01,1.17E-01,1.00E-01,7.80E-02,5.94E-02,4.63E-02,3.84E-02,3.21E-02,2.77E-02,2.53E-02,2.39E-02,2.26E-02,1.66E-02,1.24E-02,1.08E-02,9.46E-03,7.39E-03,5.97E-03,4.99E-03,4.24E-03,3.93E-03,3.65E-03,3.20E-03,2.84E-03,2.54E-03,2.29E-03,2.08E-03,1.90E-03,1.74E-03,1.42E-03,1.18E-03,9.92E-04,8.57E-04,7.46E-04,6.55E-04,5.78E-04,5.13E-04,4.58E-04,4.11E-04,3.35E-04,2.78E-04,2.35E-04,2.00E-04,1.75E-04,9.89E-05
