RSN,Earthquake Name,Station,Magnitude,Distance,Vs30,Filename (H1),Filename (H2),Filename (V),PGA (g),PGV (cm/sec),PGD (cm),T0.010S,T0.020S,T0.022S,T0.025S,T0.029S,T0.030S,T0.032S,T0.035S,T0.036S,T0.040S,T0.042S,T0.044S,T0.045S,T0.046S,T0.048S,T0.050S,T0.055S,T0.060S,T0.065S,T0.067S,T0.070S,T0.075S,T0.080S,T0.085S,T0.090S,T0.095S,T0.100S,T0.110S,T0.120S,T0.130S,T0.133S,T0.140S,T0.150S,T0.160S,T0.170S,T0.180S,T0.190S,T0.200S,T0.220S,T0.240S,T0.250S,T0.260S,T0.280S,T0.290S,T0.300S,T0.320S,T0.340S,T0.350S,T0.360S,T0.380S,T0.400S,T0.420S,T0.440S,T0.450S,T0.460S,T0.480S,T0.500S,T0.550S,T0.600S,T0.650S,T0.667S,T0.700S,T0.750S,T0.800S,T0.850S,T0.900S,T0.950S,T1.000S,T1.100S,T1.200S,T1.300S,T1.400S,T1.500S,T1.600S,T1.700S,T1.800S,T1.900S,T2.000S,T2.200S,T2.400S,T2.500S,T2.600S,T2.800S,T3.000S,T3.200S,T3.400S,T3.500S,T3.600S,T3.800S,T4.000S,T4.200S,T4.400S,T4.600S,T4.800S,T5.000S,T5.500S,T6.000S,T6.500S,T7.000S,T7.500S,T8.000S,T8.500S,T9.000S,T9.500S,T10.000S,T11.000S,T12.000S,T13.000S,T14.000S,T15.000S,T20.000S
49,Lytle Creek,Santa Anita Dam,5.33,42.14,667.13,LYTLECR\SAD003.AT2,LYTLECR\SAD273.AT2,LYTLECR\SADDWN.AT2,3.75E-02,1.21E+00,1.33E-01,3.77E-02,4.03E-02,4.13E-02,4.32E-02,4.81E-02,4.79E-02,4.43E-02,4.24E-02,4.41E-02,4.71E-02,4.81E-02,4.91E-02,5.08E-02,5.27E-02,5.56E-02,5.69E-02,5.59E-02,5.69E-02,6.67E-02,6.27E-02,6.88E-02,7.56E-02,8.03E-02,7.68E-02,7.43E-02,7.75E-02,8.45E-02,8.69E-02,1.02E-01,1.08E-01,1.08E-01,1.07E-01,1.00E-01,9.51E-02,9.17E-02,8.60E-02,7.51E-02,6.34E-02,5.24E-02,4.58E-02,4.33E-02,4.11E-02,3.72E-02,3.54E-02,3.37E-02,3.06E-02,2.92E-02,2.85E-02,2.78E-02,2.64E-02,2.50E-02,2.40E-02,2.34E-02,2.28E-02,2.25E-02,2.08E-02,1.87E-02,1.60E-02,1.17E-02,9.54E-03,8.89E-03,8.51E-03,8.39E-03,8.81E-03,8.38E-03,7.81E-03,7.11E-03,5.79E-03,4.72E-03,4.17E-03,3.73E-03,3.41E-03,2.85E-03,2.74E-03,2.64E-03,2.41E-03,2.21E-03,2.10E-03,1.90E-03,1.68E-03,1.60E-03,1.50E-03,1.23E-03,9.62E-04,7.65E-04,6.30E-04,5.92E-04,5.54E-04,4.91E-04,4.36E-04,3.92E-04,3.54E-04,3.19E-04,2.89E-04,2.62E-04,2.07E-04,1.67E-04,1.36E-04,1.13E-04,9.52E-05,8.28E-05,7.34E-05,6.55E-05,5.88E-05,5.31E-05,4.39E-05,3.70E-05,3.15E-05,2.72E-05,2.37E-05,1.33E-05
50,Lytle Creek,Wrightwood - 6074 Park Dr,5.33,10.7,486,LYTLECR\WTW115.AT2,LYTLECR\WTW205.AT2,LYTLECR\WTWDWN.AT2,1.69E-01,9.03E+00,9.43E-01,1.69E-01,1.71E-01,1.70E-01,1.71E-01,1.73E-01,1.73E-01,1.74E-01,1.86E-01,1.88E-01,1.98E-01,1.92E-01,1.87E-01,1.92E-01,1.96E-01,1.98E-01,1.98E-01,1.99E-01,2.23E-01,1.89E-01,2.07E-01,2.51E-01,2.94E-01,2.93E-01,3.13E-01,3.41E-01,3.46E-01,3.85E-01,3.59E-01,3.85E-01,2.86E-01,2.97E-01,3.04E-01,3.33E-01,3.12E-01,3.12E-01,3.04E-01,2.76E-01,2.51E-01,2.80E-01,3.47E-01,3.81E-01,4.14E-01,3.54E-01,2.96E-01,2.82E-01,3.29E-01,3.09E-01,2.87E-01,2.64E-01,2.96E-01,2.91E-01,3.08E-01,3.05E-01,3.06E-01,3.09E-01,3.14E-01,3.17E-01,2.96E-01,2.39E-01,1.98E-01,1.90E-01,1.78E-01,1.61E-01,1.44E-01,1.25E-01,1.05E-01,8.59E-02,7.02E-02,5.50E-02,4.30E-02,3.42E-02,2.80E-02,2.38E-02,2.08E-02,1.85E-02,1.67E-02,1.51E-02,1.37E-02,1.14E-02,9.55E-03,8.75E-03,8.03E-03,6.78E-03,5.78E-03,4.96E-03,4.29E-03,4.00E-03,3.73E-03,3.28E-03,3.00E-03,2.74E-03,2.44E-03,2.21E-03,1.98E-03,1.82E-03,1.41E-03,1.09E-03,9.13E-04,7.88E-04,6.87E-04,6.03E-04,5.34E-04,4.76E-04,4.26E-04,3.83E-04,3.16E-04,2.65E-04,2.25E-04,1.94E-04,1.69E-04,9.47E-05
51,San Fernando,2516 Via Tejon PV,6.61,55.2,280.56,SFERN\PVE065.AT2,SFERN\PVE155.AT2,SFERN\PVEDWN.AT2,3.13E-02,5.50E+00,8.73E+00,3.13E-02,3.17E-02,3.17E-02,3.17E-02,3.19E-02,3.21E-02,3.28E-02,3.32E-02,3.33E-02,3.33E-02,3.41E-02,3.53E-02,3.57E-02,3.60E-02,3.60E-02,3.44E-02,3.24E-02,3.72E-02,3.90E-02,4.02E-02,4.00E-02,3.68E-02,3.65E-02,3.80E-02,4.29E-02,4.67E-02,4.65E-02,5.15E-02,5.95E-02,6.63E-02,7.05E-02,8.13E-02,8.75E-02,8.87E-02,8.89E-02,8.85E-02,8.58E-02,9.08E-02,9.07E-02,8.66E-02,8.16E-02,9.35E-02,8.59E-02,8.22E-02,8.36E-02,7.85E-02,8.53E-02,8.92E-02,8.83E-02,7.39E-02,6.86E-02,6.38E-02,6.60E-02,6.89E-02,6.99E-02,6.77E-02,6.96E-02,5.96E-02,5.06E-02,4.91E-02,4.98E-02,5.41E-02,4.84E-02,4.77E-02,4.87E-02,4.86E-02,4.47E-02,4.61E-02,3.97E-02,4.37E-02,4.08E-02,3.47E-02,3.67E-02,3.43E-02,2.69E-02,2.16E-02,2.10E-02,1.78E-02,1.74E-02,1.87E-02,2.00E-02,2.10E-02,2.03E-02,2.04E-02,2.00E-02,2.38E-02,2.48E-02,2.49E-02,2.62E-02,2.62E-02,2.63E-02,2.58E-02,2.35E-02,2.16E-02,2.07E-02,1.85E-02,1.23E-02,8.33E-03,6.82E-03,5.85E-03,5.24E-03,4.46E-03,3.84E-03,3.35E-03,2.91E-03,1.93E-03,1.74E-03,1.61E-03,1.48E-03,1.40E-03,1.13E-03
52,San Fernando,Anza Post Office,6.61,173.16,360.45,SFERN\AZP045.AT2,SFERN\AZP315.AT2,SFERN\AZPDWN.AT2,3.44E-02,1.75E+00,1.72E-01,3.50E-02,3.48E-02,3.51E-02,3.53E-02,3.76E-02,3.73E-02,3.70E-02,3.80E-02,3.77E-02,3.62E-02,3.64E-02,3.71E-02,3.71E-02,3.70E-02,3.65E-02,3.48E-02,3.79E-02,3.90E-02,3.71E-02,3.72E-02,3.67E-02,3.77E-02,4.04E-02,4.31E-02,4.34E-02,4.36E-02,4.62E-02,5.01E-02,5.49E-02,6.80E-02,7.24E-02,7.56E-02,6.72E-02,8.04E-02,9.83E-02,1.03E-01,1.10E-01,1.24E-01,9.43E-02,7.77E-02,7.70E-02,7.80E-02,8.64E-02,8.49E-02,7.50E-02,7.68E-02,7.04E-02,7.26E-02,7.33E-02,6.95E-02,7.72E-02,9.21E-02,1.04E-01,1.09E-01,1.10E-01,1.04E-01,8.62E-02,5.50E-02,4.67E-02,4.00E-02,3.97E-02,3.70E-02,3.73E-02,3.68E-02,2.86E-02,2.33E-02,2.13E-02,1.90E-02,1.25E-02,1.06E-02,1.01E-02,1.00E-02,9.31E-03,7.08E-03,5.30E-03,4.21E-03,3.55E-03,3.27E-03,2.72E-03,2.20E-03,1.88E-03,1.61E-03,1.17E-03,9.62E-04,8.23E-04,6.55E-04,6.39E-04,6.24E-04,5.79E-04,5.17E-04,4.51E-04,3.93E-04,3.47E-04,3.11E-04,2.84E-04,2.37E-04,2.07E-04,1.79E-04,1.52E-04,1.28E-04,1.15E-04,1.04E-04,9.21E-05,8.10E-05,7.11E-05,5.79E-05,4.98E-05,4.41E-05,3.88E-05,3.46E-05,2.05E-05
53,San Fernando,Bakersfield - Harvey Aud,6.61,111.88,241.41,SFERN\BFA180.AT2,SFERN\BFA270.AT2,SFERN\BFA-UP.AT2,6.95E-03,1.44E+00,1.32E+00,6.95E-03,6.96E-03,6.96E-03,6.97E-03,6.98E-03,6.99E-03,7.00E-03,6.99E-03,6.97E-03,7.02E-03,7.09E-03,7.16E-03,7.18E-03,7.20E-03,7.22E-03,7.23E-03,7.33E-03,7.45E-03,7.63E-03,7.68E-03,7.68E-03,7.71E-03,8.07E-03,8.15E-03,8.29E-03,8.26E-03,8.38E-03,8.35E-03,8.62E-03,8.34E-03,8.46E-03,9.70E-03,1.01E-02,1.12E-02,1.24E-02,1.50E-02,1.43E-02,1.43E-02,1.72E-02,1.52E-02,1.36E-02,1.36E-02,1.78E-02,1.93E-02,2.02E-02,1.71E-02,1.67E-02,1.75E-02,1.70E-02,1.61E-02,1.63E-02,1.95E-02,1.87E-02,1.75E-02,1.71E-02,1.60E-02,1.49E-02,1.44E-02,1.70E-02,1.78E-02,1.91E-02,1.75E-02,1.48E-02,1.52E-02,1.29E-02,1.45E-02,1.30E-02,1.31E-02,1.27E-02,1.13E-02,8.76E-03,9.51E-03,8.67E-03,8.63E-03,8.41E-03,8.86E-03,1.04E-02,1.05E-02,1.02E-02,8.62E-03,7.67E-03,8.17E-03,6.96E-03,6.59E-03,5.77E-03,4.45E-03,4.28E-03,4.43E-03,4.70E-03,4.03E-03,4.05E-03,4.12E-03,3.99E-03,3.60E-03,3.10E-03,2.55E-03,2.37E-03,1.85E-03,2.20E-03,2.10E-03,1.85E-03,1.51E-03,1.24E-03,1.14E-03,1.23E-03,1.12E-03,1.02E-03,8.21E-04,6.53E-04,5.44E-04,2.25E-04
54,San Fernando,Borrego Springs Fire Sta,6.61,214.32,338.54,SFERN\BSF135.AT2,SFERN\BSF225.AT2,SFERN\BSFDWN.AT2,9.02E-03,1.50E+00,1.48E+00,9.03E-03,9.07E-03,9.19E-03,9.51E-03,9.53E-03,9.75E-03,9.98E-03,1.00E-02,9.83E-03,9.91E-03,9.86E-03,9.97E-03,1.01E-02,1.03E-02,1.07E-02,1.09E-02,1.01E-02,9.95E-03,1.04E-02,1.06E-02,1.06E-02,9.98E-03,1.07E-02,1.08E-02,1.18E-02,1.18E-02,1.21E-02,1.19E-02,1.39E-02,1.60E-02,1.48E-02,1.22E-02,1.30E-02,1.40E-02,1.43E-02,1.53E-02,1.70E-02,1.68E-02,1.77E-02,1.90E-02,2.15E-02,2.18E-02,2.32E-02,2.24E-02,2.05E-02,2.18E-02,2.54E-02,2.53E-02,2.42E-02,2.01E-02,1.86E-02,1.70E-02,1.79E-02,1.99E-02,2.04E-02,2.12E-02,1.95E-02,1.88E-02,1.90E-02,1.75E-02,1.54E-02,1.70E-02,1.84E-02,2.10E-02,2.12E-02,2.03E-02,1.59E-02,1.36E-02,9.32E-03,1.06E-02,9.91E-03,7.91E-03,6.85E-03,6.72E-03,6.33E-03,5.75E-03,5.90E-03,5.15E-03,4.40E-03,4.27E-03,4.64E-03,4.85E-03,4.34E-03,3.82E-03,3.79E-03,3.55E-03,3.51E-03,3.84E-03,4.68E-03,4.94E-03,5.14E-03,4.87E-03,4.69E-03,4.18E-03,3.72E-03,2.65E-03,2.21E-03,2.29E-03,2.52E-03,2.51E-03,2.34E-03,2.15E-03,1.95E-03,1.72E-03,1.53E-03,1.26E-03,1.03E-03,7.98E-04,6.28E-04,5.39E-04,2.17E-04
55,San Fernando,Buena Vista - Taft,6.61,111.37,385.69,SFERN\BVP090.AT2,SFERN\BVP180.AT2,SFERN\BVPDWN.AT2,1.20E-02,1.36E+00,1.30E+00,1.20E-02,1.21E-02,1.21E-02,1.21E-02,1.22E-02,1.22E-02,1.23E-02,1.23E-02,1.24E-02,1.25E-02,1.25E-02,1.25E-02,1.26E-02,1.26E-02,1.27E-02,1.27E-02,1.27E-02,1.30E-02,1.32E-02,1.35E-02,1.37E-02,1.41E-02,1.49E-02,1.44E-02,1.53E-02,1.58E-02,1.63E-02,1.73E-02,1.91E-02,2.27E-02,2.42E-02,2.82E-02,3.04E-02,3.12E-02,3.30E-02,2.90E-02,3.04E-02,3.18E-02,3.23E-02,2.96E-02,3.03E-02,3.28E-02,3.93E-02,4.39E-02,4.55E-02,4.51E-02,4.16E-02,3.94E-02,3.71E-02,3.24E-02,3.16E-02,2.70E-02,2.29E-02,2.07E-02,2.02E-02,1.85E-02,1.76E-02,1.67E-02,1.41E-02,1.36E-02,1.41E-02,1.50E-02,1.48E-02,1.32E-02,1.37E-02,1.15E-02,1.16E-02,1.18E-02,1.10E-02,1.02E-02,9.09E-03,9.67E-03,8.43E-03,8.35E-03,9.68E-03,1.10E-02,1.12E-02,1.01E-02,7.99E-03,8.29E-03,6.96E-03,5.64E-03,5.61E-03,6.11E-03,5.31E-03,5.22E-03,5.10E-03,4.75E-03,4.69E-03,4.28E-03,3.53E-03,2.66E-03,2.28E-03,1.99E-03,1.88E-03,1.89E-03,1.85E-03,2.13E-03,2.38E-03,2.49E-03,2.39E-03,2.36E-03,2.15E-03,1.88E-03,1.60E-03,1.22E-03,8.49E-04,6.50E-04,5.22E-04,4.23E-04,1.74E-04
56,San Fernando,Carbon Canyon Dam,6.61,61.79,235,SFERN\CND130.AT2,SFERN\CND220.AT2,SFERN\CNDDWN.AT2,7.12E-02,4.78E+00,4.09E+00,7.14E-02,7.21E-02,7.24E-02,7.28E-02,7.33E-02,7.33E-02,7.30E-02,7.25E-02,7.24E-02,7.30E-02,7.48E-02,7.61E-02,7.62E-02,7.64E-02,7.78E-02,7.79E-02,8.14E-02,8.52E-02,9.09E-02,9.20E-02,9.55E-02,1.03E-01,1.14E-01,1.22E-01,1.37E-01,1.41E-01,1.44E-01,1.79E-01,1.97E-01,1.94E-01,1.78E-01,1.73E-01,1.62E-01,1.69E-01,1.71E-01,1.88E-01,1.96E-01,1.81E-01,2.31E-01,2.45E-01,2.73E-01,2.73E-01,2.26E-01,2.25E-01,2.07E-01,1.93E-01,2.01E-01,2.10E-01,2.14E-01,2.18E-01,1.73E-01,1.51E-01,1.40E-01,1.31E-01,1.22E-01,1.09E-01,9.71E-02,8.85E-02,8.39E-02,6.49E-02,6.42E-02,5.88E-02,5.58E-02,4.67E-02,3.52E-02,3.50E-02,3.38E-02,3.03E-02,2.60E-02,2.10E-02,2.03E-02,1.87E-02,1.87E-02,1.91E-02,1.57E-02,1.25E-02,1.17E-02,1.14E-02,9.93E-03,9.53E-03,9.35E-03,9.91E-03,1.09E-02,1.26E-02,1.36E-02,1.42E-02,1.38E-02,1.34E-02,1.29E-02,1.23E-02,1.12E-02,1.10E-02,1.11E-02,1.06E-02,9.98E-03,9.20E-03,9.66E-03,8.46E-03,7.96E-03,7.29E-03,6.20E-03,5.70E-03,5.15E-03,4.53E-03,3.96E-03,3.42E-03,3.18E-03,2.75E-03,2.24E-03,1.81E-03,6.75E-04
57,San Fernando,Castaic - Old Ridge Route,6.61,19.33,450.28,SFERN\ORR021.AT2,SFERN\ORR291.AT2,SFERN\ORRDWN.AT2,2.87E-01,2.22E+01,3.29E+00,2.90E-01,2.88E-01,2.92E-01,2.88E-01,2.99E-01,3.00E-01,3.03E-01,3.20E-01,3.19E-01,3.07E-01,3.15E-01,3.20E-01,3.23E-01,3.24E-01,3.25E-01,3.20E-01,3.08E-01,3.51E-01,3.67E-01,3.60E-01,3.62E-01,3.39E-01,3.99E-01,4.31E-01,4.04E-01,4.72E-01,4.94E-01,5.73E-01,5.99E-01,4.97E-01,5.04E-01,5.92E-01,7.16E-01,6.43E-01,6.21E-01,5.46E-01,5.52E-01,6.34E-01,7.45E-01,5.99E-01,5.47E-01,5.22E-01,5.48E-01,5.47E-01,5.67E-01,7.48E-01,8.05E-01,7.78E-01,7.25E-01,6.32E-01,5.78E-01,6.06E-01,5.71E-01,6.01E-01,6.08E-01,5.70E-01,5.70E-01,4.82E-01,4.37E-01,3.93E-01,3.83E-01,3.85E-01,3.70E-01,3.41E-01,3.46E-01,3.36E-01,3.11E-01,2.69E-01,2.20E-01,1.87E-01,1.57E-01,1.35E-01,1.14E-01,9.42E-02,7.77E-02,6.97E-02,6.26E-02,5.63E-02,4.56E-02,3.73E-02,3.38E-02,3.07E-02,2.55E-02,2.13E-02,1.80E-02,1.54E-02,1.42E-02,1.32E-02,1.14E-02,9.98E-03,8.77E-03,7.76E-03,6.90E-03,6.17E-03,5.55E-03,4.34E-03,3.48E-03,2.86E-03,2.44E-03,2.15E-03,1.91E-03,1.70E-03,1.53E-03,1.38E-03,1.25E-03,1.04E-03,8.83E-04,7.56E-04,6.54E-04,5.72E-04,3.25E-04
58,San Fernando,Cedar Springs Pumphouse,6.61,92.25,477.22,SFERN\CSP126.AT2,SFERN\CSP216.AT2,SFERN\CSPDWN.AT2,2.72E-02,2.27E+00,3.98E-01,2.73E-02,2.75E-02,2.75E-02,2.76E-02,2.78E-02,2.78E-02,2.79E-02,2.83E-02,2.84E-02,2.91E-02,2.93E-02,2.92E-02,2.88E-02,2.86E-02,2.98E-02,3.07E-02,3.10E-02,3.13E-02,3.07E-02,3.21E-02,3.36E-02,3.54E-02,3.75E-02,3.83E-02,3.85E-02,4.12E-02,4.46E-02,4.76E-02,4.91E-02,5.43E-02,5.85E-02,7.16E-02,8.21E-02,8.63E-02,7.04E-02,6.02E-02,5.88E-02,5.62E-02,6.44E-02,7.09E-02,8.11E-02,9.06E-02,1.01E-01,9.50E-02,9.41E-02,8.52E-02,9.19E-02,9.15E-02,9.64E-02,1.07E-01,8.81E-02,6.98E-02,5.56E-02,5.52E-02,5.58E-02,5.60E-02,5.31E-02,5.00E-02,4.23E-02,4.13E-02,4.18E-02,3.93E-02,3.37E-02,3.05E-02,2.76E-02,2.84E-02,2.60E-02,2.14E-02,1.69E-02,1.53E-02,1.31E-02,1.07E-02,8.95E-03,8.61E-03,8.76E-03,8.44E-03,8.56E-03,7.97E-03,6.36E-03,4.88E-03,4.28E-03,3.96E-03,3.36E-03,2.84E-03,2.77E-03,2.46E-03,2.31E-03,2.08E-03,1.90E-03,1.72E-03,1.56E-03,1.48E-03,1.41E-03,1.33E-03,1.24E-03,1.13E-03,9.76E-04,8.29E-04,6.71E-04,5.43E-04,4.41E-04,3.60E-04,3.20E-04,2.81E-04,2.46E-04,1.89E-04,1.48E-04,1.17E-04,9.76E-05,8.29E-05,4.40E-05
59,San Fernando,"Cedar Springs, Allen Ranch",6.61,89.37,813.48,SFERN\CSM095.AT2,SFERN\CSM185.AT2,SFERN\CSMDWN.AT2,1.80E-02,1.47E+00,5.18E-01,1.83E-02,1.86E-02,1.87E-02,1.97E-02,1.99E-02,2.07E-02,1.98E-02,2.00E-02,2.01E-02,2.06E-02,2.00E-02,2.04E-02,2.12E-02,2.15E-02,2.18E-02,2.28E-02,2.30E-02,2.28E-02,2.45E-02,2.51E-02,2.75E-02,2.74E-02,2.87E-02,3.33E-02,3.33E-02,3.88E-02,4.17E-02,3.76E-02,3.68E-02,3.74E-02,3.82E-02,4.48E-02,5.09E-02,5.42E-02,4.65E-02,4.32E-02,4.15E-02,4.39E-02,3.88E-02,3.65E-02,3.56E-02,3.46E-02,3.71E-02,3.52E-02,3.33E-02,2.89E-02,3.03E-02,3.32E-02,3.37E-02,2.90E-02,2.74E-02,3.07E-02,3.15E-02,3.09E-02,2.99E-02,2.88E-02,3.06E-02,3.34E-02,2.75E-02,2.18E-02,2.05E-02,1.85E-02,1.78E-02,1.81E-02,2.22E-02,2.37E-02,2.37E-02,2.01E-02,1.74E-02,1.70E-02,1.52E-02,1.24E-02,9.71E-03,8.58E-03,7.56E-03,7.47E-03,7.05E-03,6.21E-03,4.78E-03,4.83E-03,4.69E-03,4.48E-03,4.28E-03,4.75E-03,4.69E-03,4.29E-03,4.23E-03,4.13E-03,3.78E-03,3.29E-03,2.88E-03,2.43E-03,1.91E-03,1.51E-03,1.36E-03,1.09E-03,9.31E-04,8.44E-04,7.19E-04,5.62E-04,5.09E-04,4.68E-04,4.14E-04,3.53E-04,2.92E-04,2.14E-04,1.73E-04,1.40E-04,1.16E-04,9.76E-05,5.23E-05
60,San Fernando,Cholame - Shandon Array #2,6.61,217.54,184.75,SFERN\C02051.AT2,SFERN\C02321.AT2,SFERN\C02DWN.AT2,4.34E-03,1.32E+00,1.42E+00,4.35E-03,4.41E-03,4.40E-03,4.42E-03,4.57E-03,4.60E-03,4.80E-03,5.31E-03,5.28E-03,5.90E-03,5.93E-03,5.43E-03,5.04E-03,4.96E-03,4.95E-03,5.08E-03,5.59E-03,6.11E-03,6.26E-03,6.29E-03,6.28E-03,6.07E-03,5.89E-03,5.67E-03,6.31E-03,6.62E-03,6.76E-03,6.83E-03,6.25E-03,6.22E-03,6.27E-03,6.76E-03,6.87E-03,6.62E-03,6.64E-03,6.76E-03,6.57E-03,6.19E-03,6.41E-03,6.65E-03,6.93E-03,7.06E-03,7.12E-03,7.18E-03,7.12E-03,7.56E-03,7.28E-03,7.18E-03,7.13E-03,7.09E-03,7.39E-03,7.61E-03,8.20E-03,7.96E-03,7.91E-03,8.59E-03,8.98E-03,7.80E-03,8.79E-03,1.02E-02,1.06E-02,9.52E-03,9.26E-03,1.07E-02,1.09E-02,1.08E-02,9.89E-03,1.02E-02,1.05E-02,1.05E-02,8.32E-03,9.02E-03,9.16E-03,7.41E-03,7.12E-03,8.77E-03,8.90E-03,7.94E-03,6.22E-03,5.96E-03,5.79E-03,5.75E-03,5.81E-03,5.81E-03,5.58E-03,4.69E-03,4.20E-03,3.98E-03,3.98E-03,3.86E-03,3.45E-03,2.94E-03,2.59E-03,2.45E-03,2.42E-03,2.28E-03,2.22E-03,2.24E-03,1.86E-03,1.71E-03,1.60E-03,1.59E-03,1.91E-03,2.07E-03,2.04E-03,1.79E-03,1.52E-03,1.12E-03,8.07E-04,6.21E-04,2.20E-04
61,San Fernando,Cholame - Shandon Array #8,6.61,218.17,256.82,SFERN\C08051.AT2,SFERN\C08321.AT2,SFERN\C08XXX.AT2,5.66E-03,1.38E+00,1.89E+00,5.67E-03,5.70E-03,5.70E-03,5.73E-03,5.77E-03,5.77E-03,5.81E-03,5.85E-03,5.84E-03,5.99E-03,6.01E-03,5.97E-03,5.94E-03,6.00E-03,6.08E-03,6.09E-03,6.29E-03,6.32E-03,6.42E-03,6.45E-03,6.48E-03,6.57E-03,6.83E-03,6.67E-03,6.39E-03,6.35E-03,6.34E-03,6.37E-03,6.90E-03,7.20E-03,7.18E-03,7.06E-03,6.74E-03,6.87E-03,7.40E-03,7.85E-03,7.57E-03,7.97E-03,8.70E-03,9.40E-03,1.04E-02,1.08E-02,1.06E-02,1.17E-02,1.31E-02,1.35E-02,1.45E-02,1.50E-02,1.52E-02,1.71E-02,1.71E-02,1.55E-02,1.40E-02,1.47E-02,1.43E-02,1.34E-02,1.31E-02,1.19E-02,1.20E-02,1.33E-02,1.44E-02,1.72E-02,1.79E-02,1.56E-02,1.50E-02,1.54E-02,1.45E-02,1.41E-02,1.37E-02,1.34E-02,1.07E-02,1.25E-02,1.02E-02,8.77E-03,8.89E-03,8.63E-03,7.90E-03,6.55E-03,6.13E-03,5.42E-03,5.46E-03,5.05E-03,4.45E-03,4.15E-03,3.45E-03,3.38E-03,3.76E-03,4.07E-03,4.06E-03,3.50E-03,2.98E-03,2.71E-03,2.59E-03,2.28E-03,2.01E-03,1.87E-03,2.23E-03,2.02E-03,1.47E-03,1.37E-03,1.30E-03,1.18E-03,1.31E-03,1.36E-03,1.46E-03,1.55E-03,1.51E-03,1.40E-03,1.16E-03,9.63E-04,4.29E-04
62,San Fernando,Colton - So Cal Edison,6.61,96.81,301.95,SFERN\CLN090.AT2,SFERN\CLN180.AT2,SFERN\CLN-UP.AT2,3.85E-02,2.12E+00,3.27E-01,3.85E-02,3.86E-02,3.87E-02,3.87E-02,3.89E-02,3.89E-02,3.91E-02,3.92E-02,3.93E-02,3.96E-02,3.96E-02,3.98E-02,4.01E-02,4.02E-02,4.04E-02,4.03E-02,4.05E-02,4.09E-02,4.25E-02,4.26E-02,4.30E-02,4.55E-02,4.82E-02,5.07E-02,5.54E-02,5.75E-02,6.33E-02,6.73E-02,7.25E-02,9.08E-02,9.43E-02,9.60E-02,9.08E-02,1.03E-01,9.97E-02,9.41E-02,8.71E-02,8.72E-02,1.02E-01,9.83E-02,1.05E-01,1.25E-01,1.75E-01,1.76E-01,1.63E-01,1.16E-01,1.02E-01,9.47E-02,9.20E-02,7.16E-02,7.03E-02,7.08E-02,7.21E-02,7.10E-02,7.13E-02,6.64E-02,6.12E-02,5.14E-02,3.96E-02,3.38E-02,3.08E-02,2.67E-02,2.76E-02,2.32E-02,2.46E-02,2.23E-02,1.77E-02,1.69E-02,1.75E-02,1.37E-02,1.13E-02,1.20E-02,9.88E-03,8.03E-03,7.36E-03,6.59E-03,5.46E-03,5.28E-03,5.04E-03,5.19E-03,5.26E-03,4.91E-03,4.34E-03,3.67E-03,3.15E-03,2.68E-03,2.45E-03,2.26E-03,1.92E-03,1.71E-03,1.49E-03,1.29E-03,1.14E-03,1.03E-03,9.26E-04,7.34E-04,5.67E-04,4.42E-04,3.69E-04,3.15E-04,2.70E-04,2.32E-04,2.00E-04,1.73E-04,1.51E-04,1.17E-04,9.43E-05,7.90E-05,6.92E-05,6.16E-05,3.57E-05
63,San Fernando,Fairmont Dam,6.61,25.58,634.33,SFERN\FTR056.AT2,SFERN\FTR326.AT2,SFERN\FTR-UP.AT2,9.39E-02,7.13E+00,2.58E+00,9.50E-02,9.46E-02,1.01E-01,1.11E-01,1.15E-01,1.14E-01,1.13E-01,1.15E-01,1.22E-01,1.24E-01,1.17E-01,1.28E-01,1.33E-01,1.32E-01,1.26E-01,1.19E-01,1.30E-01,1.43E-01,1.54E-01,1.54E-01,1.47E-01,1.42E-01,1.35E-01,1.30E-01,1.30E-01,1.47E-01,1.55E-01,1.66E-01,1.82E-01,1.71E-01,1.63E-01,1.64E-01,1.59E-01,1.62E-01,1.68E-01,1.61E-01,1.82E-01,2.16E-01,2.96E-01,3.50E-01,3.40E-01,3.23E-01,2.49E-01,2.12E-01,1.82E-01,1.41E-01,1.13E-01,9.82E-02,8.83E-02,7.99E-02,7.64E-02,8.08E-02,8.70E-02,8.83E-02,8.83E-02,8.40E-02,8.23E-02,9.78E-02,1.02E-01,1.05E-01,1.05E-01,1.11E-01,1.08E-01,1.03E-01,9.74E-02,9.16E-02,8.60E-02,7.92E-02,6.60E-02,5.81E-02,5.06E-02,4.38E-02,3.83E-02,3.29E-02,2.90E-02,2.72E-02,2.38E-02,2.05E-02,1.68E-02,1.33E-02,1.21E-02,1.15E-02,1.15E-02,1.17E-02,1.01E-02,8.16E-03,7.25E-03,6.78E-03,6.92E-03,7.43E-03,7.02E-03,7.00E-03,6.75E-03,6.39E-03,5.78E-03,3.84E-03,3.09E-03,2.61E-03,2.57E-03,2.16E-03,1.79E-03,1.52E-03,1.33E-03,1.15E-03,9.99E-04,7.74E-04,6.56E-04,5.74E-04,5.51E-04,4.94E-04,2.87E-04
64,San Fernando,Fort Tejon,6.61,59.52,394.18,SFERN\FTJ000.AT2,SFERN\FTJ090.AT2,SFERN\FTJ-UP.AT2,2.40E-02,1.20E+00,3.07E-01,2.40E-02,2.46E-02,2.47E-02,2.50E-02,2.57E-02,2.60E-02,2.62E-02,2.68E-02,2.68E-02,2.70E-02,2.67E-02,2.73E-02,2.75E-02,2.74E-02,2.62E-02,2.79E-02,3.10E-02,3.18E-02,3.90E-02,4.10E-02,4.17E-02,4.70E-02,4.88E-02,4.83E-02,5.53E-02,6.25E-02,6.20E-02,6.75E-02,6.31E-02,6.26E-02,6.29E-02,6.55E-02,6.90E-02,7.43E-02,7.24E-02,7.16E-02,7.87E-02,8.42E-02,6.29E-02,5.72E-02,5.29E-02,5.05E-02,5.54E-02,5.52E-02,5.85E-02,6.52E-02,6.11E-02,6.26E-02,5.83E-02,5.05E-02,4.29E-02,3.35E-02,2.77E-02,2.59E-02,2.44E-02,2.04E-02,1.78E-02,1.66E-02,1.50E-02,1.22E-02,1.13E-02,9.87E-03,8.77E-03,7.62E-03,7.85E-03,9.09E-03,9.63E-03,8.94E-03,8.39E-03,7.72E-03,6.42E-03,5.33E-03,5.43E-03,5.66E-03,6.03E-03,5.99E-03,5.73E-03,5.99E-03,6.17E-03,5.86E-03,5.37E-03,4.74E-03,3.94E-03,3.30E-03,2.82E-03,2.81E-03,2.78E-03,2.72E-03,2.54E-03,2.44E-03,2.17E-03,1.82E-03,1.58E-03,1.35E-03,1.16E-03,8.35E-04,6.03E-04,4.87E-04,3.94E-04,3.26E-04,2.72E-04,2.28E-04,1.93E-04,1.65E-04,1.43E-04,1.14E-04,9.36E-05,7.84E-05,6.67E-05,5.74E-05,3.16E-05
