RSN,Earthquake Name,Station,Magnitude,Distance,Vs30,Filename (H1),Filename (H2),Filename (V),PGA (g),PGV (cm/sec),PGD (cm),T0.010S,T0.020S,T0.022S,T0.025S,T0.029S,T0.030S,T0.032S,T0.035S,T0.036S,T0.040S,T0.042S,T0.044S,T0.045S,T0.046S,T0.048S,T0.050S,T0.055S,T0.060S,T0.065S,T0.067S,T0.070S,T0.075S,T0.080S,T0.085S,T0.090S,T0.095S,T0.100S,T0.110S,T0.120S,T0.130S,T0.133S,T0.140S,T0.150S,T0.160S,T0.170S,T0.180S,T0.190S,T0.200S,T0.220S,T0.240S,T0.250S,T0.260S,T0.280S,T0.290S,T0.300S,T0.320S,T0.340S,T0.350S,T0.360S,T0.380S,T0.400S,T0.420S,T0.440S,T0.450S,T0.460S,T0.480S,T0.500S,T0.550S,T0.600S,T0.650S,T0.667S,T0.700S,T0.750S,T0.800S,T0.850S,T0.900S,T0.950S,T1.000S,T1.100S,T1.200S,T1.300S,T1.400S,T1.500S,T1.600S,T1.700S,T1.800S,T1.900S,T2.000S,T2.200S,T2.400S,T2.500S,T2.600S,T2.800S,T3.000S,T3.200S,T3.400S,T3.500S,T3.600S,T3.800S,T4.000S,T4.200S,T4.400S,T4.600S,T4.800S,T5.000S,T5.500S,T6.000S,T6.500S,T7.000S,T7.500S,T8.000S,T8.500S,T9.000S,T9.500S,T10.000S,T11.000S,T12.000S,T13.000S,T14.000S,T15.000S,T20.000S
81,San Fernando,Pearblossom Pump,6.61,35.54,529.09,SFERN\PPP000.AT2,SFERN\PPP270.AT2,SFERN\PPPDWN.AT2,1.31E-01,4.88E+00,1.09E+00,1.34E-01,1.34E-01,1.39E-01,1.52E-01,1.54E-01,1.56E-01,1.59E-01,1.57E-01,1.64E-01,1.68E-01,1.65E-01,1.70E-01,1.71E-01,1.66E-01,1.63E-01,1.68E-01,1.77E-01,2.42E-01,2.27E-01,2.26E-01,2.39E-01,2.78E-01,2.90E-01,2.77E-01,2.68E-01,3.00E-01,3.24E-01,3.08E-01,3.56E-01,4.44E-01,4.69E-01,4.67E-01,4.37E-01,4.54E-01,4.27E-01,3.52E-01,2.94E-01,2.61E-01,2.21E-01,2.23E-01,2.28E-01,2.01E-01,1.43E-01,1.48E-01,1.49E-01,1.76E-01,2.05E-01,1.98E-01,1.73E-01,1.83E-01,1.85E-01,1.61E-01,1.46E-01,1.46E-01,1.37E-01,1.17E-01,1.24E-01,1.03E-01,7.13E-02,6.52E-02,6.17E-02,5.94E-02,4.78E-02,5.47E-02,5.34E-02,4.78E-02,3.86E-02,4.05E-02,4.11E-02,4.31E-02,3.27E-02,2.75E-02,3.07E-02,3.15E-02,3.00E-02,2.52E-02,1.93E-02,1.70E-02,1.47E-02,1.69E-02,1.61E-02,1.60E-02,1.48E-02,1.27E-02,1.04E-02,9.33E-03,9.33E-03,9.36E-03,8.81E-03,7.82E-03,6.97E-03,6.03E-03,5.34E-03,4.53E-03,3.98E-03,2.99E-03,2.33E-03,1.87E-03,1.58E-03,1.37E-03,1.17E-03,1.00E-03,8.54E-04,7.89E-04,7.20E-04,5.73E-04,4.71E-04,4.10E-04,3.46E-04,2.94E-04,1.51E-04
82,San Fernando,Port Hueneme,6.61,68.84,248.98,SFERN\PHN180.AT2,SFERN\PHN270.AT2,SFERN\PHN-UP.AT2,2.66E-02,5.99E+00,4.54E+00,2.69E-02,2.68E-02,2.68E-02,2.71E-02,2.85E-02,2.84E-02,2.99E-02,2.96E-02,2.97E-02,2.92E-02,2.97E-02,2.99E-02,2.95E-02,2.92E-02,2.85E-02,2.87E-02,3.07E-02,3.01E-02,2.88E-02,2.92E-02,2.87E-02,2.92E-02,3.26E-02,3.41E-02,3.43E-02,3.66E-02,3.82E-02,4.20E-02,4.40E-02,4.58E-02,4.56E-02,4.73E-02,4.78E-02,5.26E-02,5.32E-02,5.38E-02,5.51E-02,5.81E-02,5.91E-02,6.89E-02,7.82E-02,8.93E-02,1.00E-01,1.06E-01,1.08E-01,1.07E-01,1.03E-01,1.00E-01,9.51E-02,8.06E-02,7.10E-02,5.90E-02,4.82E-02,4.52E-02,4.67E-02,4.82E-02,4.81E-02,4.64E-02,5.59E-02,5.94E-02,6.00E-02,5.75E-02,6.14E-02,7.29E-02,6.34E-02,5.65E-02,6.04E-02,6.12E-02,5.51E-02,4.98E-02,4.09E-02,4.26E-02,3.78E-02,3.91E-02,4.45E-02,5.36E-02,5.20E-02,4.92E-02,4.87E-02,5.25E-02,4.86E-02,4.31E-02,3.79E-02,3.30E-02,2.71E-02,3.15E-02,3.08E-02,2.92E-02,2.94E-02,2.71E-02,2.19E-02,1.89E-02,1.56E-02,1.42E-02,1.68E-02,1.71E-02,1.43E-02,1.23E-02,9.86E-03,8.84E-03,7.23E-03,6.00E-03,5.00E-03,4.34E-03,4.03E-03,3.16E-03,2.47E-03,2.08E-03,1.64E-03,1.42E-03,6.33E-04
83,San Fernando,Puddingstone Dam (Abutment),6.61,52.64,421.44,SFERN\PUD055.AT2,SFERN\PUD325.AT2,SFERN\PUDDWN.AT2,5.98E-02,4.37E+00,1.55E+00,6.08E-02,6.13E-02,6.13E-02,6.27E-02,6.64E-02,6.53E-02,7.08E-02,6.86E-02,7.06E-02,7.05E-02,6.95E-02,6.50E-02,6.33E-02,6.30E-02,6.35E-02,6.46E-02,6.73E-02,6.72E-02,6.73E-02,6.90E-02,7.09E-02,8.04E-02,9.36E-02,1.00E-01,1.10E-01,1.16E-01,1.28E-01,1.32E-01,1.48E-01,1.65E-01,1.59E-01,1.68E-01,1.60E-01,1.79E-01,1.79E-01,1.62E-01,1.88E-01,2.09E-01,1.90E-01,1.39E-01,1.14E-01,9.56E-02,9.53E-02,9.02E-02,9.67E-02,1.04E-01,1.09E-01,1.10E-01,1.09E-01,1.07E-01,1.18E-01,1.28E-01,1.42E-01,1.42E-01,1.35E-01,1.20E-01,1.14E-01,9.19E-02,1.05E-01,1.12E-01,1.15E-01,1.14E-01,1.04E-01,9.42E-02,8.46E-02,6.86E-02,5.36E-02,4.00E-02,3.11E-02,3.14E-02,2.57E-02,2.95E-02,2.75E-02,2.04E-02,1.57E-02,1.23E-02,1.18E-02,1.24E-02,1.07E-02,9.60E-03,9.25E-03,8.08E-03,8.79E-03,9.06E-03,9.95E-03,9.53E-03,9.00E-03,8.29E-03,6.91E-03,6.14E-03,6.06E-03,6.04E-03,6.18E-03,6.19E-03,5.85E-03,5.96E-03,5.25E-03,4.48E-03,3.87E-03,3.31E-03,2.67E-03,2.26E-03,1.91E-03,1.60E-03,1.34E-03,9.55E-04,7.27E-04,5.89E-04,4.89E-04,4.12E-04,2.01E-04
84,San Fernando,San Diego Gas & Electric,6.61,205.77,354.06,SFERN\SDC000.AT2,SFERN\SDC090.AT2,SFERN\SDCDWN.AT2,5.14E-03,1.42E+00,1.42E+00,5.14E-03,5.21E-03,5.31E-03,5.37E-03,5.22E-03,5.38E-03,5.47E-03,5.74E-03,5.86E-03,5.45E-03,5.84E-03,5.87E-03,5.84E-03,5.85E-03,5.82E-03,5.84E-03,5.88E-03,6.22E-03,6.04E-03,5.98E-03,6.16E-03,6.48E-03,6.76E-03,6.63E-03,7.31E-03,7.50E-03,7.27E-03,7.09E-03,8.39E-03,9.01E-03,9.78E-03,1.07E-02,9.75E-03,1.05E-02,1.16E-02,1.28E-02,1.26E-02,1.36E-02,9.50E-03,9.73E-03,1.03E-02,9.92E-03,1.04E-02,1.08E-02,1.07E-02,1.30E-02,1.34E-02,1.36E-02,1.29E-02,1.24E-02,1.22E-02,1.40E-02,1.40E-02,1.39E-02,1.42E-02,1.34E-02,1.44E-02,1.48E-02,1.45E-02,1.29E-02,1.22E-02,1.13E-02,9.78E-03,9.74E-03,9.11E-03,9.05E-03,1.07E-02,1.12E-02,9.18E-03,8.62E-03,8.66E-03,8.03E-03,9.42E-03,9.10E-03,8.03E-03,6.82E-03,5.66E-03,6.00E-03,5.71E-03,4.76E-03,4.73E-03,4.98E-03,4.09E-03,3.67E-03,3.70E-03,4.24E-03,4.71E-03,4.95E-03,4.50E-03,3.69E-03,3.11E-03,3.51E-03,3.87E-03,4.09E-03,3.97E-03,3.13E-03,3.17E-03,3.71E-03,4.29E-03,3.90E-03,3.35E-03,2.69E-03,2.27E-03,1.88E-03,1.55E-03,1.13E-03,8.18E-04,6.83E-04,5.51E-04,4.55E-04,2.05E-04
85,San Fernando,San Juan Capistrano,6.61,108.01,459.37,SFERN\SJC033.AT2,SFERN\SJC303.AT2,SFERN\SJCDWN.AT2,3.82E-02,3.97E+00,2.45E+00,3.86E-02,3.87E-02,3.92E-02,3.99E-02,4.01E-02,4.10E-02,4.23E-02,4.16E-02,4.17E-02,4.53E-02,4.51E-02,4.45E-02,4.38E-02,4.24E-02,4.08E-02,4.01E-02,4.07E-02,4.46E-02,4.47E-02,4.55E-02,4.50E-02,4.71E-02,4.46E-02,4.75E-02,5.29E-02,5.77E-02,6.24E-02,7.50E-02,8.80E-02,9.01E-02,8.74E-02,7.85E-02,8.42E-02,7.49E-02,7.52E-02,7.67E-02,9.26E-02,1.02E-01,8.89E-02,9.12E-02,8.67E-02,9.49E-02,9.19E-02,9.75E-02,9.85E-02,1.18E-01,1.09E-01,1.06E-01,1.03E-01,9.80E-02,8.42E-02,7.27E-02,7.10E-02,7.50E-02,7.59E-02,8.17E-02,9.49E-02,1.17E-01,8.31E-02,7.25E-02,7.24E-02,7.17E-02,5.99E-02,6.64E-02,7.09E-02,7.35E-02,7.43E-02,6.50E-02,5.22E-02,5.01E-02,4.08E-02,3.74E-02,3.37E-02,2.72E-02,2.49E-02,2.30E-02,2.22E-02,1.93E-02,1.45E-02,1.37E-02,1.36E-02,1.31E-02,1.04E-02,9.35E-03,8.56E-03,7.91E-03,7.75E-03,8.31E-03,9.37E-03,8.83E-03,9.04E-03,8.99E-03,8.29E-03,7.15E-03,7.14E-03,8.24E-03,7.82E-03,6.28E-03,4.09E-03,3.28E-03,2.91E-03,2.55E-03,2.05E-03,1.76E-03,1.57E-03,1.31E-03,1.08E-03,8.36E-04,6.16E-04,4.79E-04,2.95E-04
86,San Fernando,San Onofre - So Cal Edison,6.61,124.79,442.88,SFERN\SON033.AT2,SFERN\SON303.AT2,SFERN\SONDWN.AT2,1.47E-02,3.45E+00,5.99E+00,1.47E-02,1.48E-02,1.48E-02,1.49E-02,1.50E-02,1.49E-02,1.49E-02,1.48E-02,1.50E-02,1.54E-02,1.60E-02,1.64E-02,1.65E-02,1.66E-02,1.66E-02,1.63E-02,1.66E-02,1.64E-02,1.81E-02,1.83E-02,1.88E-02,1.97E-02,1.94E-02,2.22E-02,2.28E-02,2.33E-02,2.26E-02,2.35E-02,2.56E-02,3.03E-02,3.14E-02,3.07E-02,3.26E-02,3.28E-02,3.13E-02,3.53E-02,3.62E-02,3.56E-02,3.03E-02,2.68E-02,3.20E-02,3.35E-02,3.97E-02,4.34E-02,4.48E-02,4.16E-02,4.13E-02,4.13E-02,4.41E-02,4.41E-02,3.85E-02,3.69E-02,3.13E-02,2.84E-02,2.70E-02,3.22E-02,3.68E-02,2.85E-02,2.61E-02,2.63E-02,2.70E-02,2.70E-02,2.88E-02,2.67E-02,2.50E-02,2.35E-02,2.48E-02,2.23E-02,2.37E-02,2.26E-02,1.65E-02,1.44E-02,1.51E-02,1.50E-02,1.66E-02,1.63E-02,1.57E-02,1.44E-02,9.83E-03,8.26E-03,8.44E-03,8.90E-03,7.99E-03,7.45E-03,5.71E-03,5.11E-03,4.91E-03,5.16E-03,5.32E-03,4.51E-03,4.74E-03,5.04E-03,4.72E-03,4.49E-03,4.55E-03,5.31E-03,5.12E-03,5.77E-03,4.97E-03,5.11E-03,4.09E-03,4.18E-03,3.73E-03,3.24E-03,2.69E-03,2.52E-03,2.48E-03,2.38E-03,2.60E-03,2.54E-03,2.53E-03
87,San Fernando,Santa Anita Dam,6.61,30.7,667.13,SFERN\SAD003.AT2,SFERN\SAD273.AT2,SFERN\SADDWN.AT2,1.86E-01,4.95E+00,8.27E-01,1.91E-01,1.87E-01,1.95E-01,2.06E-01,2.30E-01,2.33E-01,2.52E-01,2.22E-01,2.27E-01,2.44E-01,2.43E-01,2.43E-01,2.40E-01,2.38E-01,2.48E-01,2.59E-01,2.79E-01,2.95E-01,2.98E-01,3.07E-01,3.07E-01,3.16E-01,3.26E-01,3.67E-01,3.83E-01,4.11E-01,4.39E-01,4.90E-01,5.93E-01,7.07E-01,7.00E-01,6.66E-01,5.62E-01,4.26E-01,4.46E-01,4.86E-01,5.54E-01,5.92E-01,3.79E-01,3.48E-01,2.84E-01,2.41E-01,2.18E-01,2.08E-01,2.00E-01,2.07E-01,1.95E-01,1.74E-01,1.58E-01,1.35E-01,1.31E-01,1.08E-01,8.04E-02,7.73E-02,8.22E-02,8.09E-02,7.46E-02,8.45E-02,7.86E-02,6.03E-02,5.93E-02,6.05E-02,5.98E-02,5.29E-02,4.47E-02,3.77E-02,3.39E-02,3.08E-02,2.93E-02,2.63E-02,2.46E-02,2.42E-02,2.36E-02,2.28E-02,1.80E-02,1.68E-02,1.51E-02,1.28E-02,1.09E-02,1.04E-02,1.08E-02,1.12E-02,1.15E-02,1.11E-02,1.16E-02,1.01E-02,9.00E-03,7.95E-03,5.89E-03,4.32E-03,3.26E-03,2.87E-03,2.62E-03,2.54E-03,2.36E-03,1.81E-03,1.41E-03,1.09E-03,9.02E-04,7.20E-04,5.80E-04,5.13E-04,4.77E-04,4.25E-04,4.00E-04,3.49E-04,3.00E-04,2.52E-04,2.06E-04,1.67E-04,9.38E-05
88,San Fernando,Santa Felita Dam (Outlet),6.61,24.69,389,SFERN\FSD172.AT2,SFERN\FSD262.AT2,SFERN\FSD-UP.AT2,1.55E-01,8.90E+00,6.84E+00,1.55E-01,1.59E-01,1.60E-01,1.61E-01,1.64E-01,1.65E-01,1.65E-01,1.66E-01,1.67E-01,1.78E-01,1.81E-01,1.85E-01,1.90E-01,1.93E-01,1.98E-01,2.09E-01,2.23E-01,2.22E-01,2.37E-01,2.42E-01,2.50E-01,2.72E-01,3.23E-01,3.67E-01,4.44E-01,5.60E-01,6.97E-01,8.27E-01,5.95E-01,4.85E-01,4.98E-01,5.10E-01,4.08E-01,3.05E-01,2.64E-01,2.52E-01,2.53E-01,2.47E-01,1.81E-01,1.54E-01,1.64E-01,1.69E-01,1.68E-01,1.64E-01,1.77E-01,1.60E-01,1.74E-01,2.00E-01,2.09E-01,1.85E-01,1.58E-01,1.49E-01,1.42E-01,1.47E-01,1.44E-01,1.35E-01,1.39E-01,1.30E-01,1.26E-01,1.20E-01,1.14E-01,1.09E-01,1.03E-01,9.49E-02,1.06E-01,1.31E-01,1.30E-01,1.21E-01,9.07E-02,7.81E-02,6.91E-02,5.84E-02,4.88E-02,4.30E-02,4.06E-02,3.56E-02,3.52E-02,3.36E-02,3.94E-02,4.19E-02,4.50E-02,4.26E-02,3.37E-02,3.06E-02,4.49E-02,4.59E-02,4.38E-02,4.06E-02,3.77E-02,3.55E-02,3.11E-02,2.99E-02,2.87E-02,2.76E-02,2.54E-02,2.07E-02,1.58E-02,1.35E-02,1.12E-02,1.05E-02,8.91E-03,7.66E-03,6.93E-03,5.80E-03,5.49E-03,4.13E-03,3.68E-03,3.67E-03,3.76E-03,3.58E-03,1.93E-03
89,San Fernando,Tehachapi Pump,6.61,61.75,669.48,SFERN\TEH090.AT2,SFERN\TEH180.AT2,SFERN\TEHDWN.AT2,3.93E-02,1.66E+00,3.83E-01,4.02E-02,4.35E-02,4.32E-02,4.55E-02,5.13E-02,5.03E-02,4.81E-02,5.25E-02,5.64E-02,6.33E-02,6.76E-02,6.75E-02,6.74E-02,6.92E-02,6.80E-02,6.24E-02,6.84E-02,7.66E-02,8.99E-02,9.83E-02,1.03E-01,1.04E-01,1.01E-01,1.09E-01,1.20E-01,1.24E-01,1.21E-01,1.14E-01,1.01E-01,9.52E-02,9.12E-02,9.15E-02,9.17E-02,1.10E-01,1.11E-01,1.14E-01,1.18E-01,1.01E-01,7.48E-02,5.67E-02,5.43E-02,5.54E-02,6.37E-02,7.24E-02,7.68E-02,7.49E-02,6.30E-02,5.83E-02,5.36E-02,4.55E-02,4.82E-02,4.69E-02,4.33E-02,3.87E-02,3.59E-02,3.76E-02,3.74E-02,3.26E-02,2.48E-02,1.83E-02,1.67E-02,1.33E-02,1.12E-02,9.25E-03,8.13E-03,7.76E-03,7.74E-03,7.41E-03,5.85E-03,5.12E-03,5.42E-03,6.09E-03,5.44E-03,4.74E-03,4.45E-03,4.82E-03,5.05E-03,5.16E-03,5.32E-03,4.45E-03,4.27E-03,4.13E-03,3.87E-03,3.75E-03,3.70E-03,3.29E-03,3.21E-03,3.11E-03,2.81E-03,2.38E-03,2.05E-03,1.84E-03,1.61E-03,1.38E-03,1.22E-03,9.87E-04,7.99E-04,6.38E-04,5.09E-04,4.19E-04,3.56E-04,3.05E-04,2.63E-04,2.29E-04,2.01E-04,1.57E-04,1.26E-04,1.03E-04,8.55E-05,7.28E-05,3.87E-05
90,San Fernando,UCSB - Fluid Mech Lab,6.61,124.38,322.42,SFERN\SBF042.AT2,SFERN\SBF132.AT2,SFERN\SBF-UP.AT2,1.83E-02,5.21E+00,1.00E+01,1.83E-02,1.84E-02,1.84E-02,1.87E-02,1.92E-02,1.91E-02,1.91E-02,1.93E-02,1.98E-02,1.98E-02,1.97E-02,1.93E-02,1.92E-02,1.91E-02,1.91E-02,1.92E-02,2.01E-02,1.96E-02,1.97E-02,1.96E-02,1.95E-02,1.99E-02,2.07E-02,2.11E-02,2.05E-02,2.05E-02,2.06E-02,2.13E-02,2.18E-02,2.27E-02,2.29E-02,2.31E-02,2.32E-02,2.53E-02,2.90E-02,3.06E-02,3.35E-02,3.49E-02,3.77E-02,3.96E-02,4.33E-02,4.52E-02,4.57E-02,4.63E-02,5.23E-02,5.14E-02,5.01E-02,4.54E-02,4.32E-02,4.69E-02,5.38E-02,4.94E-02,4.56E-02,4.39E-02,4.60E-02,4.64E-02,4.61E-02,4.06E-02,4.95E-02,5.09E-02,4.89E-02,4.50E-02,4.31E-02,4.08E-02,4.35E-02,4.68E-02,4.56E-02,4.11E-02,3.53E-02,3.03E-02,2.65E-02,2.75E-02,2.83E-02,3.89E-02,4.04E-02,3.21E-02,2.84E-02,2.71E-02,2.40E-02,2.33E-02,2.28E-02,2.08E-02,1.67E-02,1.44E-02,1.41E-02,1.35E-02,1.36E-02,1.34E-02,1.30E-02,1.34E-02,1.57E-02,1.60E-02,1.55E-02,1.43E-02,1.16E-02,1.16E-02,9.88E-03,8.10E-03,7.90E-03,7.85E-03,6.59E-03,5.43E-03,5.79E-03,6.22E-03,6.57E-03,5.33E-03,3.49E-03,2.77E-03,2.53E-03,2.29E-03,3.14E-03
91,San Fernando,Upland - San Antonio Dam,6.61,61.72,487.23,SFERN\SOD015.AT2,SFERN\SOD285.AT2,SFERN\SODDWN.AT2,6.47E-02,3.33E+00,4.64E-01,6.54E-02,6.51E-02,6.51E-02,6.62E-02,6.67E-02,6.69E-02,6.65E-02,6.82E-02,6.86E-02,6.70E-02,6.76E-02,6.78E-02,6.69E-02,6.67E-02,6.89E-02,7.10E-02,7.97E-02,8.40E-02,9.82E-02,9.85E-02,9.95E-02,1.03E-01,1.11E-01,1.18E-01,1.30E-01,1.40E-01,1.41E-01,1.96E-01,2.27E-01,1.79E-01,1.73E-01,1.61E-01,1.39E-01,1.41E-01,1.37E-01,1.47E-01,1.89E-01,2.26E-01,2.39E-01,2.50E-01,2.44E-01,2.14E-01,1.82E-01,1.98E-01,2.01E-01,2.02E-01,1.99E-01,2.10E-01,2.04E-01,1.89E-01,1.86E-01,1.75E-01,1.69E-01,1.65E-01,1.55E-01,1.29E-01,1.08E-01,6.78E-02,6.11E-02,6.06E-02,5.64E-02,5.18E-02,4.42E-02,3.93E-02,3.46E-02,3.99E-02,3.38E-02,2.85E-02,2.26E-02,2.12E-02,2.07E-02,2.09E-02,1.68E-02,1.29E-02,1.02E-02,8.86E-03,7.84E-03,7.91E-03,7.77E-03,6.40E-03,5.88E-03,5.27E-03,5.81E-03,5.33E-03,5.89E-03,5.41E-03,4.91E-03,4.40E-03,3.72E-03,2.94E-03,2.23E-03,1.68E-03,1.41E-03,1.30E-03,1.16E-03,9.94E-04,8.72E-04,7.32E-04,5.27E-04,4.23E-04,3.57E-04,2.91E-04,2.77E-04,2.55E-04,2.25E-04,1.71E-04,1.44E-04,1.18E-04,1.01E-04,8.36E-05,5.16E-05
92,San Fernando,Wheeler Ridge - Ground,6.61,68.38,347.67,SFERN\WRP090.AT2,SFERN\WRP180.AT2,SFERN\WRP-UP.AT2,2.80E-02,2.03E+00,2.22E+00,2.81E-02,2.85E-02,2.87E-02,2.88E-02,2.95E-02,2.99E-02,3.01E-02,3.07E-02,3.14E-02,3.37E-02,3.84E-02,4.07E-02,4.16E-02,4.24E-02,4.16E-02,3.93E-02,4.02E-02,5.64E-02,6.05E-02,6.61E-02,6.68E-02,6.85E-02,7.26E-02,8.98E-02,9.01E-02,9.04E-02,8.80E-02,7.24E-02,6.47E-02,6.79E-02,7.07E-02,7.68E-02,6.55E-02,7.43E-02,7.88E-02,7.25E-02,6.99E-02,6.78E-02,5.57E-02,5.59E-02,6.60E-02,7.45E-02,8.32E-02,8.36E-02,8.07E-02,6.80E-02,5.20E-02,4.49E-02,3.95E-02,3.43E-02,3.24E-02,3.07E-02,2.62E-02,2.34E-02,2.28E-02,2.09E-02,2.02E-02,2.51E-02,2.61E-02,2.28E-02,2.16E-02,1.93E-02,1.79E-02,1.83E-02,1.86E-02,1.79E-02,1.80E-02,1.69E-02,1.64E-02,1.40E-02,1.40E-02,1.51E-02,1.23E-02,1.28E-02,1.19E-02,1.01E-02,8.57E-03,8.08E-03,7.44E-03,9.04E-03,9.42E-03,9.10E-03,6.68E-03,6.18E-03,6.28E-03,5.68E-03,5.36E-03,4.94E-03,4.60E-03,5.15E-03,5.36E-03,5.43E-03,5.11E-03,4.64E-03,4.22E-03,3.62E-03,3.54E-03,3.26E-03,2.50E-03,2.45E-03,2.39E-03,2.19E-03,1.96E-03,1.88E-03,1.83E-03,1.76E-03,1.51E-03,1.30E-03,1.17E-03,9.00E-04,3.42E-04
93,San Fernando,Whittier Narrows Dam,6.61,39.45,298.68,SFERN\WND143.AT2,SFERN\WND233.AT2,SFERN\WNDDWN.AT2,1.12E-01,1.02E+01,6.87E+00,1.12E-01,1.13E-01,1.14E-01,1.14E-01,1.14E-01,1.14E-01,1.15E-01,1.18E-01,1.19E-01,1.22E-01,1.22E-01,1.22E-01,1.23E-01,1.24E-01,1.24E-01,1.25E-01,1.18E-01,1.28E-01,1.36E-01,1.34E-01,1.33E-01,1.40E-01,1.54E-01,1.78E-01,1.94E-01,2.31E-01,2.54E-01,2.40E-01,2.40E-01,2.89E-01,2.90E-01,3.03E-01,3.32E-01,3.56E-01,3.23E-01,3.35E-01,3.77E-01,3.50E-01,3.19E-01,3.30E-01,2.79E-01,2.72E-01,2.65E-01,2.43E-01,2.16E-01,2.04E-01,2.18E-01,2.13E-01,2.14E-01,2.11E-01,2.03E-01,1.76E-01,1.52E-01,1.44E-01,1.40E-01,1.45E-01,1.46E-01,1.14E-01,1.26E-01,1.42E-01,1.36E-01,1.18E-01,1.03E-01,8.92E-02,8.15E-02,7.05E-02,6.77E-02,6.02E-02,5.22E-02,5.82E-02,4.89E-02,4.94E-02,5.34E-02,4.70E-02,3.79E-02,4.00E-02,3.99E-02,3.83E-02,3.63E-02,3.70E-02,4.60E-02,4.84E-02,4.23E-02,3.18E-02,3.20E-02,3.30E-02,3.34E-02,3.47E-02,3.57E-02,3.58E-02,3.61E-02,3.39E-02,3.13E-02,2.92E-02,2.72E-02,2.22E-02,1.83E-02,1.56E-02,1.33E-02,1.11E-02,9.07E-03,7.26E-03,6.23E-03,5.63E-03,5.04E-03,3.92E-03,2.96E-03,2.49E-03,2.11E-03,1.79E-03,1.16E-03
94,San Fernando,Wrightwood - 6074 Park Dr,6.61,61.64,486,SFERN\WTW025.AT2,SFERN\WTW295.AT2,SFERN\WTWDWN.AT2,4.86E-02,4.56E+00,2.38E+00,4.87E-02,4.94E-02,4.95E-02,5.00E-02,4.95E-02,4.96E-02,4.98E-02,5.03E-02,5.05E-02,5.34E-02,5.33E-02,5.33E-02,5.36E-02,5.50E-02,5.74E-02,5.88E-02,5.96E-02,5.75E-02,6.40E-02,6.59E-02,6.85E-02,6.83E-02,7.55E-02,9.28E-02,1.01E-01,8.31E-02,9.73E-02,1.03E-01,9.79E-02,8.95E-02,9.18E-02,1.04E-01,1.01E-01,1.14E-01,1.38E-01,1.57E-01,1.41E-01,1.49E-01,1.23E-01,1.19E-01,1.30E-01,1.48E-01,1.61E-01,1.69E-01,1.60E-01,1.25E-01,1.15E-01,1.21E-01,1.23E-01,1.23E-01,1.26E-01,1.19E-01,1.06E-01,1.01E-01,9.31E-02,9.13E-02,9.36E-02,8.15E-02,6.69E-02,5.23E-02,4.55E-02,4.00E-02,3.70E-02,3.55E-02,3.55E-02,3.37E-02,3.57E-02,3.61E-02,3.17E-02,2.81E-02,2.15E-02,1.65E-02,1.59E-02,1.64E-02,1.51E-02,1.44E-02,1.16E-02,9.91E-03,1.13E-02,1.06E-02,9.59E-03,9.34E-03,7.32E-03,6.00E-03,6.01E-03,6.56E-03,6.36E-03,6.09E-03,5.59E-03,5.29E-03,5.43E-03,4.75E-03,4.27E-03,4.39E-03,4.21E-03,4.37E-03,5.94E-03,7.52E-03,7.81E-03,6.97E-03,6.07E-03,5.32E-03,4.50E-03,3.71E-03,3.09E-03,2.20E-03,1.56E-03,1.24E-03,9.87E-04,7.83E-04,3.19E-04
95,"Managua, Nicaragua-01","Managua, ESSO",6.24,3.51,288.77,MANAGUA\A-ESO090.AT2,MANAGUA\A-ESO180.AT2,MANAGUA\A-ESODWN.AT2,3.54E-01,2.84E+01,6.10E+00,3.54E-01,3.57E-01,3.62E-01,3.65E-01,3.76E-01,3.79E-01,3.74E-01,3.68E-01,3.66E-01,3.94E-01,3.95E-01,4.06E-01,4.18E-01,4.29E-01,4.32E-01,4.27E-01,4.40E-01,4.38E-01,4.90E-01,4.71E-01,4.91E-01,5.07E-01,5.35E-01,5.12E-01,5.38E-01,6.24E-01,6.23E-01,6.35E-01,7.09E-01,7.52E-01,7.86E-01,8.27E-01,8.99E-01,9.37E-01,9.05E-01,8.88E-01,9.56E-01,1.00E+00,1.05E+00,9.45E-01,1.10E+00,1.21E+00,1.11E+00,1.10E+00,1.18E+00,1.14E+00,1.25E+00,1.25E+00,1.23E+00,1.16E+00,1.07E+00,1.06E+00,9.67E-01,9.73E-01,9.55E-01,8.56E-01,9.00E-01,6.64E-01,6.27E-01,6.46E-01,6.15E-01,4.77E-01,3.94E-01,4.03E-01,4.42E-01,4.14E-01,3.66E-01,3.28E-01,2.63E-01,1.97E-01,1.77E-01,1.61E-01,1.68E-01,1.93E-01,1.88E-01,1.78E-01,1.66E-01,1.60E-01,1.30E-01,1.07E-01,1.02E-01,9.42E-02,8.17E-02,7.07E-02,5.43E-02,4.64E-02,4.51E-02,4.41E-02,4.04E-02,3.69E-02,3.42E-02,3.11E-02,2.82E-02,2.52E-02,2.24E-02,1.56E-02,1.26E-02,1.06E-02,8.74E-03,7.28E-03,6.07E-03,5.09E-03,4.31E-03,3.68E-03,3.21E-03,2.50E-03,1.99E-03,1.62E-03,1.35E-03,1.16E-03,6.25E-04
96,"Managua, Nicaragua-02","Managua, ESSO",5.2,4.33,288.77,MANAGUA\B-ESO090.AT2,MANAGUA\B-ESO180.AT2,MANAGUA\B-ESODWN.AT2,2.29E-01,2.20E+01,7.70E+00,2.29E-01,2.31E-01,2.32E-01,2.33E-01,2.34E-01,2.34E-01,2.34E-01,2.36E-01,2.36E-01,2.41E-01,2.40E-01,2.36E-01,2.39E-01,2.43E-01,2.50E-01,2.56E-01,2.60E-01,2.77E-01,2.86E-01,2.84E-01,2.75E-01,2.88E-01,3.13E-01,3.27E-01,3.52E-01,3.65E-01,3.58E-01,3.79E-01,4.39E-01,4.85E-01,5.15E-01,5.44E-01,4.72E-01,4.69E-01,4.44E-01,4.45E-01,5.70E-01,6.25E-01,5.25E-01,4.41E-01,4.43E-01,4.23E-01,4.26E-01,4.44E-01,4.65E-01,5.32E-01,6.00E-01,6.31E-01,6.61E-01,7.12E-01,7.29E-01,7.05E-01,6.53E-01,6.28E-01,6.03E-01,5.48E-01,4.90E-01,3.61E-01,2.74E-01,2.32E-01,2.33E-01,2.34E-01,2.32E-01,2.49E-01,2.55E-01,2.36E-01,2.29E-01,2.10E-01,1.64E-01,1.37E-01,1.39E-01,1.44E-01,1.56E-01,1.51E-01,1.42E-01,1.27E-01,1.16E-01,1.05E-01,9.17E-02,7.86E-02,7.17E-02,6.45E-02,5.04E-02,4.01E-02,3.59E-02,3.24E-02,3.08E-02,2.93E-02,2.66E-02,2.41E-02,2.18E-02,1.97E-02,1.78E-02,1.61E-02,1.49E-02,1.24E-02,1.01E-02,8.48E-03,7.50E-03,6.59E-03,5.73E-03,4.88E-03,4.10E-03,3.60E-03,3.16E-03,2.56E-03,2.13E-03,1.79E-03,1.53E-03,1.32E-03,7.54E-04
