RSN,Earthquake Name,Station,Magnitude,Distance,Vs30,Filename (H1),Filename (H2),Filename (V),PGA (g),PGV (cm/sec),PGD (cm),T0.010S,T0.020S,T0.022S,T0.025S,T0.029S,T0.030S,T0.032S,T0.035S,T0.036S,T0.040S,T0.042S,T0.044S,T0.045S,T0.046S,T0.048S,T0.050S,T0.055S,T0.060S,T0.065S,T0.067S,T0.070S,T0.075S,T0.080S,T0.085S,T0.090S,T0.095S,T0.100S,T0.110S,T0.120S,T0.130S,T0.133S,T0.140S,T0.150S,T0.160S,T0.170S,T0.180S,T0.190S,T0.200S,T0.220S,T0.240S,T0.250S,T0.260S,T0.280S,T0.290S,T0.300S,T0.320S,T0.340S,T0.350S,T0.360S,T0.380S,T0.400S,T0.420S,T0.440S,T0.450S,T0.460S,T0.480S,T0.500S,T0.550S,T0.600S,T0.650S,T0.667S,T0.700S,T0.750S,T0.800S,T0.850S,T0.900S,T0.950S,T1.000S,T1.100S,T1.200S,T1.300S,T1.400S,T1.500S,T1.600S,T1.700S,T1.800S,T1.900S,T2.000S,T2.200S,T2.400S,T2.500S,T2.600S,T2.800S,T3.000S,T3.200S,T3.400S,T3.500S,T3.600S,T3.800S,T4.000S,T4.200S,T4.400S,T4.600S,T4.800S,T5.000S,T5.500S,T6.000S,T6.500S,T7.000S,T7.500S,T8.000S,T8.500S,T9.000S,T9.500S,T10.000S,T11.000S,T12.000S,T13.000S,T14.000S,T15.000S,T20.000S
33,Parkfield,Temblor pre-1969,6.19,15.96,527.92,PARKF\TMB205.AT2,PARKF\TMB295.AT2,PARKF\TMBDWN.AT2,2.87E-01,1.65E+01,4.78E+00,2.91E-01,2.88E-01,2.88E-01,2.88E-01,2.89E-01,2.89E-01,2.88E-01,2.89E-01,2.89E-01,2.88E-01,2.89E-01,2.90E-01,2.91E-01,2.92E-01,2.95E-01,2.96E-01,3.03E-01,3.19E-01,3.19E-01,3.15E-01,3.18E-01,3.22E-01,3.44E-01,3.51E-01,3.62E-01,3.86E-01,3.68E-01,4.22E-01,4.24E-01,5.13E-01,5.42E-01,5.28E-01,4.89E-01,5.71E-01,5.40E-01,6.18E-01,6.22E-01,7.11E-01,8.40E-01,7.79E-01,8.06E-01,7.79E-01,6.97E-01,7.24E-01,7.53E-01,7.38E-01,8.11E-01,8.67E-01,9.14E-01,9.38E-01,8.91E-01,8.12E-01,7.14E-01,6.61E-01,6.07E-01,5.03E-01,4.13E-01,2.59E-01,2.17E-01,1.78E-01,1.64E-01,1.44E-01,1.36E-01,1.27E-01,1.24E-01,1.28E-01,1.36E-01,1.47E-01,1.60E-01,1.44E-01,1.31E-01,9.48E-02,7.01E-02,6.27E-02,5.74E-02,5.59E-02,5.20E-02,4.75E-02,4.31E-02,3.80E-02,3.58E-02,3.22E-02,2.91E-02,2.54E-02,2.16E-02,2.00E-02,1.93E-02,1.85E-02,1.70E-02,1.55E-02,1.45E-02,1.37E-02,1.25E-02,1.13E-02,1.03E-02,8.55E-03,7.97E-03,7.26E-03,6.36E-03,5.25E-03,4.37E-03,3.75E-03,3.31E-03,2.93E-03,2.63E-03,2.10E-03,1.72E-03,1.42E-03,1.18E-03,9.97E-04,4.92E-04
34,Northern Calif-05,Ferndale City Hall,5.6,27.36,219.31,NCALIF.AG\C-FRN224.AT2,NCALIF.AG\C-FRN314.AT2,NCALIF.AG\C-FRN-UP.AT2,1.84E-01,1.15E+01,1.77E+00,1.85E-01,1.90E-01,1.89E-01,1.89E-01,1.90E-01,1.94E-01,1.98E-01,2.11E-01,2.17E-01,2.30E-01,2.30E-01,2.37E-01,2.42E-01,2.48E-01,2.62E-01,2.75E-01,2.95E-01,2.97E-01,2.94E-01,2.93E-01,2.97E-01,3.13E-01,3.32E-01,3.38E-01,3.41E-01,3.30E-01,3.27E-01,3.63E-01,3.72E-01,4.10E-01,4.20E-01,4.37E-01,4.69E-01,4.91E-01,4.95E-01,4.80E-01,4.52E-01,4.14E-01,3.61E-01,3.26E-01,3.01E-01,2.76E-01,2.36E-01,2.33E-01,2.33E-01,2.37E-01,2.28E-01,2.31E-01,2.36E-01,2.31E-01,2.30E-01,2.29E-01,2.13E-01,2.05E-01,2.01E-01,2.03E-01,2.05E-01,1.98E-01,1.95E-01,1.98E-01,2.00E-01,1.99E-01,1.80E-01,1.56E-01,1.45E-01,1.35E-01,1.23E-01,1.13E-01,9.21E-02,7.02E-02,5.74E-02,4.62E-02,3.92E-02,3.39E-02,2.87E-02,2.46E-02,2.15E-02,1.99E-02,1.69E-02,1.38E-02,1.33E-02,1.26E-02,1.11E-02,9.69E-03,8.47E-03,7.42E-03,6.95E-03,6.51E-03,5.73E-03,5.11E-03,4.50E-03,3.99E-03,3.43E-03,3.07E-03,2.78E-03,2.29E-03,2.15E-03,2.21E-03,1.97E-03,1.71E-03,1.53E-03,1.36E-03,1.20E-03,1.08E-03,9.59E-04,7.59E-04,6.47E-04,5.64E-04,4.69E-04,4.13E-04,2.21E-04
35,Northern Calif-06,Hollister City Hall,5.2,37.11,198.77,NCALIF.AG\E-HCH181.AT2,NCALIF.AG\E-HCH271.AT2,NCALIF.AG\E-HCH-UP.AT2,1.53E-02,1.38E+00,2.62E-01,1.53E-02,1.53E-02,1.53E-02,1.53E-02,1.53E-02,1.53E-02,1.53E-02,1.54E-02,1.54E-02,1.56E-02,1.56E-02,1.55E-02,1.56E-02,1.56E-02,1.57E-02,1.58E-02,1.58E-02,1.54E-02,1.62E-02,1.65E-02,1.65E-02,1.73E-02,1.84E-02,1.92E-02,2.05E-02,1.99E-02,2.12E-02,2.16E-02,2.24E-02,2.46E-02,2.60E-02,2.45E-02,2.51E-02,2.84E-02,2.78E-02,2.68E-02,2.71E-02,2.87E-02,2.82E-02,3.39E-02,3.36E-02,2.97E-02,2.98E-02,3.29E-02,3.44E-02,3.17E-02,3.42E-02,3.82E-02,4.19E-02,4.69E-02,4.90E-02,4.89E-02,4.64E-02,4.74E-02,4.51E-02,4.12E-02,3.85E-02,4.72E-02,4.79E-02,4.53E-02,4.36E-02,4.16E-02,4.56E-02,3.49E-02,2.78E-02,2.48E-02,2.37E-02,2.41E-02,2.10E-02,1.64E-02,1.48E-02,1.40E-02,1.11E-02,8.61E-03,8.51E-03,7.94E-03,6.57E-03,5.70E-03,5.35E-03,4.61E-03,4.12E-03,4.00E-03,3.25E-03,2.85E-03,2.11E-03,2.01E-03,2.02E-03,1.97E-03,1.70E-03,1.41E-03,1.27E-03,1.10E-03,9.22E-04,7.86E-04,7.07E-04,4.89E-04,3.98E-04,2.99E-04,2.58E-04,2.27E-04,1.98E-04,1.69E-04,1.42E-04,1.18E-04,1.07E-04,8.81E-05,7.31E-05,6.70E-05,6.05E-05,5.38E-05,2.82E-05
36,Borrego Mtn,El Centro Array #9,6.63,45.12,213.44,BORREGO\A-ELC180.AT2,BORREGO\A-ELC270.AT2,BORREGO\A-ELC-UP.AT2,9.40E-02,1.90E+01,1.26E+01,9.50E-02,9.42E-02,9.43E-02,9.46E-02,9.49E-02,9.50E-02,9.52E-02,9.56E-02,9.58E-02,9.65E-02,9.70E-02,9.77E-02,9.80E-02,9.82E-02,9.87E-02,9.93E-02,1.01E-01,1.05E-01,1.07E-01,1.08E-01,1.10E-01,1.11E-01,1.13E-01,1.14E-01,1.15E-01,1.16E-01,1.13E-01,1.07E-01,1.07E-01,1.14E-01,1.20E-01,1.29E-01,1.50E-01,1.77E-01,1.68E-01,1.75E-01,1.69E-01,1.82E-01,1.88E-01,2.12E-01,2.15E-01,2.25E-01,2.00E-01,1.80E-01,1.68E-01,1.54E-01,1.78E-01,1.79E-01,1.74E-01,1.66E-01,1.64E-01,1.53E-01,1.43E-01,1.38E-01,1.33E-01,1.55E-01,1.54E-01,1.35E-01,1.42E-01,1.58E-01,1.63E-01,1.58E-01,1.28E-01,1.27E-01,1.22E-01,1.37E-01,1.34E-01,1.35E-01,1.59E-01,1.71E-01,1.73E-01,1.70E-01,1.64E-01,1.62E-01,1.50E-01,1.44E-01,1.37E-01,1.29E-01,1.20E-01,1.02E-01,9.04E-02,8.69E-02,8.63E-02,7.08E-02,6.64E-02,4.91E-02,4.65E-02,4.53E-02,3.87E-02,3.50E-02,3.63E-02,3.93E-02,4.02E-02,3.68E-02,3.54E-02,4.28E-02,3.13E-02,2.60E-02,2.16E-02,2.19E-02,2.31E-02,2.19E-02,1.95E-02,1.79E-02,1.55E-02,1.26E-02,1.03E-02,7.60E-03,6.29E-03,4.94E-03,2.02E-03
37,Borrego Mtn,LA - Hollywood Stor FF,6.63,222.42,316.46,BORREGO\A-PEL090.AT2,BORREGO\A-PEL180.AT2,BORREGO\A-PEL-UP.AT2,1.26E-02,2.88E+00,1.28E+00,1.26E-02,1.26E-02,1.26E-02,1.26E-02,1.27E-02,1.27E-02,1.27E-02,1.27E-02,1.27E-02,1.28E-02,1.28E-02,1.28E-02,1.28E-02,1.29E-02,1.29E-02,1.29E-02,1.30E-02,1.30E-02,1.32E-02,1.32E-02,1.34E-02,1.37E-02,1.37E-02,1.36E-02,1.31E-02,1.32E-02,1.33E-02,1.38E-02,1.46E-02,1.41E-02,1.44E-02,1.33E-02,1.44E-02,1.48E-02,1.54E-02,1.70E-02,1.82E-02,1.92E-02,2.00E-02,2.13E-02,2.12E-02,2.30E-02,2.13E-02,2.15E-02,2.24E-02,2.19E-02,2.22E-02,2.09E-02,2.01E-02,2.13E-02,1.93E-02,2.01E-02,2.16E-02,2.34E-02,2.44E-02,2.68E-02,2.71E-02,2.64E-02,3.41E-02,3.35E-02,3.17E-02,2.84E-02,2.89E-02,3.07E-02,2.47E-02,2.29E-02,2.13E-02,2.27E-02,2.36E-02,2.18E-02,2.15E-02,2.70E-02,2.53E-02,2.61E-02,2.29E-02,2.65E-02,2.98E-02,2.94E-02,1.87E-02,1.53E-02,1.45E-02,1.44E-02,1.35E-02,1.05E-02,9.40E-03,8.49E-03,9.60E-03,1.08E-02,1.23E-02,1.23E-02,9.86E-03,8.22E-03,7.22E-03,6.60E-03,5.82E-03,3.87E-03,2.94E-03,2.43E-03,2.14E-03,1.98E-03,1.44E-03,1.19E-03,1.12E-03,8.97E-04,7.93E-04,7.05E-04,5.65E-04,4.97E-04,4.40E-04,3.98E-04,2.00E-04
38,Borrego Mtn,LB - Terminal Island,6.63,199.84,217.92,BORREGO\A-TLI249.AT2,BORREGO\A-TLI339.AT2,BORREGO\A-TLI-UP.AT2,9.01E-03,2.50E+00,1.45E+00,9.02E-03,9.02E-03,9.03E-03,9.03E-03,9.05E-03,9.05E-03,9.06E-03,9.07E-03,9.09E-03,9.15E-03,9.18E-03,9.20E-03,9.20E-03,9.20E-03,9.24E-03,9.24E-03,9.28E-03,9.52E-03,9.58E-03,9.56E-03,9.48E-03,9.63E-03,9.88E-03,9.90E-03,1.00E-02,1.02E-02,1.05E-02,1.02E-02,1.03E-02,1.13E-02,1.13E-02,1.16E-02,1.12E-02,1.23E-02,1.33E-02,1.29E-02,1.38E-02,1.41E-02,1.69E-02,1.93E-02,1.92E-02,1.99E-02,2.15E-02,2.39E-02,2.77E-02,2.90E-02,2.55E-02,2.35E-02,2.49E-02,3.01E-02,3.02E-02,2.76E-02,2.62E-02,2.60E-02,2.54E-02,2.56E-02,2.65E-02,2.37E-02,2.15E-02,2.42E-02,2.56E-02,2.56E-02,2.37E-02,2.45E-02,2.32E-02,2.06E-02,2.02E-02,2.04E-02,1.57E-02,1.69E-02,2.05E-02,2.23E-02,2.00E-02,1.75E-02,1.52E-02,1.52E-02,1.59E-02,1.71E-02,1.66E-02,1.59E-02,1.64E-02,1.54E-02,1.04E-02,8.74E-03,8.45E-03,7.93E-03,7.74E-03,7.74E-03,8.52E-03,8.78E-03,7.24E-03,6.04E-03,6.35E-03,6.46E-03,6.28E-03,5.98E-03,6.16E-03,3.64E-03,2.89E-03,2.12E-03,2.07E-03,1.74E-03,1.85E-03,1.60E-03,1.31E-03,7.24E-04,6.60E-04,6.70E-04,5.39E-04,3.75E-04,1.63E-04
39,Borrego Mtn,Pasadena - CIT Athenaeum,6.63,207.14,415.13,BORREGO\A-PAS180.AT2,BORREGO\A-PAS270.AT2,BORREGO\A-PAS-UP.AT2,8.25E-03,1.96E+00,8.81E-01,8.25E-03,8.26E-03,8.26E-03,8.26E-03,8.26E-03,8.27E-03,8.29E-03,8.33E-03,8.35E-03,8.36E-03,8.40E-03,8.43E-03,8.49E-03,8.53E-03,8.58E-03,8.60E-03,8.53E-03,8.60E-03,8.62E-03,8.65E-03,8.82E-03,9.29E-03,9.39E-03,9.27E-03,9.56E-03,1.02E-02,1.02E-02,9.93E-03,1.03E-02,1.01E-02,1.03E-02,1.03E-02,1.08E-02,1.21E-02,1.24E-02,1.32E-02,1.31E-02,1.20E-02,1.27E-02,1.51E-02,1.58E-02,1.59E-02,1.32E-02,1.38E-02,1.34E-02,1.51E-02,1.49E-02,1.57E-02,1.66E-02,1.74E-02,1.89E-02,1.90E-02,1.80E-02,1.65E-02,1.59E-02,1.70E-02,1.97E-02,1.94E-02,2.05E-02,2.26E-02,2.37E-02,2.35E-02,2.31E-02,2.55E-02,2.39E-02,2.18E-02,2.12E-02,2.00E-02,2.00E-02,1.92E-02,1.69E-02,1.89E-02,1.82E-02,1.91E-02,1.96E-02,1.60E-02,1.47E-02,1.41E-02,1.29E-02,1.30E-02,1.32E-02,1.30E-02,1.23E-02,1.14E-02,1.02E-02,9.02E-03,8.76E-03,8.22E-03,7.17E-03,6.00E-03,4.99E-03,4.22E-03,3.17E-03,2.57E-03,2.46E-03,2.29E-03,1.74E-03,1.28E-03,1.24E-03,9.93E-04,8.59E-04,7.88E-04,7.44E-04,7.67E-04,6.39E-04,4.78E-04,3.68E-04,2.72E-04,2.05E-04,1.67E-04,1.20E-04
40,Borrego Mtn,San Onofre - So Cal Edison,6.63,129.11,442.88,BORREGO\A-SON033.AT2,BORREGO\A-SON303.AT2,BORREGO\A-SON-UP.AT2,4.20E-02,3.50E+00,1.75E+00,4.20E-02,4.23E-02,4.24E-02,4.25E-02,4.25E-02,4.27E-02,4.30E-02,4.30E-02,4.30E-02,4.41E-02,4.48E-02,4.56E-02,4.59E-02,4.61E-02,4.68E-02,4.74E-02,4.61E-02,4.75E-02,4.74E-02,4.68E-02,4.89E-02,5.02E-02,5.04E-02,4.96E-02,5.07E-02,5.23E-02,5.57E-02,6.30E-02,6.34E-02,6.39E-02,6.63E-02,6.61E-02,7.55E-02,8.23E-02,8.68E-02,9.13E-02,1.06E-01,1.16E-01,1.13E-01,1.01E-01,9.19E-02,9.99E-02,1.09E-01,1.16E-01,1.25E-01,1.31E-01,1.26E-01,1.14E-01,1.11E-01,1.07E-01,9.90E-02,8.75E-02,8.23E-02,7.95E-02,8.19E-02,7.24E-02,7.60E-02,7.39E-02,5.68E-02,5.40E-02,5.52E-02,5.16E-02,5.48E-02,5.91E-02,5.83E-02,4.83E-02,4.46E-02,4.67E-02,4.39E-02,3.74E-02,3.96E-02,3.21E-02,2.47E-02,2.12E-02,2.21E-02,2.09E-02,1.82E-02,1.75E-02,1.47E-02,1.65E-02,1.78E-02,1.72E-02,1.32E-02,1.32E-02,1.25E-02,1.24E-02,1.16E-02,1.13E-02,1.09E-02,1.15E-02,1.28E-02,1.25E-02,1.07E-02,9.05E-03,8.57E-03,7.09E-03,5.90E-03,4.75E-03,4.23E-03,3.26E-03,2.55E-03,2.25E-03,1.88E-03,1.48E-03,1.25E-03,9.65E-04,7.23E-04,5.97E-04,4.92E-04,4.14E-04,2.20E-04
41,Lytle Creek,Castaic - Old Ridge Route,5.33,103.23,450.28,LYTLECR\ORR021.AT2,LYTLECR\ORR291.AT2,LYTLECR\ORRDWN.AT2,2.01E-02,1.26E+00,1.87E-01,2.02E-02,2.06E-02,2.03E-02,2.06E-02,2.08E-02,2.09E-02,2.12E-02,2.17E-02,2.20E-02,2.29E-02,2.32E-02,2.35E-02,2.38E-02,2.39E-02,2.41E-02,2.41E-02,2.40E-02,2.49E-02,2.68E-02,2.70E-02,2.68E-02,2.76E-02,2.79E-02,3.03E-02,3.24E-02,3.33E-02,3.42E-02,4.09E-02,5.10E-02,6.05E-02,6.29E-02,6.70E-02,7.01E-02,7.02E-02,6.15E-02,5.44E-02,5.93E-02,5.92E-02,4.99E-02,4.39E-02,4.20E-02,4.67E-02,4.55E-02,4.55E-02,4.68E-02,5.27E-02,5.13E-02,4.76E-02,4.74E-02,4.77E-02,5.18E-02,5.38E-02,4.66E-02,4.65E-02,4.93E-02,5.53E-02,5.43E-02,3.03E-02,2.79E-02,2.98E-02,2.89E-02,2.51E-02,1.99E-02,1.46E-02,1.42E-02,1.33E-02,1.39E-02,1.44E-02,1.18E-02,9.57E-03,6.76E-03,5.09E-03,4.12E-03,3.54E-03,3.13E-03,2.62E-03,2.30E-03,1.96E-03,1.48E-03,1.34E-03,1.31E-03,1.27E-03,1.19E-03,9.25E-04,8.25E-04,6.89E-04,6.23E-04,5.56E-04,4.63E-04,3.97E-04,3.65E-04,3.39E-04,3.14E-04,3.13E-04,3.05E-04,2.66E-04,2.13E-04,1.74E-04,1.50E-04,1.30E-04,1.13E-04,9.93E-05,8.89E-05,8.01E-05,7.25E-05,6.02E-05,5.08E-05,4.34E-05,3.76E-05,3.28E-05,1.86E-05
42,Lytle Creek,Cedar Springs Pumphouse,5.33,21.33,477.22,LYTLECR\CSP126.AT2,LYTLECR\CSP216.AT2,LYTLECR\CSPDWN.AT2,6.79E-02,3.74E+00,3.77E-01,6.79E-02,6.89E-02,6.90E-02,6.89E-02,7.08E-02,7.06E-02,7.16E-02,7.14E-02,7.09E-02,7.25E-02,7.50E-02,7.83E-02,7.98E-02,8.21E-02,8.58E-02,8.38E-02,8.70E-02,9.40E-02,1.03E-01,1.19E-01,1.27E-01,1.40E-01,1.36E-01,1.32E-01,1.53E-01,1.55E-01,1.47E-01,1.56E-01,1.80E-01,1.86E-01,1.83E-01,1.81E-01,1.92E-01,2.03E-01,2.03E-01,1.89E-01,1.79E-01,1.73E-01,1.74E-01,1.55E-01,1.39E-01,1.38E-01,1.48E-01,1.53E-01,1.57E-01,1.58E-01,1.53E-01,1.49E-01,1.44E-01,1.32E-01,1.21E-01,1.08E-01,9.71E-02,9.21E-02,8.73E-02,7.91E-02,7.21E-02,6.83E-02,6.15E-02,5.56E-02,5.38E-02,4.90E-02,4.37E-02,3.83E-02,3.24E-02,2.85E-02,2.54E-02,2.23E-02,1.77E-02,1.51E-02,1.36E-02,1.25E-02,1.11E-02,9.62E-03,8.35E-03,7.22E-03,6.65E-03,5.89E-03,4.95E-03,4.16E-03,3.73E-03,3.32E-03,2.64E-03,2.23E-03,1.89E-03,1.62E-03,1.51E-03,1.41E-03,1.25E-03,1.11E-03,9.87E-04,8.84E-04,7.95E-04,7.18E-04,6.52E-04,5.30E-04,4.42E-04,3.74E-04,3.21E-04,2.79E-04,2.44E-04,2.16E-04,1.92E-04,1.72E-04,1.55E-04,1.27E-04,1.07E-04,9.09E-05,7.82E-05,6.81E-05,3.81E-05
43,Lytle Creek,"Cedar Springs, Allen Ranch",5.33,17.4,813.48,LYTLECR\CSM095.AT2,LYTLECR\CSM185.AT2,LYTLECR\CSMXXX.AT2,4.29E-02,1.01E+00,1.64E-01,4.31E-02,4.51E-02,4.50E-02,4.60E-02,4.55E-02,4.49E-02,4.78E-02,5.16E-02,5.22E-02,5.57E-02,5.89E-02,6.42E-02,6.76E-02,6.95E-02,7.17E-02,7.89E-02,7.87E-02,8.97E-02,1.07E-01,1.12E-01,1.14E-01,1.33E-01,1.33E-01,1.33E-01,1.24E-01,1.23E-01,1.02E-01,1.17E-01,1.30E-01,1.24E-01,1.27E-01,1.31E-01,9.18E-02,7.06E-02,6.97E-02,6.88E-02,6.33E-02,5.83E-02,5.56E-02,4.38E-02,4.30E-02,4.28E-02,3.65E-02,3.24E-02,2.90E-02,3.02E-02,2.50E-02,2.37E-02,2.32E-02,2.44E-02,2.54E-02,2.23E-02,1.98E-02,1.72E-02,1.57E-02,1.64E-02,1.63E-02,1.30E-02,1.29E-02,1.22E-02,1.20E-02,1.19E-02,1.29E-02,1.20E-02,1.04E-02,9.38E-03,8.53E-03,8.01E-03,7.28E-03,6.17E-03,5.39E-03,4.65E-03,4.07E-03,3.43E-03,3.02E-03,2.69E-03,2.34E-03,2.23E-03,1.90E-03,1.70E-03,1.55E-03,1.39E-03,1.19E-03,1.01E-03,8.39E-04,7.73E-04,8.30E-04,8.03E-04,6.10E-04,4.91E-04,4.54E-04,4.42E-04,4.04E-04,3.59E-04,3.08E-04,2.55E-04,2.14E-04,1.73E-04,1.43E-04,1.20E-04,1.01E-04,8.79E-05,7.69E-05,6.78E-05,6.15E-05,5.13E-05,4.34E-05,3.72E-05,3.23E-05,2.82E-05,1.61E-05
44,Lytle Creek,Colton - So Cal Edison,5.33,29.18,301.95,LYTLECR\CLN090.AT2,LYTLECR\CLN180.AT2,LYTLECR\CLN-UP.AT2,2.78E-02,1.32E+00,1.44E-01,2.78E-02,2.80E-02,2.80E-02,2.84E-02,2.86E-02,2.88E-02,2.94E-02,2.83E-02,2.83E-02,2.95E-02,2.80E-02,2.89E-02,2.94E-02,2.98E-02,3.04E-02,3.07E-02,3.21E-02,3.20E-02,3.51E-02,3.61E-02,4.01E-02,3.92E-02,3.46E-02,3.83E-02,4.38E-02,5.06E-02,5.18E-02,5.74E-02,5.52E-02,7.03E-02,6.92E-02,6.59E-02,7.58E-02,7.54E-02,7.29E-02,8.42E-02,8.88E-02,8.72E-02,1.13E-01,1.28E-01,1.22E-01,1.09E-01,8.80E-02,8.68E-02,8.36E-02,6.85E-02,5.72E-02,5.71E-02,6.22E-02,7.04E-02,5.85E-02,4.50E-02,4.00E-02,3.75E-02,3.88E-02,3.38E-02,3.11E-02,2.94E-02,2.62E-02,2.18E-02,2.03E-02,2.00E-02,1.90E-02,1.94E-02,2.19E-02,1.87E-02,1.57E-02,1.36E-02,1.07E-02,8.65E-03,7.57E-03,6.96E-03,5.99E-03,4.84E-03,4.39E-03,4.53E-03,4.14E-03,3.98E-03,3.13E-03,2.33E-03,2.03E-03,1.76E-03,1.31E-03,1.08E-03,8.64E-04,7.25E-04,6.75E-04,6.21E-04,4.77E-04,4.58E-04,4.30E-04,3.91E-04,3.38E-04,3.00E-04,2.66E-04,2.11E-04,1.74E-04,1.42E-04,1.23E-04,1.07E-04,9.55E-05,8.68E-05,7.89E-05,7.18E-05,6.53E-05,5.44E-05,4.56E-05,3.86E-05,3.29E-05,2.83E-05,1.51E-05
45,Lytle Creek,Devil's Canyon,5.33,18.39,667.13,LYTLECR\DCF090.AT2,LYTLECR\DCF180.AT2,LYTLECR\DCFDWN.AT2,1.67E-01,5.08E+00,7.58E-01,1.68E-01,1.76E-01,1.73E-01,1.71E-01,1.77E-01,1.74E-01,1.81E-01,1.95E-01,1.99E-01,1.97E-01,1.96E-01,2.30E-01,2.47E-01,2.58E-01,2.81E-01,3.04E-01,3.36E-01,2.67E-01,2.69E-01,2.64E-01,2.57E-01,2.39E-01,2.54E-01,2.90E-01,3.50E-01,3.80E-01,3.83E-01,4.82E-01,4.74E-01,4.94E-01,5.36E-01,6.03E-01,6.41E-01,6.52E-01,6.04E-01,5.16E-01,4.41E-01,4.02E-01,3.87E-01,3.79E-01,3.45E-01,3.18E-01,2.65E-01,2.42E-01,2.21E-01,1.81E-01,1.45E-01,1.28E-01,1.15E-01,9.66E-02,9.26E-02,8.29E-02,7.70E-02,7.45E-02,7.21E-02,6.61E-02,6.25E-02,5.74E-02,5.74E-02,4.93E-02,4.56E-02,4.07E-02,3.29E-02,2.97E-02,2.71E-02,2.42E-02,2.22E-02,2.08E-02,1.76E-02,1.50E-02,1.39E-02,1.36E-02,1.29E-02,1.19E-02,1.06E-02,9.78E-03,9.04E-03,8.29E-03,6.75E-03,5.70E-03,5.18E-03,4.68E-03,3.98E-03,3.44E-03,2.97E-03,2.55E-03,2.38E-03,2.23E-03,2.00E-03,1.80E-03,1.63E-03,1.47E-03,1.33E-03,1.21E-03,1.10E-03,1.02E-03,8.76E-04,7.12E-04,6.09E-04,5.16E-04,4.54E-04,4.04E-04,3.62E-04,3.26E-04,2.95E-04,2.45E-04,2.06E-04,1.76E-04,1.53E-04,1.33E-04,7.54E-05
46,Lytle Creek,LA - Hollywood Stor FF,5.33,73.46,316.46,LYTLECR\PEL090.AT2,LYTLECR\PEL180.AT2,LYTLECR\PEL-UP.AT2,1.84E-02,7.79E-01,1.18E-01,1.85E-02,1.88E-02,1.89E-02,1.92E-02,1.90E-02,1.89E-02,1.94E-02,1.95E-02,1.95E-02,2.01E-02,2.06E-02,2.01E-02,1.97E-02,1.99E-02,2.16E-02,2.24E-02,2.36E-02,2.38E-02,2.88E-02,2.90E-02,3.17E-02,3.85E-02,4.44E-02,4.01E-02,4.64E-02,4.70E-02,4.68E-02,3.95E-02,3.90E-02,4.28E-02,4.34E-02,4.80E-02,5.49E-02,5.30E-02,5.04E-02,4.40E-02,4.73E-02,4.83E-02,4.46E-02,5.23E-02,5.74E-02,5.94E-02,5.76E-02,5.40E-02,4.93E-02,4.79E-02,4.13E-02,3.49E-02,3.04E-02,3.16E-02,3.34E-02,2.86E-02,2.30E-02,2.17E-02,2.00E-02,1.76E-02,1.57E-02,1.22E-02,1.16E-02,1.07E-02,1.06E-02,1.16E-02,1.20E-02,1.04E-02,9.04E-03,8.13E-03,7.00E-03,6.78E-03,6.13E-03,4.96E-03,5.29E-03,5.44E-03,4.09E-03,3.77E-03,3.30E-03,3.13E-03,2.94E-03,2.69E-03,2.07E-03,1.90E-03,1.72E-03,1.63E-03,1.48E-03,1.09E-03,8.73E-04,7.13E-04,6.32E-04,5.62E-04,4.76E-04,4.20E-04,3.75E-04,3.37E-04,3.02E-04,2.75E-04,2.52E-04,2.03E-04,1.72E-04,1.42E-04,1.17E-04,9.95E-05,8.50E-05,7.28E-05,6.46E-05,5.84E-05,5.29E-05,4.33E-05,3.55E-05,3.00E-05,2.57E-05,2.22E-05,1.22E-05
47,Lytle Creek,Lake Hughes #1,5.33,90.25,425.34,LYTLECR\L01021.AT2,LYTLECR\L01291.AT2,LYTLECR\L01DWN.AT2,9.26E-03,6.47E-01,8.73E-02,9.27E-03,9.31E-03,9.33E-03,9.40E-03,9.55E-03,9.66E-03,9.79E-03,9.74E-03,9.75E-03,1.01E-02,1.02E-02,1.03E-02,1.04E-02,1.03E-02,1.02E-02,1.01E-02,1.02E-02,1.06E-02,1.07E-02,1.06E-02,1.08E-02,1.20E-02,1.20E-02,1.12E-02,1.16E-02,1.12E-02,1.21E-02,1.42E-02,1.56E-02,1.66E-02,1.72E-02,1.73E-02,1.53E-02,1.70E-02,1.64E-02,1.62E-02,1.80E-02,2.12E-02,3.12E-02,3.15E-02,3.05E-02,2.86E-02,2.85E-02,2.63E-02,2.55E-02,2.63E-02,2.50E-02,2.28E-02,2.14E-02,2.36E-02,2.49E-02,2.49E-02,2.66E-02,2.56E-02,2.42E-02,2.37E-02,2.51E-02,2.35E-02,1.95E-02,1.96E-02,1.87E-02,1.65E-02,1.33E-02,1.06E-02,8.94E-03,6.82E-03,5.72E-03,5.02E-03,4.06E-03,3.90E-03,3.78E-03,3.52E-03,3.16E-03,2.71E-03,2.25E-03,2.24E-03,2.24E-03,2.03E-03,1.75E-03,1.40E-03,1.21E-03,1.01E-03,7.76E-04,6.66E-04,5.76E-04,5.01E-04,4.67E-04,4.37E-04,3.91E-04,3.58E-04,3.28E-04,2.99E-04,2.72E-04,2.46E-04,2.22E-04,1.71E-04,1.31E-04,1.02E-04,8.44E-05,7.17E-05,6.16E-05,5.45E-05,4.85E-05,4.33E-05,3.89E-05,3.17E-05,2.64E-05,2.24E-05,1.93E-05,1.68E-05,9.26E-06
48,Lytle Creek,Puddingstone Dam (Abutment),5.33,29.49,421.44,LYTLECR\PUD055.AT2,LYTLECR\PUD325.AT2,LYTLECR\PUDDWN.AT2,1.83E-02,8.63E-01,1.58E-01,1.84E-02,1.87E-02,1.88E-02,1.94E-02,1.98E-02,1.97E-02,1.95E-02,2.06E-02,2.11E-02,2.02E-02,1.97E-02,2.00E-02,2.07E-02,2.09E-02,2.10E-02,2.03E-02,2.31E-02,2.60E-02,2.77E-02,2.81E-02,2.97E-02,2.96E-02,3.17E-02,3.48E-02,3.91E-02,4.40E-02,4.80E-02,5.11E-02,6.30E-02,7.25E-02,6.80E-02,5.70E-02,4.79E-02,4.34E-02,4.28E-02,3.90E-02,3.72E-02,3.86E-02,3.11E-02,3.45E-02,3.53E-02,3.20E-02,3.19E-02,3.31E-02,3.35E-02,3.63E-02,3.59E-02,3.44E-02,3.25E-02,2.76E-02,2.65E-02,2.44E-02,2.36E-02,2.37E-02,2.32E-02,2.13E-02,2.34E-02,2.42E-02,2.35E-02,2.43E-02,2.34E-02,2.23E-02,2.11E-02,1.81E-02,1.60E-02,1.44E-02,1.33E-02,1.14E-02,1.14E-02,9.46E-03,8.02E-03,6.40E-03,5.80E-03,5.58E-03,4.60E-03,4.21E-03,3.83E-03,3.48E-03,2.74E-03,2.40E-03,2.42E-03,2.34E-03,1.96E-03,1.50E-03,1.23E-03,9.78E-04,8.98E-04,8.20E-04,6.80E-04,5.83E-04,5.25E-04,4.66E-04,4.41E-04,3.99E-04,3.68E-04,3.27E-04,2.61E-04,1.98E-04,1.68E-04,1.43E-04,1.23E-04,1.07E-04,9.43E-05,8.34E-05,7.42E-05,6.00E-05,4.94E-05,4.15E-05,3.53E-05,3.04E-05,1.65E-05
