RSN,Earthquake Name,Station,Magnitude,Distance,Vs30,Filename (H1),Filename (H2),Filename (V),PGA (g),PGV (cm/sec),PGD (cm),T0.010S,T0.020S,T0.022S,T0.025S,T0.029S,T0.030S,T0.032S,T0.035S,T0.036S,T0.040S,T0.042S,T0.044S,T0.045S,T0.046S,T0.048S,T0.050S,T0.055S,T0.060S,T0.065S,T0.067S,T0.070S,T0.075S,T0.080S,T0.085S,T0.090S,T0.095S,T0.100S,T0.110S,T0.120S,T0.130S,T0.133S,T0.140S,T0.150S,T0.160S,T0.170S,T0.180S,T0.190S,T0.200S,T0.220S,T0.240S,T0.250S,T0.260S,T0.280S,T0.290S,T0.300S,T0.320S,T0.340S,T0.350S,T0.360S,T0.380S,T0.400S,T0.420S,T0.440S,T0.450S,T0.460S,T0.480S,T0.500S,T0.550S,T0.600S,T0.650S,T0.667S,T0.700S,T0.750S,T0.800S,T0.850S,T0.900S,T0.950S,T1.000S,T1.100S,T1.200S,T1.300S,T1.400S,T1.500S,T1.600S,T1.700S,T1.800S,T1.900S,T2.000S,T2.200S,T2.400S,T2.500S,T2.600S,T2.800S,T3.000S,T3.200S,T3.400S,T3.500S,T3.600S,T3.800S,T4.000S,T4.200S,T4.400S,T4.600S,T4.800S,T5.000S,T5.500S,T6.000S,T6.500S,T7.000S,T7.500S,T8.000S,T8.500S,T9.000S,T9.500S,T10.000S,T11.000S,T12.000S,T13.000S,T14.000S,T15.000S,T20.000S
97,Point Mugu,Port Hueneme,5.65,15.48,248.98,PTMUGU\PHN180.AT2,PTMUGU\PHN270.AT2,PTMUGU\PHN-UP.AT2,9.56E-02,1.03E+01,2.94E+00,9.57E-02,9.62E-02,9.61E-02,9.63E-02,9.74E-02,9.69E-02,9.64E-02,1.00E-01,1.01E-01,1.02E-01,1.02E-01,1.01E-01,1.03E-01,1.04E-01,1.04E-01,1.05E-01,1.07E-01,1.23E-01,1.29E-01,1.31E-01,1.33E-01,1.37E-01,1.27E-01,1.25E-01,1.34E-01,1.44E-01,1.52E-01,1.96E-01,1.92E-01,1.72E-01,1.74E-01,1.73E-01,1.77E-01,1.84E-01,1.82E-01,1.78E-01,1.74E-01,1.79E-01,1.66E-01,1.57E-01,1.51E-01,1.53E-01,1.49E-01,1.52E-01,1.61E-01,1.68E-01,1.83E-01,1.93E-01,2.02E-01,2.18E-01,2.27E-01,2.29E-01,2.26E-01,2.23E-01,2.19E-01,2.15E-01,2.11E-01,2.09E-01,1.79E-01,1.71E-01,1.70E-01,1.66E-01,1.59E-01,1.58E-01,1.55E-01,1.57E-01,1.63E-01,1.62E-01,1.49E-01,1.20E-01,1.01E-01,8.50E-02,6.92E-02,5.87E-02,5.10E-02,4.46E-02,4.00E-02,3.58E-02,2.87E-02,2.30E-02,2.16E-02,2.23E-02,2.06E-02,1.65E-02,1.48E-02,1.25E-02,1.13E-02,1.01E-02,8.83E-03,8.02E-03,7.13E-03,6.34E-03,5.63E-03,5.01E-03,4.44E-03,3.68E-03,3.12E-03,2.67E-03,2.31E-03,2.02E-03,1.79E-03,1.59E-03,1.42E-03,1.28E-03,1.15E-03,9.57E-04,8.06E-04,6.88E-04,5.94E-04,5.19E-04,2.93E-04
98,Hollister-03,Gilroy Array #1,5.14,9.99,1428.14,HOLLISTR\A-G01157.AT2,HOLLISTR\A-G01247.AT2,HOLLISTR\A-G01XXX.AT2,1.05E-01,2.96E+00,1.67E-01,1.06E-01,1.12E-01,1.16E-01,1.26E-01,1.36E-01,1.40E-01,1.35E-01,1.48E-01,1.53E-01,1.59E-01,1.65E-01,1.81E-01,1.86E-01,1.84E-01,1.68E-01,1.57E-01,2.09E-01,2.45E-01,2.50E-01,2.60E-01,2.57E-01,2.56E-01,3.15E-01,3.58E-01,3.83E-01,4.09E-01,3.94E-01,3.51E-01,3.04E-01,2.54E-01,2.45E-01,2.23E-01,2.51E-01,2.33E-01,2.05E-01,2.03E-01,1.78E-01,1.78E-01,1.50E-01,1.42E-01,1.29E-01,1.13E-01,1.02E-01,1.03E-01,1.04E-01,1.18E-01,1.27E-01,1.30E-01,1.32E-01,1.30E-01,1.23E-01,1.11E-01,9.75E-02,9.19E-02,8.73E-02,7.88E-02,7.31E-02,5.54E-02,3.92E-02,2.72E-02,2.42E-02,1.99E-02,1.66E-02,1.44E-02,1.25E-02,1.10E-02,9.49E-03,8.03E-03,6.16E-03,5.37E-03,4.85E-03,4.27E-03,3.68E-03,3.14E-03,2.67E-03,2.29E-03,1.99E-03,1.75E-03,1.41E-03,1.19E-03,1.10E-03,1.02E-03,9.01E-04,8.00E-04,7.16E-04,6.44E-04,6.11E-04,5.81E-04,5.25E-04,4.77E-04,4.34E-04,3.96E-04,3.63E-04,3.33E-04,3.07E-04,2.52E-04,2.10E-04,1.78E-04,1.52E-04,1.32E-04,1.15E-04,1.01E-04,8.96E-05,8.00E-05,7.18E-05,5.89E-05,4.91E-05,4.16E-05,3.57E-05,3.10E-05,1.72E-05
99,Hollister-03,Hollister City Hall,5.14,8.85,198.77,HOLLISTR\A-HCH181.AT2,HOLLISTR\A-HCH271.AT2,HOLLISTR\A-HCH-UP.AT2,1.41E-01,8.21E+00,1.13E+00,1.41E-01,1.42E-01,1.42E-01,1.43E-01,1.43E-01,1.43E-01,1.44E-01,1.45E-01,1.45E-01,1.46E-01,1.46E-01,1.45E-01,1.45E-01,1.44E-01,1.45E-01,1.45E-01,1.47E-01,1.50E-01,1.57E-01,1.59E-01,1.60E-01,1.68E-01,1.83E-01,2.04E-01,2.19E-01,2.21E-01,2.45E-01,2.56E-01,2.47E-01,2.92E-01,2.99E-01,3.22E-01,3.47E-01,3.64E-01,3.96E-01,4.04E-01,3.87E-01,3.67E-01,3.41E-01,3.15E-01,3.24E-01,3.44E-01,3.84E-01,3.85E-01,3.95E-01,4.35E-01,4.25E-01,3.89E-01,3.70E-01,3.72E-01,3.76E-01,3.68E-01,3.50E-01,3.39E-01,3.31E-01,3.10E-01,2.84E-01,2.23E-01,2.00E-01,1.55E-01,1.43E-01,1.19E-01,8.23E-02,7.41E-02,6.76E-02,6.14E-02,5.57E-02,5.04E-02,4.28E-02,3.87E-02,3.80E-02,3.78E-02,3.49E-02,3.15E-02,2.77E-02,2.57E-02,2.30E-02,1.99E-02,1.62E-02,1.30E-02,1.16E-02,1.04E-02,8.56E-03,7.48E-03,6.53E-03,5.71E-03,5.34E-03,5.00E-03,4.40E-03,3.89E-03,3.45E-03,3.08E-03,2.76E-03,2.48E-03,2.24E-03,1.76E-03,1.41E-03,1.16E-03,9.65E-04,8.15E-04,7.02E-04,6.15E-04,5.43E-04,4.87E-04,4.41E-04,3.66E-04,3.08E-04,2.63E-04,2.28E-04,1.99E-04,1.12E-04
100,Hollister-03,"San Juan Bautista, 24 Polk St",5.14,8.56,335.5,HOLLISTR\A-SJB033.AT2,HOLLISTR\A-SJB123.AT2,HOLLISTR\A-SJBDWN.AT2,8.22E-02,5.63E+00,5.49E-01,8.23E-02,8.27E-02,8.28E-02,8.28E-02,8.33E-02,8.36E-02,8.41E-02,8.48E-02,8.53E-02,8.41E-02,8.29E-02,8.33E-02,8.39E-02,8.47E-02,8.57E-02,8.70E-02,9.50E-02,9.42E-02,9.52E-02,9.73E-02,1.04E-01,1.13E-01,1.26E-01,1.34E-01,1.79E-01,2.14E-01,2.26E-01,1.92E-01,1.69E-01,1.40E-01,1.48E-01,1.55E-01,1.58E-01,1.59E-01,1.82E-01,2.03E-01,2.29E-01,2.65E-01,2.59E-01,2.24E-01,2.23E-01,2.31E-01,2.55E-01,2.42E-01,2.19E-01,2.01E-01,1.86E-01,1.80E-01,1.77E-01,1.82E-01,1.71E-01,1.63E-01,1.51E-01,1.45E-01,1.38E-01,1.27E-01,1.18E-01,1.18E-01,1.16E-01,1.18E-01,1.17E-01,1.12E-01,1.03E-01,9.20E-02,7.81E-02,6.66E-02,5.28E-02,4.14E-02,3.18E-02,2.59E-02,2.36E-02,2.10E-02,1.98E-02,2.01E-02,1.70E-02,1.48E-02,1.33E-02,1.21E-02,1.07E-02,9.93E-03,9.11E-03,8.10E-03,5.68E-03,3.97E-03,3.45E-03,2.92E-03,2.67E-03,2.44E-03,2.08E-03,1.81E-03,1.56E-03,1.37E-03,1.23E-03,1.11E-03,1.01E-03,8.16E-04,6.81E-04,5.78E-04,4.98E-04,4.33E-04,3.80E-04,3.36E-04,3.00E-04,2.68E-04,2.42E-04,1.98E-04,1.65E-04,1.39E-04,1.19E-04,1.03E-04,5.71E-05
101,Northern Calif-07,Cape Mendocino,5.2,28.73,567.78,NCALIF.AG\D-CPM030.AT2,NCALIF.AG\D-CPM120.AT2,NCALIF.AG\D-CPMDWN.AT2,1.59E-01,4.54E+00,2.69E-01,1.60E-01,1.63E-01,1.62E-01,1.65E-01,1.66E-01,1.68E-01,1.71E-01,1.72E-01,1.71E-01,1.79E-01,1.79E-01,1.81E-01,1.85E-01,1.87E-01,1.91E-01,1.91E-01,2.07E-01,2.15E-01,2.34E-01,2.43E-01,2.40E-01,2.45E-01,2.45E-01,2.73E-01,3.03E-01,3.17E-01,3.39E-01,3.62E-01,4.32E-01,5.10E-01,5.38E-01,5.47E-01,5.33E-01,6.84E-01,5.48E-01,4.71E-01,4.44E-01,3.86E-01,2.38E-01,2.71E-01,2.45E-01,2.02E-01,1.22E-01,1.22E-01,1.34E-01,1.50E-01,1.14E-01,9.26E-02,8.09E-02,7.11E-02,6.96E-02,6.75E-02,6.27E-02,6.13E-02,6.26E-02,5.82E-02,5.28E-02,4.15E-02,4.00E-02,3.51E-02,3.47E-02,3.54E-02,3.26E-02,2.73E-02,2.13E-02,1.99E-02,1.89E-02,1.73E-02,1.27E-02,1.11E-02,9.14E-03,7.27E-03,6.13E-03,5.34E-03,4.64E-03,4.02E-03,3.53E-03,3.14E-03,2.53E-03,2.05E-03,1.86E-03,1.69E-03,1.43E-03,1.25E-03,1.10E-03,9.80E-04,9.26E-04,8.75E-04,7.82E-04,7.00E-04,6.28E-04,5.65E-04,5.11E-04,4.64E-04,4.24E-04,3.45E-04,2.89E-04,2.46E-04,2.14E-04,1.87E-04,1.66E-04,1.48E-04,1.33E-04,1.20E-04,1.08E-04,9.02E-05,7.61E-05,6.50E-05,5.61E-05,4.89E-05,2.74E-05
102,Northern Calif-07,Ferndale City Hall,5.2,8.2,219.31,NCALIF.AG\D-FRN224.AT2,NCALIF.AG\D-FRN314.AT2,NCALIF.AG\D-FRN-UP.AT2,9.00E-02,5.40E+00,6.80E-01,9.01E-02,9.03E-02,9.05E-02,9.21E-02,9.31E-02,9.36E-02,9.46E-02,9.48E-02,9.48E-02,9.48E-02,9.42E-02,9.36E-02,9.35E-02,9.32E-02,9.09E-02,9.24E-02,1.03E-01,1.13E-01,1.18E-01,1.23E-01,1.31E-01,1.54E-01,1.78E-01,1.68E-01,1.82E-01,1.70E-01,1.55E-01,1.82E-01,1.77E-01,2.33E-01,2.33E-01,2.14E-01,1.93E-01,1.99E-01,2.04E-01,2.32E-01,2.52E-01,2.86E-01,2.45E-01,2.01E-01,2.06E-01,2.23E-01,2.11E-01,2.08E-01,2.05E-01,2.26E-01,2.11E-01,2.08E-01,2.02E-01,1.85E-01,1.76E-01,1.77E-01,1.85E-01,1.89E-01,1.94E-01,1.99E-01,2.05E-01,2.01E-01,1.66E-01,1.42E-01,1.32E-01,1.18E-01,1.15E-01,9.97E-02,1.03E-01,9.70E-02,9.36E-02,8.06E-02,6.57E-02,4.40E-02,4.04E-02,3.45E-02,2.94E-02,2.42E-02,2.44E-02,1.84E-02,1.62E-02,1.57E-02,1.11E-02,7.85E-03,6.72E-03,6.26E-03,5.52E-03,4.83E-03,4.27E-03,3.70E-03,3.43E-03,3.19E-03,2.73E-03,2.42E-03,2.10E-03,1.77E-03,1.59E-03,1.42E-03,1.30E-03,1.09E-03,9.01E-04,7.47E-04,6.25E-04,5.36E-04,4.63E-04,4.02E-04,3.57E-04,3.19E-04,2.86E-04,2.38E-04,2.05E-04,1.75E-04,1.50E-04,1.29E-04,7.11E-05
103,Northern Calif-07,"Petrolia, General Store",5.2,28.48,368.72,NCALIF.AG\D-PGS075.AT2,NCALIF.AG\D-PGS345.AT2,NCALIF.AG\D-PGSDWN.AT2,1.50E-01,7.73E+00,1.01E+00,1.50E-01,1.52E-01,1.55E-01,1.63E-01,1.62E-01,1.62E-01,1.71E-01,1.78E-01,1.77E-01,2.06E-01,2.19E-01,2.42E-01,2.51E-01,2.68E-01,2.72E-01,2.79E-01,2.98E-01,2.79E-01,2.63E-01,2.64E-01,2.93E-01,2.88E-01,2.89E-01,3.18E-01,3.39E-01,3.46E-01,3.93E-01,4.66E-01,3.37E-01,3.24E-01,3.24E-01,3.28E-01,3.40E-01,3.28E-01,3.53E-01,3.81E-01,3.85E-01,3.48E-01,3.01E-01,2.91E-01,3.00E-01,2.89E-01,2.80E-01,2.98E-01,3.30E-01,4.18E-01,4.71E-01,4.76E-01,4.69E-01,4.32E-01,4.53E-01,5.20E-01,5.04E-01,4.61E-01,4.12E-01,3.16E-01,2.68E-01,1.96E-01,1.65E-01,1.55E-01,1.49E-01,1.33E-01,1.04E-01,9.00E-02,8.11E-02,7.06E-02,6.05E-02,5.52E-02,4.75E-02,4.44E-02,5.03E-02,4.87E-02,4.22E-02,3.39E-02,2.75E-02,2.29E-02,2.00E-02,1.74E-02,1.39E-02,1.09E-02,9.84E-03,8.86E-03,7.98E-03,6.89E-03,6.08E-03,5.55E-03,5.22E-03,4.88E-03,4.17E-03,3.67E-03,3.28E-03,2.91E-03,2.58E-03,2.29E-03,2.04E-03,1.56E-03,1.23E-03,1.00E-03,8.42E-04,7.35E-04,6.54E-04,5.82E-04,5.20E-04,4.67E-04,4.21E-04,3.46E-04,2.88E-04,2.44E-04,2.09E-04,1.82E-04,1.03E-04
104,Northern Calif-07,"Shelter Cove, Sta A",5.2,58.78,594.83,NCALIF.AG\D-SCA200.AT2,NCALIF.AG\D-SCA290.AT2,NCALIF.AG\D-SCAXXX.AT2,3.01E-02,1.35E+00,2.72E-01,3.02E-02,3.06E-02,3.08E-02,3.12E-02,3.15E-02,3.14E-02,3.18E-02,3.22E-02,3.21E-02,3.30E-02,3.33E-02,3.41E-02,3.50E-02,3.68E-02,4.02E-02,4.16E-02,4.22E-02,5.10E-02,5.15E-02,4.98E-02,5.26E-02,5.07E-02,5.47E-02,5.76E-02,5.58E-02,6.48E-02,7.33E-02,6.24E-02,6.45E-02,7.16E-02,7.27E-02,6.45E-02,6.99E-02,8.56E-02,8.68E-02,9.89E-02,1.12E-01,1.19E-01,1.18E-01,1.17E-01,1.11E-01,1.01E-01,8.10E-02,7.99E-02,8.37E-02,8.79E-02,7.68E-02,7.11E-02,6.91E-02,7.25E-02,7.57E-02,6.94E-02,6.03E-02,5.79E-02,5.65E-02,5.09E-02,4.25E-02,2.98E-02,2.59E-02,2.31E-02,2.08E-02,1.72E-02,1.53E-02,1.37E-02,1.28E-02,1.29E-02,1.23E-02,1.13E-02,9.02E-03,8.81E-03,8.52E-03,8.13E-03,7.83E-03,6.59E-03,5.76E-03,4.93E-03,3.99E-03,3.51E-03,2.71E-03,2.19E-03,1.99E-03,1.81E-03,1.55E-03,1.31E-03,1.12E-03,9.51E-04,8.87E-04,8.43E-04,7.50E-04,6.77E-04,5.97E-04,5.38E-04,4.94E-04,4.55E-04,4.20E-04,3.49E-04,2.95E-04,2.52E-04,2.18E-04,1.90E-04,1.67E-04,1.49E-04,1.33E-04,1.19E-04,1.08E-04,8.92E-05,7.50E-05,6.40E-05,5.52E-05,4.82E-05,2.72E-05
105,Northern Calif-07,"Shelter Cove, Sta B",5.2,59.7,518.98,NCALIF.AG\D-SCP070.AT2,NCALIF.AG\D-SCP160.AT2,NCALIF.AG\D-SCPXXX.AT2,8.13E-02,2.31E+00,9.71E-02,8.16E-02,8.37E-02,8.62E-02,8.97E-02,9.78E-02,1.05E-01,1.15E-01,1.13E-01,1.19E-01,1.34E-01,1.36E-01,1.46E-01,1.48E-01,1.48E-01,1.51E-01,1.60E-01,1.56E-01,1.40E-01,1.54E-01,1.60E-01,1.75E-01,1.84E-01,2.01E-01,1.94E-01,2.05E-01,2.17E-01,1.92E-01,1.78E-01,1.65E-01,1.87E-01,1.87E-01,1.91E-01,2.22E-01,2.33E-01,2.61E-01,3.20E-01,3.19E-01,3.24E-01,2.86E-01,2.02E-01,1.82E-01,1.69E-01,1.35E-01,1.14E-01,1.00E-01,8.53E-02,8.07E-02,7.89E-02,7.45E-02,6.98E-02,6.47E-02,5.83E-02,5.32E-02,5.12E-02,4.91E-02,4.40E-02,3.80E-02,2.97E-02,2.47E-02,1.96E-02,1.79E-02,1.47E-02,1.18E-02,1.01E-02,8.89E-03,8.02E-03,7.22E-03,6.59E-03,5.96E-03,5.10E-03,4.27E-03,3.81E-03,3.14E-03,2.48E-03,2.18E-03,1.93E-03,1.70E-03,1.51E-03,1.20E-03,9.98E-04,9.20E-04,8.48E-04,7.23E-04,6.18E-04,5.33E-04,4.62E-04,4.31E-04,4.04E-04,3.55E-04,3.14E-04,2.79E-04,2.51E-04,2.25E-04,2.04E-04,1.85E-04,1.49E-04,1.22E-04,1.02E-04,8.66E-05,7.45E-05,6.47E-05,5.69E-05,5.04E-05,4.50E-05,4.05E-05,3.32E-05,2.78E-05,2.36E-05,2.03E-05,1.76E-05,9.84E-06
106,Oroville-01,Oroville Seismograph Station,5.89,7.79,680.37,OROVILLE\A-ORV037.AT2,OROVILLE\A-ORV307.AT2,OROVILLE\A-ORVXXX.AT2,8.01E-02,2.29E+00,1.02E-01,8.04E-02,8.18E-02,8.23E-02,8.34E-02,8.41E-02,8.43E-02,8.39E-02,8.55E-02,8.62E-02,8.87E-02,8.79E-02,9.41E-02,9.57E-02,9.52E-02,9.74E-02,9.69E-02,1.05E-01,1.14E-01,1.44E-01,1.62E-01,1.71E-01,1.74E-01,1.75E-01,1.78E-01,1.66E-01,1.91E-01,2.20E-01,2.55E-01,2.96E-01,3.60E-01,3.46E-01,3.39E-01,2.74E-01,2.62E-01,2.45E-01,2.46E-01,2.49E-01,2.21E-01,1.87E-01,1.26E-01,1.12E-01,1.11E-01,1.05E-01,1.03E-01,1.00E-01,8.43E-02,6.84E-02,6.45E-02,6.30E-02,5.92E-02,5.18E-02,4.28E-02,3.69E-02,3.55E-02,3.26E-02,2.84E-02,2.34E-02,1.54E-02,1.35E-02,1.07E-02,1.02E-02,9.66E-03,8.18E-03,6.56E-03,5.54E-03,4.70E-03,4.05E-03,3.60E-03,2.80E-03,2.23E-03,1.85E-03,1.56E-03,1.35E-03,1.19E-03,1.05E-03,9.49E-04,8.76E-04,8.03E-04,6.94E-04,6.06E-04,5.68E-04,5.32E-04,4.70E-04,4.18E-04,3.73E-04,3.34E-04,3.16E-04,2.99E-04,2.69E-04,2.42E-04,2.19E-04,1.98E-04,1.79E-04,1.62E-04,1.48E-04,1.17E-04,9.47E-05,8.03E-05,7.02E-05,6.19E-05,5.49E-05,4.91E-05,4.45E-05,4.05E-05,3.69E-05,3.11E-05,2.65E-05,2.28E-05,1.99E-05,1.74E-05,9.99E-06
107,Oroville-02,Oroville Airport,4.79,13.55,391.76,OROVILLE\B-OAP180.AT2,OROVILLE\B-OAP270.AT2,OROVILLE\B-OAPDWN.AT2,2.85E-02,2.22E+00,6.63E-01,2.87E-02,2.92E-02,2.95E-02,2.98E-02,3.01E-02,3.02E-02,3.03E-02,3.14E-02,3.17E-02,3.28E-02,3.38E-02,3.44E-02,3.47E-02,3.52E-02,3.65E-02,3.75E-02,4.45E-02,4.82E-02,5.28E-02,5.50E-02,5.74E-02,6.46E-02,7.22E-02,7.31E-02,6.85E-02,6.05E-02,5.72E-02,5.58E-02,6.20E-02,7.85E-02,8.38E-02,9.19E-02,9.48E-02,8.99E-02,8.21E-02,7.43E-02,6.82E-02,6.21E-02,4.92E-02,4.27E-02,4.01E-02,3.65E-02,3.15E-02,3.03E-02,2.92E-02,2.67E-02,2.42E-02,2.22E-02,2.04E-02,1.81E-02,1.66E-02,1.48E-02,1.56E-02,1.56E-02,1.60E-02,1.66E-02,1.77E-02,2.09E-02,2.24E-02,2.14E-02,2.06E-02,2.15E-02,2.15E-02,1.95E-02,1.98E-02,2.04E-02,2.22E-02,2.45E-02,2.80E-02,2.91E-02,2.92E-02,2.80E-02,2.56E-02,2.31E-02,2.09E-02,1.85E-02,1.60E-02,1.38E-02,1.04E-02,8.54E-03,7.72E-03,6.97E-03,5.69E-03,4.65E-03,3.82E-03,3.32E-03,3.09E-03,2.89E-03,2.52E-03,2.20E-03,1.92E-03,1.68E-03,1.48E-03,1.34E-03,1.24E-03,1.02E-03,8.26E-04,6.95E-04,5.93E-04,5.12E-04,4.47E-04,3.93E-04,3.48E-04,3.11E-04,2.80E-04,2.29E-04,1.91E-04,1.62E-04,1.40E-04,1.21E-04,6.75E-05
108,Oroville-02,Up & Down Cafe (OR1),4.79,12.07,377.25,OROVILLE\B-OR1000.AT2,OROVILLE\B-OR1270.AT2,OROVILLE\B-OR1DWN.AT2,3.36E-02,2.11E+00,4.51E-01,3.39E-02,3.47E-02,3.43E-02,3.49E-02,3.59E-02,3.60E-02,3.64E-02,3.73E-02,3.78E-02,4.06E-02,4.33E-02,4.33E-02,4.35E-02,4.40E-02,4.62E-02,5.17E-02,5.88E-02,6.05E-02,5.99E-02,5.91E-02,6.23E-02,7.14E-02,7.28E-02,7.18E-02,5.77E-02,5.14E-02,5.08E-02,6.77E-02,7.69E-02,7.71E-02,7.23E-02,6.12E-02,5.65E-02,5.56E-02,6.03E-02,5.63E-02,5.56E-02,5.60E-02,4.82E-02,4.75E-02,5.38E-02,5.96E-02,5.66E-02,5.46E-02,5.25E-02,5.08E-02,5.75E-02,5.78E-02,5.75E-02,5.46E-02,5.27E-02,4.91E-02,4.48E-02,4.22E-02,3.97E-02,3.52E-02,3.19E-02,3.19E-02,3.47E-02,3.78E-02,3.53E-02,3.34E-02,3.16E-02,3.29E-02,3.40E-02,3.41E-02,3.17E-02,3.11E-02,2.97E-02,2.91E-02,2.78E-02,2.57E-02,2.31E-02,2.14E-02,1.82E-02,1.58E-02,1.38E-02,1.23E-02,1.01E-02,7.97E-03,6.97E-03,6.04E-03,4.72E-03,4.18E-03,3.68E-03,3.22E-03,3.01E-03,2.81E-03,2.46E-03,2.15E-03,1.89E-03,1.67E-03,1.48E-03,1.31E-03,1.18E-03,9.06E-04,7.16E-04,5.80E-04,4.78E-04,4.02E-04,3.42E-04,2.95E-04,2.57E-04,2.26E-04,2.01E-04,1.62E-04,1.33E-04,1.11E-04,9.49E-05,8.21E-05,4.57E-05
109,Oroville-04,Medical Center,4.37,9.22,519.15,OROVILLE\C-OMC246.AT2,OROVILLE\C-OMC336.AT2,OROVILLE\C-OMCDWN.AT2,6.37E-02,2.83E+00,3.16E-01,6.38E-02,6.51E-02,6.58E-02,6.68E-02,6.81E-02,6.78E-02,6.80E-02,7.17E-02,7.17E-02,7.15E-02,7.53E-02,7.46E-02,7.61E-02,8.08E-02,8.96E-02,9.06E-02,9.72E-02,1.09E-01,1.03E-01,1.06E-01,1.09E-01,1.02E-01,1.10E-01,1.19E-01,1.29E-01,1.59E-01,1.68E-01,1.30E-01,1.15E-01,1.12E-01,1.08E-01,1.10E-01,1.06E-01,1.01E-01,1.09E-01,1.17E-01,1.07E-01,1.14E-01,1.00E-01,1.10E-01,1.09E-01,1.21E-01,1.29E-01,1.22E-01,1.13E-01,1.06E-01,1.09E-01,1.10E-01,1.06E-01,1.08E-01,9.97E-02,8.33E-02,8.18E-02,8.44E-02,8.55E-02,9.03E-02,9.81E-02,9.79E-02,8.96E-02,7.00E-02,6.35E-02,5.71E-02,4.69E-02,3.84E-02,3.08E-02,2.51E-02,2.16E-02,1.91E-02,1.52E-02,1.23E-02,1.12E-02,9.62E-03,7.88E-03,7.22E-03,6.45E-03,5.79E-03,5.13E-03,4.51E-03,3.67E-03,3.09E-03,2.83E-03,2.58E-03,2.15E-03,1.80E-03,1.51E-03,1.30E-03,1.22E-03,1.15E-03,1.02E-03,9.17E-04,8.25E-04,7.46E-04,6.78E-04,6.18E-04,5.66E-04,4.61E-04,3.83E-04,3.23E-04,2.77E-04,2.39E-04,2.09E-04,1.84E-04,1.64E-04,1.46E-04,1.32E-04,1.08E-04,9.06E-05,7.70E-05,6.62E-05,5.76E-05,3.22E-05
110,Oroville-04,Oroville Airport,4.37,13.37,391.76,OROVILLE\C-OAP180.AT2,OROVILLE\C-OAP270.AT2,OROVILLE\C-OAPDWN.AT2,2.36E-02,1.66E+00,4.60E-01,2.38E-02,2.40E-02,2.46E-02,2.49E-02,2.49E-02,2.52E-02,2.58E-02,2.75E-02,2.80E-02,3.45E-02,3.70E-02,3.66E-02,3.78E-02,3.86E-02,3.90E-02,4.29E-02,5.43E-02,5.76E-02,5.51E-02,4.95E-02,5.04E-02,5.70E-02,5.24E-02,5.03E-02,5.05E-02,5.36E-02,5.93E-02,5.60E-02,6.94E-02,6.88E-02,6.41E-02,5.45E-02,5.06E-02,4.62E-02,4.58E-02,4.77E-02,4.68E-02,4.95E-02,4.89E-02,4.17E-02,4.10E-02,4.08E-02,4.66E-02,5.01E-02,5.10E-02,4.70E-02,4.16E-02,4.03E-02,3.91E-02,3.44E-02,2.78E-02,2.56E-02,2.41E-02,2.41E-02,2.45E-02,2.54E-02,2.68E-02,2.50E-02,2.08E-02,1.81E-02,1.77E-02,1.84E-02,1.61E-02,1.51E-02,1.56E-02,1.70E-02,1.77E-02,1.91E-02,2.22E-02,2.45E-02,2.42E-02,2.39E-02,2.20E-02,2.01E-02,1.82E-02,1.60E-02,1.36E-02,1.21E-02,9.89E-03,7.90E-03,7.00E-03,6.17E-03,5.02E-03,4.18E-03,3.41E-03,2.95E-03,2.76E-03,2.59E-03,2.28E-03,2.02E-03,1.79E-03,1.59E-03,1.43E-03,1.28E-03,1.16E-03,9.08E-04,7.29E-04,5.96E-04,4.96E-04,4.18E-04,3.57E-04,3.08E-04,2.69E-04,2.36E-04,2.12E-04,1.73E-04,1.43E-04,1.20E-04,1.03E-04,8.86E-05,4.83E-05
111,Oroville-04,Up & Down Cafe (OR1),4.37,11,377.25,OROVILLE\C-OR1000.AT2,OROVILLE\C-OR1090.AT2,OROVILLE\C-OR1DWN.AT2,5.88E-02,2.32E+00,4.32E-01,5.92E-02,6.15E-02,6.17E-02,6.39E-02,6.53E-02,6.62E-02,7.05E-02,7.57E-02,7.75E-02,8.71E-02,8.83E-02,8.92E-02,9.28E-02,9.69E-02,1.09E-01,1.09E-01,1.11E-01,1.23E-01,1.33E-01,1.23E-01,1.36E-01,1.51E-01,1.70E-01,1.76E-01,1.74E-01,1.67E-01,1.68E-01,1.53E-01,1.33E-01,1.29E-01,1.37E-01,1.30E-01,1.22E-01,1.07E-01,1.09E-01,1.11E-01,1.15E-01,1.25E-01,1.18E-01,1.03E-01,9.41E-02,8.83E-02,7.73E-02,7.86E-02,8.25E-02,8.37E-02,8.04E-02,7.89E-02,8.13E-02,7.73E-02,6.07E-02,5.38E-02,4.76E-02,4.30E-02,3.86E-02,3.08E-02,3.05E-02,2.99E-02,2.96E-02,2.96E-02,2.68E-02,2.62E-02,2.63E-02,3.03E-02,3.31E-02,3.12E-02,2.50E-02,2.57E-02,2.72E-02,2.61E-02,2.60E-02,2.72E-02,2.48E-02,2.11E-02,1.81E-02,1.57E-02,1.36E-02,1.16E-02,9.14E-03,6.91E-03,5.90E-03,5.29E-03,4.27E-03,3.37E-03,2.85E-03,2.50E-03,2.34E-03,2.19E-03,1.91E-03,1.67E-03,1.46E-03,1.27E-03,1.15E-03,1.04E-03,9.51E-04,7.66E-04,6.27E-04,5.22E-04,4.41E-04,3.77E-04,3.26E-04,2.84E-04,2.50E-04,2.22E-04,1.98E-04,1.61E-04,1.33E-04,1.12E-04,9.57E-05,8.27E-05,4.53E-05
112,Oroville-03,Broadbeck Residence,4.7,5.95,427.38,OROVILLE\D-EBH000.AT2,OROVILLE\D-EBH090.AT2,OROVILLE\D-EBHDWN.AT2,1.44E-01,2.94E+00,1.84E-01,1.46E-01,1.64E-01,1.73E-01,1.70E-01,2.01E-01,2.10E-01,2.02E-01,2.54E-01,2.62E-01,2.26E-01,2.03E-01,2.07E-01,2.15E-01,2.22E-01,2.26E-01,2.38E-01,3.35E-01,4.11E-01,4.09E-01,4.03E-01,4.16E-01,4.84E-01,5.16E-01,5.08E-01,5.06E-01,4.66E-01,3.77E-01,2.44E-01,1.84E-01,1.70E-01,1.72E-01,1.82E-01,2.38E-01,2.61E-01,2.30E-01,2.07E-01,1.85E-01,1.89E-01,1.74E-01,1.44E-01,1.38E-01,1.44E-01,1.29E-01,1.18E-01,1.08E-01,1.10E-01,1.24E-01,1.32E-01,1.37E-01,1.41E-01,1.24E-01,1.04E-01,9.40E-02,9.05E-02,8.45E-02,6.72E-02,5.31E-02,4.58E-02,4.27E-02,4.20E-02,4.32E-02,4.80E-02,4.95E-02,4.64E-02,4.09E-02,3.48E-02,2.90E-02,2.23E-02,1.47E-02,1.02E-02,7.96E-03,6.58E-03,5.44E-03,4.52E-03,3.79E-03,3.20E-03,2.74E-03,2.36E-03,1.81E-03,1.44E-03,1.30E-03,1.18E-03,1.00E-03,8.62E-04,7.49E-04,6.54E-04,6.13E-04,5.76E-04,5.11E-04,4.57E-04,4.11E-04,3.71E-04,3.38E-04,3.10E-04,2.85E-04,2.36E-04,1.98E-04,1.69E-04,1.46E-04,1.27E-04,1.12E-04,9.94E-05,8.88E-05,7.98E-05,7.20E-05,5.96E-05,5.02E-05,4.28E-05,3.69E-05,3.22E-05,1.83E-05
